{
"type": "FeatureCollection",
"name": "placers_typed",
"crs": { "type": "name", "properties": { "name": "urn:ogc:def:crs:EPSG::3338" } },
"features": [
{ "type": "Feature", "properties": { "ardf_num": "NM172", "site": "Monument Creek; Poorman Bench", "model_code": "39a", "comm_main": "Au", "elev_m": 88.609138488769531, "geol_type": "alluvial-stream", "type_basis": "name:creek", "coarseness_rank": null }, "geometry": { "type": "Point", "coordinates": [ -548211.074991837376729, 1673653.067757206736133 ] } },
{ "type": "Feature", "properties": { "ardf_num": "NM185", "site": "Russel Creek", "model_code": "39a", "comm_main": "Au", "elev_m": 141.4788818359375, "geol_type": "alluvial-stream", "type_basis": "name:creek", "coarseness_rank": null }, "geometry": { "type": "Point", "coordinates": [ -548373.567965957452543, 1673307.750866489717737 ] } },
{ "type": "Feature", "properties": { "ardf_num": "NM205", "site": "Lindblom Creek", "model_code": "39a", "comm_main": "Au", "elev_m": 41.731090545654297, "geol_type": "alluvial-stream", "type_basis": "name:creek", "coarseness_rank": null }, "geometry": { "type": "Point", "coordinates": [ -544521.528046241612174, 1675874.281413381453604 ] } },
{ "type": "Feature", "properties": { "ardf_num": "NM209", "site": "Rock Creek (placer)", "model_code": "39a", "comm_main": "Au", "elev_m": 86.969436645507812, "geol_type": "alluvial-stream", "type_basis": "name:creek", "coarseness_rank": 3.0 }, "geometry": { "type": "Point", "coordinates": [ -543516.021985884639435, 1674510.525167057756335 ] } },
{ "type": "Feature", "properties": { "ardf_num": "NM210", "site": "Rock Creek (bench placer)", "model_code": "39a", "comm_main": "Au", "elev_m": 73.310371398925781, "geol_type": "alluvial-stream", "type_basis": "name:creek", "coarseness_rank": null }, "geometry": { "type": "Point", "coordinates": [ -543744.653354320675135, 1674731.40500797261484 ] } },
{ "type": "Feature", "properties": { "ardf_num": "NM215", "site": "Walsh Cut (alluvial placer)", "model_code": "39a", "comm_main": "Au", "elev_m": 86.969436645507812, "geol_type": "alluvial-stream", "type_basis": "name:cut", "coarseness_rank": null }, "geometry": { "type": "Point", "coordinates": [ -543514.113476034603082, 1674521.517040382139385 ] } },
{ "type": "Feature", "properties": { "ardf_num": "NM218", "site": "Ullrich (Judy and Deb Bench claims)", "model_code": "39a", "comm_main": "Au", "elev_m": 106.01720428466797, "geol_type": "alluvial-stream", "type_basis": "name:bench", "coarseness_rank": null }, "geometry": { "type": "Point", "coordinates": [ -542812.584890692844056, 1673527.934933452866971 ] } },
{ "type": "Feature", "properties": { "ardf_num": "NM219", "site": "Hot Air Bench (Columbia Mine)", "model_code": "39a", "comm_main": "Au", "elev_m": 49.434249877929688, "geol_type": "alluvial-stream", "type_basis": "name:bench", "coarseness_rank": 1.0 }, "geometry": { "type": "Point", "coordinates": [ -543323.761764213792048, 1673016.462158512324095 ] } },
{ "type": "Feature", "properties": { "ardf_num": "NM220", "site": "Glacier Creek (includes Bonanza and Bergstrom Gulches)", "model_code": "39a", "comm_main": "Au", "elev_m": 30.632846832275391, "geol_type": "alluvial-stream", "type_basis": "name:creek", "coarseness_rank": 2.0 }, "geometry": { "type": "Point", "coordinates": [ -543905.017623073305003, 1672913.532806968549266 ] } },
{ "type": "Feature", "properties": { "ardf_num": "NM222", "site": "Snow Gulch", "model_code": "39a", "comm_main": "Au", "elev_m": 66.947113037109375, "geol_type": "alluvial-stream", "type_basis": "name:gulch", "coarseness_rank": null }, "geometry": { "type": "Point", "coordinates": [ -543044.677431221585721, 1672413.229998247697949 ] } },
{ "type": "Feature", "properties": { "ardf_num": "NM229", "site": "Jorgensen; Mountain Creek; Mary's Gulch", "model_code": "36a, 39a", "comm_main": "Au", "elev_m": 67.959480285644531, "geol_type": "alluvial-stream", "type_basis": "name:creek", "coarseness_rank": 1.0 }, "geometry": { "type": "Point", "coordinates": [ -544243.589319185935892, 1671579.522287740837783 ] } },
{ "type": "Feature", "properties": { "ardf_num": "NM236", "site": "Anvil Creek", "model_code": "39a", "comm_main": "Au", "elev_m": 41.644638061523438, "geol_type": "alluvial-stream", "type_basis": "name:creek", "coarseness_rank": 3.0 }, "geometry": { "type": "Point", "coordinates": [ -544347.171944004716352, 1669219.48900102940388 ] } },
{ "type": "Feature", "properties": { "ardf_num": "NM238", "site": "Caribou Bill", "model_code": "39a", "comm_main": "Au", "elev_m": 153.02409362792969, "geol_type": "alluvial-stream", "type_basis": "narrative:alluvial=5,marine=0,glacial=1,residual=0", "coarseness_rank": 3.0 }, "geometry": { "type": "Point", "coordinates": [ -541096.600008394219913, 1671600.614295109873638 ] } },
{ "type": "Feature", "properties": { "ardf_num": "NM239", "site": "Madeline; Mattie (upper workings)", "model_code": "39a", "comm_main": "Au", "elev_m": 184.76690673828125, "geol_type": "alluvial-stream", "type_basis": "narrative:alluvial=6,marine=0,glacial=1,residual=0", "coarseness_rank": null }, "geometry": { "type": "Point", "coordinates": [ -540838.039671030710451, 1671635.224801933160052 ] } },
{ "type": "Feature", "properties": { "ardf_num": "NM240", "site": "Mattie (lower workings)", "model_code": "39a", "comm_main": "Au", "elev_m": 178.4886474609375, "geol_type": "alluvial-stream", "type_basis": "narrative:alluvial=5,marine=0,glacial=1,residual=0", "coarseness_rank": null }, "geometry": { "type": "Point", "coordinates": [ -540898.548283540760167, 1671509.809560682158917 ] } },
{ "type": "Feature", "properties": { "ardf_num": "NM241", "site": "Snowflake", "model_code": "39a", "comm_main": "Au", "elev_m": 177.71588134765625, "geol_type": "alluvial-stream", "type_basis": "narrative:alluvial=5,marine=0,glacial=1,residual=0", "coarseness_rank": 3.0 }, "geometry": { "type": "Point", "coordinates": [ -540704.484658404020593, 1671170.631940690800548 ] } },
{ "type": "Feature", "properties": { "ardf_num": "NM242", "site": "Sugar", "model_code": "39a", "comm_main": "Au", "elev_m": 179.32247924804688, "geol_type": "alluvial-stream", "type_basis": "narrative:alluvial=4,marine=0,glacial=1,residual=0", "coarseness_rank": null }, "geometry": { "type": "Point", "coordinates": [ -540520.595726618776098, 1671025.693175284890458 ] } },
{ "type": "Feature", "properties": { "ardf_num": "NM243", "site": "Gold Hill (drift mine near Dexter)", "model_code": "39a", "comm_main": "Au", "elev_m": 170.43682861328125, "geol_type": "alluvial-stream", "type_basis": "narrative:alluvial=4,marine=0,glacial=1,residual=0", "coarseness_rank": null }, "geometry": { "type": "Point", "coordinates": [ -540433.870006109937094, 1670908.842985950177535 ] } },
{ "type": "Feature", "properties": { "ardf_num": "NM246", "site": "Dexter High Bench", "model_code": "39a", "comm_main": "Au", "elev_m": 183.76094055175781, "geol_type": "alluvial-stream", "type_basis": "name:bench", "coarseness_rank": 3.0 }, "geometry": { "type": "Point", "coordinates": [ -540952.61063062294852, 1671224.777096877573058 ] } },
{ "type": "Feature", "properties": { "ardf_num": "NM247", "site": "Summit High Bench", "model_code": "39a", "comm_main": "Au", "elev_m": 165.85325622558594, "geol_type": "alluvial-stream", "type_basis": "name:bench", "coarseness_rank": 3.0 }, "geometry": { "type": "Point", "coordinates": [ -541431.930714166839607, 1670390.471052651060745 ] } },
{ "type": "Feature", "properties": { "ardf_num": "NM248", "site": "Unnamed high-bench deposit (Dexter Creek-Dry Creek divide)", "model_code": "39a", "comm_main": "Au", "elev_m": 169.408447265625, "geol_type": "alluvial-stream", "type_basis": "name:bench", "coarseness_rank": 2.0 }, "geometry": { "type": "Point", "coordinates": [ -540852.495964567526244, 1669045.04360032454133 ] } },
{ "type": "Feature", "properties": { "ardf_num": "NM249", "site": "Upper Dry Creek; Bear Creek (Gulch)", "model_code": "39a", "comm_main": "Au", "elev_m": 87.051368713378906, "geol_type": "alluvial-stream", "type_basis": "name:creek", "coarseness_rank": 1.0 }, "geometry": { "type": "Point", "coordinates": [ -541234.312373367603868, 1667310.714669726788998 ] } },
{ "type": "Feature", "properties": { "ardf_num": "NM250", "site": "Nome Mining District", "model_code": "36a, 27d, 28a, 39a", "comm_main": "Au", "elev_m": 74.941879272460938, "geol_type": "aggregate", "type_basis": "name-aggregate:district", "coarseness_rank": null }, "geometry": { "type": "Point", "coordinates": [ -543091.086102902540006, 1670575.610620509134606 ] } },
{ "type": "Feature", "properties": { "ardf_num": "NM251", "site": "Nome placer field", "model_code": "39a", "comm_main": "Au", "elev_m": 35.979400634765625, "geol_type": "aggregate", "type_basis": "name-aggregate:placer field", "coarseness_rank": 1.0 }, "geometry": { "type": "Point", "coordinates": [ -544120.388750590151176, 1666937.997986056376249 ] } },
{ "type": "Feature", "properties": { "ardf_num": "NM254", "site": "Nome Coastal Plain", "model_code": "39a", "comm_main": "Au", "elev_m": 12.863526344299316, "geol_type": "aggregate", "type_basis": "name-aggregate:coastal plain", "coarseness_rank": null }, "geometry": { "type": "Point", "coordinates": [ -547237.107496854267083, 1666619.271565092960373 ] } },
{ "type": "Feature", "properties": { "ardf_num": "NM255", "site": "Present (First) Beach", "model_code": "39, strandline marine placer", "comm_main": "Au", "elev_m": 0.0, "geol_type": "marine-beach", "type_basis": "name:beach", "coarseness_rank": 3.0 }, "geometry": { "type": "Point", "coordinates": [ -546075.689280202612281, 1662294.570555568207055 ] } },
{ "type": "Feature", "properties": { "ardf_num": "NM258", "site": "Third Beach", "model_code": "39a", "comm_main": "Au", "elev_m": 51.636363983154297, "geol_type": "marine-beach", "type_basis": "name:beach", "coarseness_rank": 2.0 }, "geometry": { "type": "Point", "coordinates": [ -542400.266336275963113, 1666221.264022328658029 ] } },
{ "type": "Feature", "properties": { "ardf_num": "NM259", "site": "Fourth Beach", "model_code": "39a", "comm_main": "Au", "elev_m": 70.596382141113281, "geol_type": "marine-beach", "type_basis": "name:beach", "coarseness_rank": null }, "geometry": { "type": "Point", "coordinates": [ -543190.702873542555608, 1667558.239949485519901 ] } },
{ "type": "Feature", "properties": { "ardf_num": "NM260", "site": "Extra Dry Creek", "model_code": "39a", "comm_main": "Au", "elev_m": 97.467498779296875, "geol_type": "alluvial-stream", "type_basis": "name:creek", "coarseness_rank": 3.0 }, "geometry": { "type": "Point", "coordinates": [ -538103.884037834010087, 1668379.771064795553684 ] } },
{ "type": "Feature", "properties": { "ardf_num": "NM261", "site": "Cooper Gulch (placer and M. Charles lode occurrence)", "model_code": "39a", "comm_main": "Au", "elev_m": 131.22892761230469, "geol_type": "alluvial-stream", "type_basis": "name:gulch", "coarseness_rank": null }, "geometry": { "type": "Point", "coordinates": [ -542846.175175872631371, 1668087.408519401215017 ] } },
{ "type": "Feature", "properties": { "ardf_num": "NM262", "site": "Newton Gulch", "model_code": "39a", "comm_main": "Au", "elev_m": 80.971000671386719, "geol_type": "alluvial-stream", "type_basis": "name:gulch", "coarseness_rank": null }, "geometry": { "type": "Point", "coordinates": [ -540456.34371991280932, 1665840.658778078621253 ] } },
{ "type": "Feature", "properties": { "ardf_num": "NM264", "site": "Lower Dry Creek", "model_code": "39a", "comm_main": "Au", "elev_m": 33.096199035644531, "geol_type": "alluvial-stream", "type_basis": "name:creek", "coarseness_rank": null }, "geometry": { "type": "Point", "coordinates": [ -541713.510888215620071, 1663940.065082728397101 ] } },
{ "type": "Feature", "properties": { "ardf_num": "NM265", "site": "Deer Gulch", "model_code": "39a", "comm_main": "Au", "elev_m": 117.60330963134766, "geol_type": "alluvial-stream", "type_basis": "name:gulch", "coarseness_rank": null }, "geometry": { "type": "Point", "coordinates": [ -540685.309678147430532, 1670408.775669653201476 ] } },
{ "type": "Feature", "properties": { "ardf_num": "NM266", "site": "Grass Gulch", "model_code": "39a", "comm_main": "Au", "elev_m": 138.07060241699219, "geol_type": "alluvial-stream", "type_basis": "name:gulch", "coarseness_rank": null }, "geometry": { "type": "Point", "coordinates": [ -540952.569722468964756, 1670239.775254152482376 ] } },
{ "type": "Feature", "properties": { "ardf_num": "NM267", "site": "Nekula Gulch; Nicolai Gulch", "model_code": "39a", "comm_main": "Au", "elev_m": 138.85086059570312, "geol_type": "alluvial-stream", "type_basis": "name:gulch", "coarseness_rank": 3.0 }, "geometry": { "type": "Point", "coordinates": [ -541337.156061647110619, 1671642.166731939418241 ] } },
{ "type": "Feature", "properties": { "ardf_num": "NM268", "site": "Dewey Creek", "model_code": "39a", "comm_main": "Au", "elev_m": 52.787666320800781, "geol_type": "alluvial-stream", "type_basis": "name:creek", "coarseness_rank": null }, "geometry": { "type": "Point", "coordinates": [ -535966.550660200766288, 1675382.244504988426343 ] } },
{ "type": "Feature", "properties": { "ardf_num": "NM269", "site": "Grace Gulch", "model_code": "39a", "comm_main": "Au", "elev_m": 132.68060302734375, "geol_type": "alluvial-stream", "type_basis": "name:gulch", "coarseness_rank": null }, "geometry": { "type": "Point", "coordinates": [ -533429.049323132145219, 1672345.824705180944875 ] } },
{ "type": "Feature", "properties": { "ardf_num": "NM270", "site": "Union Gulch", "model_code": "39a", "comm_main": "Au", "elev_m": 76.921676635742188, "geol_type": "alluvial-stream", "type_basis": "name:gulch", "coarseness_rank": 2.0 }, "geometry": { "type": "Point", "coordinates": [ -534026.335338260047138, 1672741.845281381392851 ] } },
{ "type": "Feature", "properties": { "ardf_num": "NM271", "site": "McDonald Creek", "model_code": "39a", "comm_main": "Au", "elev_m": 21.546808242797852, "geol_type": "alluvial-stream", "type_basis": "name:creek", "coarseness_rank": 1.0 }, "geometry": { "type": "Point", "coordinates": [ -537526.401748108095489, 1662066.150158564792946 ] } },
{ "type": "Feature", "properties": { "ardf_num": "NM272", "site": "Tripple Creek", "model_code": "39a", "comm_main": "Au", "elev_m": 31.133449554443359, "geol_type": "alluvial-stream", "type_basis": "name:creek", "coarseness_rank": null }, "geometry": { "type": "Point", "coordinates": [ -537317.154147352674045, 1663830.219399886438623 ] } },
{ "type": "Feature", "properties": { "ardf_num": "NM273", "site": "Washington Creek; Washington Gulch", "model_code": "39a", "comm_main": "Au", "elev_m": 18.57575798034668, "geol_type": "alluvial-stream", "type_basis": "name:creek", "coarseness_rank": 1.0 }, "geometry": { "type": "Point", "coordinates": [ -535113.785854105604813, 1663023.996253002202138 ] } },
{ "type": "Feature", "properties": { "ardf_num": "NM274", "site": "Stevens Gulch", "model_code": "39a", "comm_main": "Au", "elev_m": 12.782651901245117, "geol_type": "alluvial-stream", "type_basis": "name:gulch", "coarseness_rank": 1.0 }, "geometry": { "type": "Point", "coordinates": [ -534984.716588732437231, 1662753.011915911454707 ] } },
{ "type": "Feature", "properties": { "ardf_num": "NM275", "site": "Moss Gulch", "model_code": "39a", "comm_main": "Au", "elev_m": 9.1737098693847656, "geol_type": "alluvial-stream", "type_basis": "name:gulch", "coarseness_rank": null }, "geometry": { "type": "Point", "coordinates": [ -535373.303307172842324, 1661528.874027741840109 ] } },
{ "type": "Feature", "properties": { "ardf_num": "NM276", "site": "Laurada Creek", "model_code": "39a", "comm_main": "Au", "elev_m": 12.737946510314941, "geol_type": "alluvial-stream", "type_basis": "name:creek", "coarseness_rank": null }, "geometry": { "type": "Point", "coordinates": [ -535479.10479111422319, 1660879.090242940699682 ] } },
{ "type": "Feature", "properties": { "ardf_num": "NM279", "site": "Lillian Creek", "model_code": "39a", "comm_main": "Au", "elev_m": 45.380245208740234, "geol_type": "alluvial-stream", "type_basis": "name:creek", "coarseness_rank": 2.0 }, "geometry": { "type": "Point", "coordinates": [ -535535.7389006447047, 1672399.704108898062259 ] } },
{ "type": "Feature", "properties": { "ardf_num": "NM281", "site": "Unnamed (placer mine west of Nome River)", "model_code": "39a", "comm_main": "Au", "elev_m": 104.48094177246094, "geol_type": "alluvial-stream", "type_basis": "name:river", "coarseness_rank": null }, "geometry": { "type": "Point", "coordinates": [ -538709.056784289539792, 1674664.557526261778548 ] } },
{ "type": "Feature", "properties": { "ardf_num": "NM283", "site": "Grouse Gulch", "model_code": "39a", "comm_main": "Au", "elev_m": 117.78530883789062, "geol_type": "alluvial-stream", "type_basis": "name:gulch", "coarseness_rank": 3.0 }, "geometry": { "type": "Point", "coordinates": [ -540127.35807947081048, 1670629.576571651734412 ] } },
{ "type": "Feature", "properties": { "ardf_num": "NM285", "site": "Submarine Beach", "model_code": "39", "comm_main": "Ag, Au", "elev_m": 16.240177154541016, "geol_type": "marine-beach", "type_basis": "name:beach", "coarseness_rank": 3.0 }, "geometry": { "type": "Point", "coordinates": [ -547848.561244777520187, 1663951.000492011429742 ] } },
{ "type": "Feature", "properties": { "ardf_num": "NM286", "site": "Center Creek Beach", "model_code": "39", "comm_main": "Au", "elev_m": 20.079620361328125, "geol_type": "marine-beach", "type_basis": "name:beach", "coarseness_rank": null }, "geometry": { "type": "Point", "coordinates": [ -545277.735844886978157, 1663718.839608138659969 ] } },
{ "type": "Feature", "properties": { "ardf_num": "NM287", "site": "Intermediate Beach; Clam Shell Beach", "model_code": "39", "comm_main": "Au", "elev_m": 28.606012344360352, "geol_type": "marine-beach", "type_basis": "name:beach", "coarseness_rank": null }, "geometry": { "type": "Point", "coordinates": [ -544045.357416192884557, 1664365.779649162665009 ] } },
{ "type": "Feature", "properties": { "ardf_num": "NM288", "site": "Bourbon Creek; Holyoke Creek", "model_code": "39a", "comm_main": "Au", "elev_m": 28.401943206787109, "geol_type": "alluvial-stream", "type_basis": "name:creek", "coarseness_rank": null }, "geometry": { "type": "Point", "coordinates": [ -543257.166173678007908, 1664784.188338608713821 ] } },
{ "type": "Feature", "properties": { "ardf_num": "NM295", "site": "Specimen Gulch", "model_code": "39a", "comm_main": "Au", "elev_m": 113.02396392822266, "geol_type": "alluvial-stream", "type_basis": "name:gulch", "coarseness_rank": 2.0 }, "geometry": { "type": "Point", "coordinates": [ -542434.45889039861504, 1670326.031384139321744 ] } },
{ "type": "Feature", "properties": { "ardf_num": "NM296", "site": "Otter Creek; Florence Gulch", "model_code": "39a", "comm_main": "Au", "elev_m": 3.0860099792480469, "geol_type": "alluvial-stream", "type_basis": "name:creek", "coarseness_rank": null }, "geometry": { "type": "Point", "coordinates": [ -539922.40567230025772, 1660563.558237035525963 ] } },
{ "type": "Feature", "properties": { "ardf_num": "NM297", "site": "Peluk Creek", "model_code": "39a", "comm_main": "Au", "elev_m": 18.222221374511719, "geol_type": "alluvial-stream", "type_basis": "name:creek", "coarseness_rank": 2.0 }, "geometry": { "type": "Point", "coordinates": [ -542182.756634829100221, 1661586.616114960750565 ] } },
{ "type": "Feature", "properties": { "ardf_num": "NM300", "site": "Irene Creek; Topaz", "model_code": "39a", "comm_main": "Au", "elev_m": 7.5691990852355957, "geol_type": "alluvial-stream", "type_basis": "name:creek", "coarseness_rank": null }, "geometry": { "type": "Point", "coordinates": [ -535783.700311517575756, 1659176.542337007122114 ] } },
{ "type": "Feature", "properties": { "ardf_num": "NM303", "site": "Dexter Creek", "model_code": "39a", "comm_main": "Ag, Au", "elev_m": 36.636768341064453, "geol_type": "alluvial-stream", "type_basis": "name:creek", "coarseness_rank": 3.0 }, "geometry": { "type": "Point", "coordinates": [ -538181.439064007834531, 1670192.972942332038656 ] } },
{ "type": "Feature", "properties": { "ardf_num": "NM304", "site": "Buster Creek", "model_code": "39a", "comm_main": "Au", "elev_m": 28.66387939453125, "geol_type": "alluvial-stream", "type_basis": "name:creek", "coarseness_rank": 2.0 }, "geometry": { "type": "Point", "coordinates": [ -535801.858960836310871, 1670985.12579121417366 ] } },
{ "type": "Feature", "properties": { "ardf_num": "NM310", "site": "Lower Snake River", "model_code": "39a", "comm_main": "Au", "elev_m": 5.5813913345336914, "geol_type": "alluvial-stream", "type_basis": "name:river", "coarseness_rank": 1.0 }, "geometry": { "type": "Point", "coordinates": [ -546591.937764663016424, 1663109.163673221599311 ] } },
{ "type": "Feature", "properties": { "ardf_num": "NM311", "site": "Lower Snake River (upstream of the Nome airport)", "model_code": "39a", "comm_main": "Au", "elev_m": 1.2000000476837158, "geol_type": "alluvial-stream", "type_basis": "name:river", "coarseness_rank": 1.0 }, "geometry": { "type": "Point", "coordinates": [ -548607.607341772411019, 1665295.465666898759082 ] } },
{ "type": "Feature", "properties": { "ardf_num": "NM312", "site": "Nome River (2 miles below Banner Creek)", "model_code": "39a", "comm_main": "Au", "elev_m": 19.660694122314453, "geol_type": "alluvial-stream", "type_basis": "name:river", "coarseness_rank": 1.0 }, "geometry": { "type": "Point", "coordinates": [ -537779.989712697104551, 1673859.586409631650895 ] } }
]
}
