{
"type": "FeatureCollection",
"name": "nome_bedrock_quaternary_contact_3338",
"crs": { "type": "name", "properties": { "name": "urn:ogc:def:crs:EPSG::3338" } },
"features": [
{ "type": "Feature", "properties": { "name": "nome_bedrock_quaternary_contact", "source": "GeMS SIM 3131 (1:500k); precise source MF-247 1:63360" }, "geometry": { "type": "MultiLineString", "coordinates": [ [ [ -530197.11186049785465, 1689417.629132633795962 ], [ -530211.674433713662438, 1689373.23861458315514 ], [ -530234.913622119347565, 1689033.670084287179634 ], [ -530344.928344659507275, 1688876.129891752498224 ], [ -530411.531011364771985, 1688677.831974122673273 ], [ -530387.201253923820332, 1688472.722870598779991 ], [ -530370.98985481087584, 1688319.230804573744535 ], [ -530217.762788120773621, 1688033.953473192639649 ], [ -530075.352881013765, 1687834.251935328822583 ], [ -529888.121248551993631, 1687702.455849005840719 ], [ -529588.25435549125541, 1687543.468501973431557 ], [ -529041.384842827217653, 1687359.976027646334842 ], [ -528669.598924494232051, 1687180.592649011639878 ], [ -528335.777362590422854, 1687074.56589342164807 ], [ -528129.542553089093417, 1686956.343430812237784 ], [ -527875.787237854674459, 1686872.066483797272667 ], [ -527593.491412112838589, 1686858.414549259701744 ], [ -527267.786922697443515, 1686804.000738154863939 ], [ -526905.458618695265613, 1686718.33516178582795 ], [ -526739.913320711697452, 1686657.167533678002656 ], [ -526655.79328155121766, 1686609.604464427568018 ], [ -526567.61633508943487, 1686536.232144106877968 ], [ -526396.710790877812542, 1686356.88788499799557 ], [ -526026.389888360630721, 1686018.564333077520132 ], [ -525795.855789005174302, 1685695.217101517366245 ], [ -525323.83802041655872, 1685214.232877781381831 ], [ -525101.423058781540021, 1684942.500376489479095 ], [ -525043.187055563088506, 1684740.088869514176622 ], [ -525036.529306962504052, 1684529.541069557191804 ], [ -525059.716408027801663, 1684340.734795039752498 ], [ -524993.339639953221194, 1684136.960683927405626 ], [ -524848.297026926302351, 1683853.019970547873527 ], [ -524851.14582042361144, 1683635.680329843424261 ], [ -524817.277455800329335, 1683537.867868951754645 ], [ -524765.762939804815687, 1683445.483357732882723 ], [ -524710.161632201168686, 1683377.548194632166997 ], [ -524616.574394661583938, 1683286.509994323598221 ], [ -524585.399955897708423, 1683222.657382578589022 ], [ -524523.019164300523698, 1683145.211108282208443 ], [ -524501.767835013568401, 1683053.968049120623618 ], [ -524498.656303037307225, 1683040.608565871836618 ], [ -524491.939623713027686, 1682930.577133064856753 ], [ -524497.515204059076495, 1682696.934932845877483 ], [ -524459.625243862043135, 1682523.049132094020024 ], [ -524408.176038770820014, 1682330.141750623937696 ], [ -524423.289400747977197, 1682039.447615248616785 ], [ -524480.60347847873345, 1681546.359372925944626 ], [ -524560.788639881298877, 1681367.069941960508004 ], [ -524589.397541220998392, 1681195.917600212851539 ], [ -524575.934962406521663, 1681026.110358571866527 ], [ -524425.522620758041739, 1680674.234303595731035 ], [ -523868.192286979407072, 1680003.007489431183785 ], [ -523472.243233389046509, 1679517.926492635160685 ], [ -523184.798268697108142, 1679134.757394429529086 ], [ -523110.331675943627488, 1678879.344909242354333 ], [ -523004.628683139453642, 1678660.600606133928522 ], [ -522827.015307795139961, 1678421.457051645498723 ], [ -522658.452535159303807, 1678215.4560952198226 ], [ -522663.395345881290268, 1678185.892341462895274 ] ], [ [ -540201.182642136351205, 1685135.048576708650216 ], [ -540326.091068471199833, 1684988.336944773094729 ], [ -540471.365047506522387, 1684819.895888187224045 ], [ -540554.242083879071288, 1684574.024061938980594 ], [ -540561.121690162573941, 1684332.225851535797119 ], [ -540440.492199173080735, 1683951.867240510880947 ], [ -540428.469608568004332, 1683472.341824681963772 ], [ -540514.088314043008722, 1683159.901668794453144 ], [ -540558.999747833120637, 1682840.668006845982745 ], [ -540633.696325420634821, 1682693.954901359276846 ], [ -540712.493111822172068, 1682472.527032047044486 ], [ -540783.169530621613376, 1682199.476985066197813 ], [ -540818.59918114694301, 1681836.768019861076027 ], [ -540897.375981385703199, 1681665.600574053358287 ], [ -541001.916845939238556, 1681540.619473545113578 ], [ -541236.86376094003208, 1681085.526132663013414 ], [ -541482.609239458222874, 1680766.276257375488058 ], [ -541813.86770825041458, 1680385.888235704274848 ], [ -542119.27691588527523, 1680160.365506106289104 ], [ -542481.673544827499427, 1679944.346817041514441 ], [ -542769.396497395355254, 1679824.783184478757903 ], [ -542962.183818119461648, 1679572.088567066239193 ], [ -543161.712218106840737, 1679429.432738195871934 ], [ -543452.1321016990114, 1679343.826450735796243 ], [ -543658.438549872837029, 1679210.676207763375714 ], [ -543980.098453395999968, 1679038.118662707041949 ], [ -544109.072497903136536, 1678866.933156237704679 ], [ -544259.805623273714446, 1678565.325320722535253 ], [ -544392.87722077476792, 1678319.416630290914327 ], [ -544460.840100741479546, 1678012.378270018147305 ], [ -544573.529822295065969, 1677838.472899440210313 ], [ -544707.921914452104829, 1677684.942681753076613 ], [ -544796.18762152234558, 1677506.963078949134797 ], [ -544869.570034278556705, 1677217.580689122201875 ], [ -544937.551608308916911, 1676860.269431145861745 ], [ -544948.606605999404564, 1676342.649719063192606 ], [ -544848.386566454311833, 1675789.711030622711405 ], [ -544776.599377267877571, 1675417.460703402059153 ], [ -544670.894309710129164, 1675047.930776653578505 ], [ -544601.815325056086294, 1674709.642677548341453 ], [ -544532.703281163121574, 1674471.891298464732245 ], [ -544462.214615748380311, 1674292.560682190349326 ], [ -544395.806104980758391, 1674088.774833213770762 ], [ -544382.300693413708359, 1673918.946870688349009 ], [ -544374.253535990021192, 1673666.242486750939861 ], [ -544268.545466280193068, 1673346.974702440202236 ], [ -544032.543129866244271, 1673156.792195175774395 ], [ -543757.163713814457878, 1673052.206684345845133 ], [ -543648.664145254297182, 1672950.320099579170346 ], [ -543553.745667415554635, 1672817.183284789090976 ], [ -543537.547001904225908, 1672613.388591492548585 ], [ -543572.88795502926223, 1672451.705665042856708 ], [ -543680.126320280949585, 1672310.394260072382167 ], [ -543836.203693218994886, 1672177.22915642359294 ], [ -544024.878238379955292, 1671948.953001332469285 ], [ -544190.47261890466325, 1671758.720091766212136 ], [ -544342.486039039678872, 1671599.737526718061417 ], [ -544474.139220990124159, 1671462.4950889761094 ], [ -544608.531426320900209, 1671258.676057061878964 ], [ -544790.399249925510958, 1671071.155006418935955 ], [ -545110.636425360804424, 1670906.70944337407127 ], [ -545353.555510712554678, 1670704.229533665347844 ], [ -545493.38042286678683, 1670467.79564416478388 ], [ -545550.432174712535925, 1670276.211180471349508 ], [ -545749.968674279167317, 1669982.700211656512693 ], [ -545980.680528918630444, 1669753.041146905859932 ], [ -546115.042524406919256, 1669599.484742794185877 ], [ -546128.677022897754796, 1669417.414414270082489 ], [ -546113.892423508455977, 1669054.638552825432271 ], [ -546023.061953376280144, 1668897.041917563881725 ], [ -545839.94510884466581, 1668841.364857212174684 ], [ -545675.806372416089289, 1668822.369992166059092 ], [ -545532.004737629904412, 1668831.904320199973881 ], [ -545422.118646276416257, 1668838.715632175793871 ], [ -545359.72673948854208, 1668811.55117298476398 ], [ -545274.278041570796631, 1668772.161671323468909 ], [ -545198.307541125454009, 1668776.249661460984498 ], [ -544978.51420422072988, 1668840.143325147451833 ], [ -544757.380797366728075, 1668861.915907884947956 ], [ -544634.299157388624735, 1668875.02449983661063 ], [ -544604.078966275672428, 1668878.243001847295091 ], [ -544510.491280162124895, 1668837.494990274310112 ], [ -544312.500593423843384, 1668670.401286404114217 ], [ -544096.962794035323896, 1668307.654035192681476 ], [ -543964.087958218762651, 1668151.419671001611277 ], [ -543840.667990291607566, 1668088.935082132462412 ], [ -543563.924695414374582, 1668093.048502054531127 ], [ -543383.533443145686761, 1668021.059856258332729 ], [ -543100.082895696628839, 1667864.843279611552134 ], [ -542773.268368410761468, 1667617.596421120222658 ], [ -542721.763795969542116, 1667525.209462394937873 ], [ -542373.138364911777899, 1667408.380413802806288 ], [ -542275.43518816085998, 1667442.354049293324351 ], [ -542115.333786594332196, 1667449.155925949336961 ], [ -542002.759219944709912, 1667371.713015389628708 ], [ -541857.625259176595137, 1667288.83703832491301 ], [ -541713.803944597719237, 1667298.354398731375113 ], [ -541540.144134166184813, 1667286.132859747158363 ], [ -541370.566572911571711, 1667249.453687224537134 ], [ -541248.492634128080681, 1667178.803640573984012 ], [ -541190.226933083031327, 1667026.627245427342132 ], [ -541012.610299560590647, 1666787.49453634605743 ], [ -540871.637460927828215, 1666529.337497682310641 ], [ -540692.714807725627907, 1666197.807876725215465 ], [ -540548.946523077203892, 1666106.77567322854884 ], [ -540416.014412654214539, 1666051.070019737817347 ], [ -540285.778508923016489, 1666029.333115208428353 ], [ -540175.90497355221305, 1665985.855674992781132 ], [ -540034.859907151432708, 1665878.516862625489011 ], [ -539907.399296893039718, 1665739.926131359301507 ], [ -539755.493390308576636, 1665647.533310336992145 ], [ -539532.999683218076825, 1665627.155022922670469 ], [ -539329.45320568617899, 1665693.736238681944087 ], [ -539197.830024187685922, 1665730.423352941870689 ], [ -539082.512936471961439, 1665719.554103897185996 ], [ -538931.996299894992262, 1665568.73262381576933 ], [ -538776.036329547641799, 1665450.521147912135348 ], [ -538596.991280976100825, 1665370.354417908703908 ], [ -538336.522275520139374, 1665326.873097131727263 ], [ -538135.724993232754059, 1665326.871393144363537 ], [ -537857.558847840293311, 1665389.370848203776404 ], [ -537666.1769330232637, 1665533.396058495156467 ], [ -537436.846822549006902, 1665604.046184248756617 ], [ -537366.284436495508999, 1665625.785002693766728 ], [ -537139.734143294277601, 1665579.581902391277254 ], [ -536910.460476242704317, 1665549.682863215915859 ], [ -536713.717349181184545, 1665575.490881447447464 ], [ -536522.3617486609146, 1665669.235207901103422 ], [ -536400.177699618274346, 1665799.669051470002159 ], [ -536292.853108777431771, 1666041.519968511071056 ], [ -536227.676203476963565, 1666131.193034862168133 ], [ -536053.958919215481728, 1666219.501641315640882 ], [ -535843.597991046844982, 1666326.829551350092515 ], [ -535780.81406012608204, 1666413.208208047086373 ], [ -535756.694057891145349, 1666446.392613303847611 ], [ -535686.040369421825744, 1666618.947059837868437 ], [ -535703.563166377949528, 1666814.604806682327762 ], [ -535765.871198622742668, 1666992.6015760069713 ], [ -535874.354587041889317, 1667094.512690557399765 ], [ -535961.141880382085219, 1667176.041179651627317 ], [ -536199.807205337448977, 1667400.244118442526087 ], [ -536484.534481846145354, 1667749.449513460043818 ], [ -536727.289203458465636, 1667949.190323517657816 ], [ -537134.153142807306722, 1668268.50091130961664 ], [ -537516.656042030313984, 1668483.187417609849945 ], [ -537642.787388325785287, 1668579.65847407002002 ], [ -537706.493043586378917, 1668699.225370394065976 ], [ -537747.140186796081252, 1668806.563811069121584 ], [ -537778.285737848724239, 1668920.695390515960753 ], [ -537809.431936080567539, 1669034.826226217206568 ], [ -537924.622667963034473, 1669297.055536910193041 ], [ -537979.424238775507547, 1669411.351391720119864 ], [ -538042.537531483452767, 1669542.981405471684411 ], [ -538152.339900107355788, 1669737.27541409060359 ], [ -538256.750805260497145, 1669863.634769531432539 ], [ -538430.367858487879857, 1669976.408337296918035 ], [ -538732.870505145285279, 1670119.074029847746715 ], [ -538917.325724068214186, 1670267.171741323312744 ], [ -539016.321399728534743, 1670375.866666407091543 ], [ -539036.633943559136242, 1670454.669648203067482 ], [ -538999.939001737278886, 1670574.232342925854027 ], [ -538910.319730851333588, 1670710.098230988485739 ], [ -538816.591117560630664, 1670920.689996473025531 ], [ -538748.494533756864257, 1671428.8267809425015 ], [ -538710.33954342850484, 1671757.619296629913151 ], [ -538716.97097057395149, 1672068.74906537332572 ], [ -538735.801695806556381, 1672407.050559051800519 ], [ -538747.877935778931715, 1672685.570215297164395 ], [ -538800.658774889074266, 1672970.883465704042464 ], [ -538917.920736766420305, 1673540.277697360841557 ], [ -538934.682351053925231, 1673621.665506745921448 ], [ -538942.752066168817692, 1673773.830403935397044 ], [ -538912.815057095955126, 1673953.16634824196808 ], [ -538805.503470745054074, 1674194.99585242359899 ], [ -538691.364071577088907, 1674527.850248687434942 ], [ -538524.248222616733983, 1674977.539787349058315 ], [ -538366.530345602310263, 1675621.500881091924384 ], [ -538290.294828690006398, 1676128.243519673822448 ], [ -538197.825989099103026, 1676531.731736423447728 ], [ -538135.224702739273198, 1676906.688982141204178 ], [ -538144.630343896802515, 1677100.961203532060608 ], [ -538193.454774414887652, 1677159.380856052506715 ], [ -538268.064088393351994, 1677213.725388484075665 ], [ -538333.14782029716298, 1677325.128507481655106 ], [ -538419.886429951060563, 1677557.442521637072787 ], [ -538418.455025208648294, 1677716.391017270507291 ], [ -538351.938962677144445, 1677763.936995796160772 ], [ -538255.579203536268324, 1677789.745039812056348 ], [ -538028.909290683805011, 1677894.341792681254447 ], [ -537770.961733021424152, 1678136.146847278811038 ], [ -537590.344556547119282, 1678415.99228343158029 ], [ -537511.532625400344841, 1678637.425976338796318 ], [ -537489.686978779966012, 1678918.636422971729189 ], [ -537523.495886454009451, 1679167.245110894320533 ], [ -537560.027593893930316, 1679399.550789050292224 ], [ -537593.837898550322279, 1679648.1579322994221 ], [ -537622.229041604092345, 1679879.103649553610012 ], [ -537704.844411125173792, 1680236.390943372622132 ], [ -537776.576097012846731, 1680658.882821187842637 ], [ -537849.693556996295229, 1681022.958259205566719 ], [ -537829.237259840010665, 1681245.745852810330689 ], [ -537856.294274025829509, 1681434.574276128318161 ], [ -537925.354824135429226, 1681772.835277689155191 ], [ -537941.505595535854809, 1682077.13000394240953 ], [ -537986.077535282820463, 1682562.099433580413461 ], [ -538011.776788193383254, 1682759.075048536062241 ], [ -538150.083382825599983, 1683033.4878155735787 ], [ -538160.881846540607512, 1683169.331823109649122 ], [ -538129.566194576327689, 1683407.055382998427376 ], [ -538027.649970896309242, 1683716.770246165804565 ], [ -538009.919680481543764, 1683923.249094741884619 ], [ -538023.354981359327212, 1684243.835975231369957 ], [ -538043.615278640645556, 1684473.408879199996591 ], [ -538021.872648116317578, 1684637.016820457996801 ], [ -538010.94056393369101, 1684719.27822951762937 ], [ -537929.349396374775097, 1685107.775447348598391 ], [ -537820.631255194661207, 1685458.233300851657987 ], [ -537637.312103722942993, 1685704.088066243333742 ], [ -537426.864673963049427, 1685911.904245183104649 ], [ -536803.743382211541757, 1686335.665319540305063 ], [ -536391.068197956192307, 1686551.607064330251887 ], [ -536226.835300901439041, 1686582.833166663069278 ], [ -536061.241471273009665, 1686622.208910316927359 ], [ -535960.809525668271817, 1686622.198438778752461 ], [ -535826.424873446812853, 1686675.160321335075423 ], [ -535637.653985247947276, 1686953.602912143571302 ], [ -535508.645871095592156, 1687124.740765036549419 ], [ -535235.725294558680616, 1687405.886951562017202 ], [ -534998.073436429258436, 1687726.426486181793734 ], [ -534782.126565763494, 1688067.341085665393621 ], [ -534716.962678231881, 1688106.724277589470148 ], [ -534649.09936671401374, 1688112.148929972434416 ], [ -534521.514967579161748, 1688124.35700823715888 ], [ -534456.350851137773134, 1688163.73985048988834 ], [ -534345.007103370386176, 1688279.182429111562669 ], [ -534275.782694528228603, 1688292.756347858579829 ], [ -534226.925967915449291, 1688284.59966597170569 ], [ -534129.235795818851329, 1688218.028160779969767 ], [ -534054.612261349335313, 1688163.684791035018861 ], [ -533948.779202661244199, 1688095.753726654918864 ], [ -533747.93284352554474, 1688045.466774821514264 ], [ -533556.567054291954264, 1688038.647001311182976 ], [ -533403.193582322448492, 1688054.924112137639895 ], [ -533204.976394339697435, 1688189.367841670289636 ], [ -532762.382102683768608, 1688484.052128343144432 ], [ -532498.927464738255367, 1688808.643999392865226 ], [ -532251.663748906925321, 1689336.980413431301713 ], [ -532113.072464209282771, 1689665.662773650372401 ], [ -532085.759305124054663, 1689740.655336074531078 ] ], [ [ -541592.002670970046893, 1691366.562655193498358 ], [ -541553.472923484398052, 1691274.821657975902781 ], [ -541373.016992503078654, 1691102.31409463332966 ], [ -541143.704828123212792, 1690921.654479670803994 ], [ -540964.627736044116318, 1690690.738342255586758 ], [ -540903.631651742849499, 1690454.39102481934242 ], [ -540788.357048418489285, 1690192.233633345458657 ], [ -540702.917669172515161, 1690002.067131273215637 ], [ -540594.376298861694522, 1689900.190382976084948 ], [ -540483.115234163007699, 1689814.612421459285542 ], [ -540339.266208784887567, 1689773.858180015115067 ], [ -540099.046745924744755, 1689758.908057387685403 ], [ -539934.832216288661584, 1689739.885283939307556 ], [ -539671.526644506608136, 1689762.96507663698867 ], [ -539529.019990076893009, 1689764.316864077700302 ], [ -539406.878877193201333, 1689743.936165896477178 ], [ -539271.172743636998348, 1689704.538193901767954 ], [ -539119.200066016521305, 1689612.164678099332377 ], [ -539012.002894427278079, 1689552.392855531070381 ], [ -538831.50257114332635, 1689530.649436342064291 ], [ -538735.129475828027353, 1689556.451056722784415 ], [ -538554.568807308329269, 1689685.477991526946425 ], [ -538414.760096545098349, 1689720.784333180636168 ], [ -538289.895840617013164, 1689716.700116503983736 ], [ -538053.750982088386081, 1689677.290883302222937 ], [ -537970.980370632372797, 1689621.593483222881332 ], [ -537890.930909455288202, 1689549.596532519208267 ], [ -537888.268174128956161, 1689415.123406553640962 ], [ -537946.743939331034198, 1689114.940120108891279 ], [ -538024.266293216962367, 1688700.656768954824656 ], [ -538147.865145414834842, 1688461.598983357893303 ], [ -538274.146202440024354, 1688306.758109539281577 ], [ -538445.317993132397532, 1687882.967211932642385 ], [ -538505.115890203393064, 1687675.143468075664714 ], [ -538513.355829003965482, 1687425.206583101768047 ], [ -538494.467956440872513, 1687137.233825441449881 ], [ -538525.756995298201218, 1686949.781462935265154 ], [ -538570.591024402878247, 1686831.606377199990675 ], [ -538653.415688919485547, 1686736.525705244392157 ], [ -538823.127967103384435, 1686572.172960362397134 ], [ -538939.903270321781747, 1686424.116899049608037 ], [ -539132.68072851956822, 1686271.988356431713328 ], [ -539332.240204086643644, 1686129.368631761986762 ], [ -539548.081369509454817, 1685989.463908173143864 ], [ -539727.267622463637963, 1685868.572308249073103 ], [ -539861.662238125805743, 1685765.33801119402051 ], [ -539956.725111610721797, 1685596.899750814307481 ], [ -540062.669866177486256, 1685363.257830947171897 ], [ -540129.225378278875723, 1685215.193415497429669 ], [ -540201.182642136351205, 1685135.048576708650216 ] ], [ [ -530530.715085147297941, 1686311.841366063337773 ], [ -530625.795653381734155, 1686342.927834953879938 ], [ -530899.893469999660738, 1686455.723521199310198 ], [ -531054.551552722696215, 1686582.07907144469209 ], [ -531198.395127249532379, 1686622.856268672971055 ], [ -531388.396855493308976, 1686637.833144068950787 ], [ -531689.696921124588698, 1686637.887308277655393 ], [ -531974.761567224748433, 1686534.703127226326615 ], [ -532273.436320820357651, 1686350.018269290914759 ], [ -532650.885880500078201, 1686044.450154352001846 ], [ -532792.054494053940289, 1686001.00464616343379 ], [ -533029.595789068378508, 1685931.765454102307558 ], [ -533276.64016147563234, 1685855.734689240111038 ], [ -533499.280308306333609, 1685725.364822717150673 ], [ -533686.675783789716661, 1685505.33492900361307 ], [ -533984.098579815588892, 1685077.486171944299713 ], [ -534210.841684467508458, 1684872.399551139213145 ], [ -534296.371513277292252, 1684811.283055092673749 ], [ -534550.191548305563629, 1684744.753109695622697 ], [ -534794.507460991502739, 1684685.013539720792323 ], [ -535028.004759648814797, 1684539.692570167360827 ], [ -535197.747862060787156, 1684325.084599421592429 ], [ -535313.169995400239713, 1684185.181802112143487 ], [ -535423.193974599824287, 1683977.357261424418539 ], [ -535481.642812185571529, 1683777.677212449721992 ], [ -535598.448279506526887, 1683579.360863930312917 ], [ -535705.749865597113967, 1683387.834843879798427 ], [ -535789.98593910667114, 1683184.079862935468554 ], [ -535843.10727876285091, 1682765.688913469901308 ], [ -535862.27736055967398, 1682400.272085692733526 ], [ -535892.265196319320239, 1682120.435265336651355 ], [ -535854.395309146959335, 1681846.026315840194002 ], [ -535892.501774226082489, 1681617.810095596825704 ], [ -535957.732685649418272, 1681427.632345204474404 ], [ -535979.555342086241581, 1681196.696250246604905 ], [ -535863.039912619628012, 1680791.863535083597526 ], [ -535708.564614229486324, 1680313.667055428726599 ], [ -535521.525804545148276, 1679830.030493616126478 ], [ -535445.702770548174158, 1679482.251059260452166 ], [ -535459.337736508110538, 1679350.476052944315597 ], [ -535489.281937902676873, 1679171.157728209393099 ], [ -535462.285510388785042, 1678881.794884044444188 ], [ -535397.304135310230777, 1678569.333188245072961 ], [ -535303.842018376803026, 1678226.980331476312131 ], [ -535251.139825370511971, 1677790.891410172451288 ], [ -535259.41013700037729, 1677540.924086701357737 ], [ -535305.665378484642133, 1677314.054275513393804 ], [ -535288.125505716190673, 1677118.424401888158172 ], [ -535247.470440300763585, 1677011.096541555831209 ], [ -535174.276335582137108, 1676848.065731836017221 ], [ -535133.969538441044278, 1676747.891625757794827 ], [ -535109.224870599573478, 1676686.393638334237039 ], [ -535064.53985604562331, 1676502.986526349326596 ], [ -535105.351790647022426, 1676308.718262028414756 ], [ -535127.238240250502713, 1675977.233948171837255 ], [ -535200.854244014713913, 1675336.00036006513983 ], [ -535346.434970974572934, 1674614.610707404091954 ], [ -535353.347089650691487, 1674372.783272695261985 ], [ -535303.220191645203158, 1674221.9748079625424 ], [ -535136.398381937528029, 1674068.438484674785286 ], [ -535030.647644853452221, 1673899.962929396890104 ], [ -534962.879003690788522, 1673754.586909202625975 ], [ -534973.851300086011179, 1673538.569967213552445 ], [ -534983.489969922346063, 1673280.436054193414748 ], [ -534951.036629866925068, 1673073.924323642160743 ], [ -534854.818932320922613, 1672848.38529658713378 ], [ -534688.031200831290334, 1672644.576693186769262 ], [ -534549.723336316412315, 1672470.660157239064574 ], [ -534463.011229145457037, 1672238.327426991891116 ], [ -534434.589748086407781, 1672107.896439563483 ], [ -534446.899759556981735, 1671933.993512107757851 ], [ -534422.534727406920865, 1671829.376173143275082 ], [ -534392.723746536532417, 1671757.365903904428706 ], [ -534287.039369430392981, 1671488.345436210976914 ], [ -534273.567417069571093, 1671318.514348188648 ], [ -534253.316987229743972, 1671139.171925857430324 ], [ -534190.97364626347553, 1671011.452765371417627 ], [ -533987.578563569695689, 1670776.386529144598171 ], [ -533751.652923966175877, 1670485.6104053594172 ], [ -533630.968047304428183, 1670356.525627334835008 ], [ -533480.41546801791992, 1670255.968879003077745 ], [ -533266.072577207349241, 1670186.653512411750853 ], [ -533046.313035060302354, 1670099.674587053712457 ], [ -532818.443907020962797, 1669961.064651449909434 ], [ -532681.481909766444005, 1669829.258440119447187 ], [ -532630.007973505998962, 1669686.59227578365244 ], [ -532550.059595461701974, 1669514.032064077910036 ], [ -532406.382258808938786, 1669272.17164558544755 ], [ -532223.336836355389096, 1669065.630431388737634 ], [ -531897.824080507154576, 1668860.42886743764393 ], [ -531651.022228067857213, 1668634.855941577116027 ], [ -531427.280514105572365, 1668421.512590487720445 ], [ -531147.92220496351365, 1668190.498094314476475 ], [ -530951.263434143736959, 1668065.471135146915913 ], [ -530757.263873529154807, 1668024.682595345657319 ], [ -530555.091261640307494, 1668032.804820444667712 ], [ -530382.754145602462813, 1668062.669686199864373 ], [ -530179.184432910056785, 1668129.214487086748704 ], [ -529940.262064688024111, 1668307.164567532483488 ], [ -529818.059121364494786, 1668437.578042607055977 ], [ -529664.623736958485097, 1668604.67038694745861 ], [ -529543.748567523784004, 1668777.201541604707018 ], [ -529477.130212923511863, 1668975.555923759238794 ], [ -529411.873959152260795, 1669165.757428807904944 ], [ -529396.855176721699536, 1669305.696853016270325 ], [ -529429.28296551015228, 1669512.217852864880115 ], [ -529469.851425542845391, 1669720.098648096201941 ], [ -529587.737503441632725, 1669966.034498806344345 ], [ -529738.186965476488695, 1670217.408959151944146 ], [ -529936.085957162547857, 1670535.363938202848658 ], [ -530081.154707621783018, 1670718.803309412905946 ], [ -530254.796337004750967, 1670781.328804473159835 ], [ -530450.135420151753351, 1670864.237066733185202 ], [ -530501.63831997232046, 1670956.633084438974038 ], [ -530500.244392495602369, 1671015.053774494212121 ], [ -530372.592645721742883, 1671178.068901832681149 ], [ -530251.750771319610067, 1671300.326224801130593 ], [ -530122.80012522439938, 1671370.953153620939702 ], [ -530031.82762391353026, 1671464.683559791650623 ], [ -529958.466194200329483, 1671603.249893045751378 ], [ -529855.298399221617728, 1671669.805457225302234 ], [ -529768.476026166346855, 1671638.542133919894695 ], [ -529683.047923697391525, 1671548.858645905507728 ], [ -529502.755040932679549, 1671275.744322794722393 ], [ -529426.961790822912008, 1670978.19182245596312 ], [ -529343.029473559581675, 1670679.278183409478515 ], [ -529193.974910150980577, 1670369.482874579029158 ], [ -529024.487929634051397, 1670181.961193544790149 ], [ -528845.49946160428226, 1670001.229156227316707 ], [ -528752.036618816433474, 1669759.373568448238075 ], [ -528661.89993073779624, 1669446.748772969935089 ], [ -528630.20300143037457, 1669336.811369629343972 ], [ -528573.391638481989503, 1669075.938846037955955 ], [ -528523.462157133268192, 1668673.76628855895251 ], [ -528455.995916061336175, 1668126.210200964706019 ], [ -528380.21836575854104, 1667828.64616632508114 ], [ -528313.910021691117436, 1667574.560725669376552 ], [ -528281.454576538759284, 1667418.306513123214245 ], [ -528315.48275611246936, 1667264.780686798738316 ], [ -528369.913400244317017, 1667039.248123309807852 ], [ -528341.617434150422923, 1666757.992875562049448 ], [ -528227.835352560738102, 1666487.591444653226063 ], [ -528012.395704142283648, 1666074.506552631733939 ], [ -527989.482668890501373, 1665861.18500591837801 ], [ -528003.18066300987266, 1665679.119759780354798 ], [ -528087.375991809065454, 1665575.872444826876745 ], [ -528122.732274227309972, 1665464.463932765414938 ], [ -528079.416475308476947, 1665323.149386456236243 ], [ -527994.039332525921054, 1665183.185761287109926 ], [ -527863.839824155555107, 1665111.150076399790123 ], [ -527671.211764709325507, 1665062.201108566485345 ], [ -527568.084536884445697, 1665078.486952709732577 ], [ -527364.444705777452327, 1665245.571665428811684 ], [ -527143.12472832610365, 1665468.35891859116964 ], [ -526929.759469229029492, 1665943.86581160267815 ], [ -526740.995906392578036, 1666172.090023077558726 ], [ -526435.584131029318087, 1666347.299618598306552 ], [ -526309.323539876262657, 1666451.892826058203354 ], [ -526214.29564918729011, 1666519.807464209850878 ], [ -526128.733522614929825, 1666631.201871562749147 ], [ -526047.111555444309488, 1666919.226083524525166 ], [ -526008.877842600806616, 1667248.018581026000902 ], [ -526011.419699478312396, 1667483.069866805337369 ], [ -526091.236634081345983, 1667806.451672437367961 ], [ -526101.955863610375673, 1667992.591424349695444 ], [ -526146.635395979159512, 1668125.750297646503896 ], [ -526206.159661074052565, 1668370.322258876636624 ], [ -526250.803605356253684, 1668553.750857872422785 ], [ -526257.508718300960027, 1668663.803439335897565 ], [ -526262.851222197408788, 1668782.007463443325832 ], [ -526262.742958472808823, 1668932.817707299487665 ], [ -526284.330061915679835, 1669104.012036901433021 ], [ -526341.204335253452882, 1669264.344746780116111 ], [ -526308.427868105121888, 1669560.521543334005401 ], [ -526249.760848046513274, 1670011.575315021211281 ], [ -526325.572034614277072, 1670258.862622329499573 ], [ -526386.43080328439828, 1670545.5458157309331 ], [ -526517.759913852438331, 1670961.312343316851184 ], [ -526617.926748594967648, 1671313.215147539274767 ], [ -526859.927522487705573, 1671940.886652121786028 ], [ -526934.756380674429238, 1672321.367553456686437 ], [ -526936.050452913623303, 1672413.752023777225986 ], [ -526897.26447561418172, 1672441.467887961072847 ], [ -526888.534245726186782, 1672447.706367288483307 ], [ -526782.704707062919624, 1672430.021248513832688 ], [ -526680.99669724307023, 1672337.614340346539393 ], [ -526526.461232554283924, 1672110.69443235360086 ], [ -526384.155782275251113, 1671860.68024401506409 ], [ -526218.757229783921503, 1671648.701052023330703 ], [ -526088.683186417794786, 1671375.591543451184407 ], [ -525949.036393955349922, 1671209.809410963207483 ], [ -525723.897441533161327, 1671054.875478789675981 ], [ -525387.481213356368244, 1670914.858596347039565 ], [ -525253.180076353950426, 1670867.274687583791092 ], [ -525143.264964255737141, 1670874.041149826953188 ], [ -525044.17961876722984, 1670916.133816210087389 ], [ -524962.701475394889712, 1671003.064681528834626 ], [ -524855.366182742873207, 1671194.601270532933995 ], [ -524765.529486442101188, 1671581.780304110143334 ], [ -524768.038216322893277, 1671867.085651980014518 ], [ -524807.234560273587704, 1672083.111291005974635 ], [ -524851.703440222307108, 1672517.869382790988311 ], [ -524905.714249111595564, 1672895.567622300004587 ], [ -524906.727872359799221, 1673390.089171601459384 ], [ -524975.734380074311048, 1673678.122901623137295 ], [ -525028.494239758816548, 1673913.167621577391401 ], [ -525101.62470628938172, 1674126.479990537278354 ], [ -525199.179311889922246, 1674343.87348005711101 ], [ -525474.406827056664042, 1674699.882761413697153 ], [ -525565.218447241932154, 1674857.496687661390752 ], [ -525691.354583667474799, 1674953.984532242175192 ], [ -525794.429874699562788, 1675038.239643316017464 ], [ -525808.800224725622684, 1675070.261238796170801 ], [ -525843.209074278944172, 1675146.934585668845102 ], [ -525891.955099484417588, 1675305.895778142381459 ], [ -525942.030763969291002, 1675506.971273629227653 ], [ -525989.38278476067353, 1675724.34830765100196 ], [ -526115.454361878219061, 1675921.365136176347733 ], [ -526233.41918622481171, 1676066.755992212565616 ], [ -526364.975017802789807, 1676180.90338071086444 ], [ -526478.886887027765624, 1676300.480489991139621 ], [ -526469.28496740735136, 1676458.066809685667977 ], [ -526463.738078182097524, 1676641.465070220641792 ], [ -526466.957945161033422, 1676666.980143390828744 ], [ -526485.339953649439849, 1676812.642789730802178 ], [ -526536.782689111307263, 1677005.563609197270125 ], [ -526619.39649257902056, 1677262.341296104015782 ], [ -526658.61267932865303, 1677478.352041263598949 ], [ -526760.171645781723782, 1677822.075976849766448 ], [ -526873.929372078506276, 1678192.970794565044343 ], [ -527043.286191551946104, 1678631.801548812072724 ], [ -527177.448986201314256, 1678930.697778864763677 ], [ -527355.01484184328001, 1679270.35672892164439 ], [ -527476.953461912111379, 1679592.341176371788606 ], [ -527579.948385184514336, 1679827.378597086993977 ], [ -527792.871928780106828, 1680055.647530640475452 ], [ -527971.89868479326833, 1680236.362043521599844 ], [ -528232.373445637640543, 1680380.415155486902222 ], [ -528492.909243434551172, 1680423.941955047193915 ], [ -528571.57330588484183, 1680504.107503687730059 ], [ -528551.174287926172838, 1680576.101055242586881 ], [ -528453.325056990841404, 1680811.091249388176948 ], [ -528360.952602995559573, 1680963.216812233673409 ], [ -528324.299335870076902, 1680982.226875087013468 ], [ -528234.709393112803809, 1681017.526666885241866 ], [ -527982.313380823354237, 1680975.359116538194939 ], [ -527605.067085526534356, 1680929.086919181980193 ], [ -527417.744943802361377, 1680998.323655608808622 ], [ -527283.299053687602282, 1681151.795601489720866 ], [ -527184.144080039928667, 1681294.407641334692016 ], [ -527128.422235275036655, 1681427.520599761046469 ], [ -527121.551157496287487, 1681568.795073966495693 ], [ -527125.516722591593862, 1681745.391539867268875 ], [ -527185.143111205543391, 1681889.397956822067499 ], [ -527193.225239256513305, 1681991.281411713687703 ], [ -527188.094369979808107, 1682008.801336659351364 ], [ -527134.748989437706769, 1682190.954724295297638 ], [ -527060.019032098934986, 1682337.645299723604694 ], [ -526970.307474410859868, 1682573.986997518222779 ], [ -526843.790759342955425, 1683080.639267537277192 ], [ -526770.332878035842441, 1683369.959398940671235 ], [ -526799.969258943805471, 1683743.522959167603403 ], [ -526862.175563990953378, 1684122.526867535896599 ], [ -526961.096948962425813, 1684382.001147207571194 ], [ -527043.793267851462588, 1684538.234027574304491 ], [ -527153.670034504728392, 1684631.98851095372811 ], [ -527256.708546311710961, 1684816.751775032840669 ], [ -527291.885615379083902, 1685006.931026194244623 ], [ -527412.543263174826279, 1685236.524115208070725 ], [ -527633.635130713111721, 1685466.139697195729241 ], [ -527876.54723037360236, 1685515.098497195634991 ], [ -528061.127618669415824, 1685512.425344358431175 ], [ -528366.510522660450079, 1685488.045693904161453 ], [ -528662.416828856337816, 1685420.194905535085127 ], [ -528940.648300764616579, 1685408.031414620112628 ], [ -529160.49351138737984, 1685444.75501207774505 ], [ -529357.300373172853142, 1685418.988054209854454 ], [ -529537.84865137131419, 1685340.241258328780532 ], [ -529756.386676887050271, 1685284.593998725293204 ], [ -529959.972845302079804, 1685268.335271635092795 ], [ -530042.758440656005405, 1685273.785344421630725 ], [ -530069.855463780811988, 1685362.084650035714731 ], [ -530016.836386706796475, 1685529.152215089416131 ], [ -529993.665215743356384, 1685717.959572388324887 ], [ -530012.59310139529407, 1685855.15759721561335 ], [ -530036.967786007910036, 1685959.755883425939828 ], [ -530104.778163467417471, 1686054.85410077450797 ], [ -530191.596875560469925, 1686136.373194649349898 ], [ -530363.89900455775205, 1686257.300656578270718 ], [ -530530.715085147297941, 1686311.841366063337773 ] ], [ [ -549717.09208054386545, 1670708.719287185464054 ], [ -549484.85052926489152, 1670764.829851221758872 ], [ -549195.775831180857494, 1670892.568765753181651 ], [ -549102.114605819340795, 1671002.632491842377931 ], [ -549059.995976039092056, 1671205.087511062854901 ], [ -549133.233421188313514, 1671368.132911449298263 ], [ -549229.562009817338549, 1671442.858089710352942 ], [ -549376.100071601918899, 1671517.580798417329788 ], [ -549443.926760621368885, 1671612.68865293986164 ], [ -549419.476392486365512, 1671709.160279797622934 ], [ -549348.881264915573411, 1671831.450148614821956 ], [ -549257.938270321232267, 1671925.20773389772512 ], [ -549054.35783506766893, 1672042.0685993086081 ], [ -548881.997362885274924, 1672122.242035608738661 ], [ -548417.830378201324493, 1672396.724766030209139 ], [ -548180.310266436776146, 1672566.573341935873032 ], [ -548078.494078382966109, 1672725.546347257681191 ], [ -548062.147480372223072, 1672974.190831285202876 ], [ -548026.825238189194351, 1673135.878151844488457 ], [ -548049.854180073365569, 1673298.921929420437664 ], [ -548067.44651246140711, 1673494.57419265457429 ], [ -548057.921319016022608, 1673601.911708862753585 ], [ -548026.663670460577123, 1673789.412535712588578 ], [ -547983.186803131946363, 1674000.010952575365081 ], [ -547821.635836365167052, 1674266.318021991755813 ], [ -547723.848679961869493, 1674601.914908493170515 ], [ -547613.842170932213776, 1674960.607328467769548 ], [ -547526.890239489031956, 1675381.795907662715763 ], [ -547439.878859639866278, 1676054.3325964610558 ], [ -547371.930310103809461, 1676461.927824600134045 ], [ -547370.509847565088421, 1676721.427695805439726 ], [ -547409.778603419894353, 1676987.716921900399029 ], [ -547373.067634769366123, 1677207.812813230324537 ], [ -547242.620235140901059, 1677739.029932890087366 ], [ -547181.499539746902883, 1677904.780241096857935 ], [ -547040.302396913175471, 1678099.060914246831089 ], [ -546882.773282569251023, 1678441.427886074641719 ], [ -546854.204468117910437, 1678662.876878998940811 ], [ -546892.164318433729932, 1678786.508263140218332 ], [ -546962.692157298908569, 1678915.572594626573846 ], [ -547079.354193606297486, 1679069.090702927205712 ], [ -547202.768599840230308, 1679332.65155882621184 ], [ -547270.594148872303776, 1679427.751019504852593 ], [ -547273.282691206666641, 1679511.981554592959583 ], [ -547227.133868424687535, 1679537.795008061686531 ], [ -547056.132630218169652, 1679559.534684209153056 ], [ -546803.725955112255178, 1679517.42213044106029 ], [ -546596.117031645029783, 1679457.655461421469226 ], [ -546431.951804375043139, 1679388.389677393017337 ], [ -546308.458267916576006, 1679426.44336707983166 ], [ -546080.454932879772969, 1679539.228091008262709 ], [ -545861.917465876089409, 1679745.749288690742105 ], [ -545598.610499533242546, 1679919.668800886021927 ], [ -545266.110044768429361, 1680056.912707229610533 ], [ -544766.61385144374799, 1680442.777110452996567 ], [ -544465.278056548093446, 1680694.126307102153078 ], [ -544294.21943594282493, 1680916.934290197212249 ], [ -544127.239910410251468, 1681115.287679670378566 ], [ -544055.23693789425306, 1681346.237029917538166 ], [ -544014.403955630608834, 1681691.295815504854545 ], [ -543988.512622909387574, 1681996.956316190306097 ], [ -543980.282320909784175, 1682246.917188659543172 ], [ -543921.878537055221386, 1682396.352885206695646 ], [ -543873.011227462324314, 1682438.468748995568603 ], [ -543802.438716661999933, 1682460.208793595200405 ], [ -543731.884133239742368, 1682431.685142095899209 ], [ -543658.627876573009416, 1682369.199573041405529 ], [ -543562.306537640863098, 1682294.489075005985796 ], [ -543402.194999222527258, 1682251.026898918673396 ], [ -543270.587726574041881, 1682187.185572064947337 ], [ -543197.331892993650399, 1682124.699715514667332 ], [ -543098.291880596778356, 1682066.290018460946158 ], [ -542999.233513596118428, 1682058.144222711678594 ], [ -542832.303653944167309, 1682105.698518992401659 ], [ -542532.350341291865334, 1682248.350780901964754 ], [ -542300.19180640950799, 1682536.35364780225791 ], [ -542073.433629206265323, 1682892.276522419415414 ], [ -541995.983268534182571, 1683155.818136198678985 ], [ -541929.356852797442116, 1683504.940241677919403 ], [ -541903.459149822243489, 1683810.589611144503579 ], [ -541869.419389630784281, 1684114.879301378969103 ], [ -541889.671997899538837, 1684394.715180386789143 ], [ -541920.769374523195438, 1684709.869725375436246 ], [ -541987.174349228153005, 1684963.892962495563552 ], [ -542053.508774094167165, 1685418.960284174187109 ], [ -542107.659247761475854, 1685796.596285367850214 ], [ -542180.850708229001611, 1686060.125210807193071 ], [ -542252.718210594728589, 1686231.282081142999232 ], [ -542418.230191037524492, 1686392.928291718475521 ], [ -542581.040244649164379, 1686520.614244217053056 ], [ -543038.315497501636855, 1686739.304885670542717 ], [ -543332.7962462217547, 1686780.04821095825173 ], [ -543465.775722538004629, 1686835.737573683960363 ], [ -543476.605469468631782, 1686921.316383009543642 ], [ -543457.585610454552807, 1686985.161242952570319 ], [ -543338.043109925696626, 1687350.571071421727538 ], [ -543300.034981840639375, 1687377.740075214998797 ], [ -543203.670438121887855, 1687403.551686655497178 ], [ -543091.05358044069726, 1687326.126834768569097 ], [ -542955.369528437382542, 1687236.476998468628153 ], [ -542746.388816456659697, 1687184.862996113952249 ], [ -542403.068331015529111, 1687085.70687265926972 ], [ -541884.715359606547281, 1686881.95458417176269 ], [ -541502.081233389792033, 1686667.331839670892805 ], [ -541237.503189432551153, 1686497.533400396350771 ], [ -541123.530008857836947, 1686428.255451298085973 ], [ -540895.548225384554826, 1686390.219296634895727 ], [ -540689.235274117090739, 1686473.078251872910187 ], [ -540315.958680585143156, 1686653.736960356822237 ], [ -540119.090067671961151, 1686880.581296973396093 ], [ -539969.694634615094401, 1687173.984696397092193 ], [ -539907.200623621465638, 1687347.853834544541314 ], [ -539797.175891279941425, 1687605.938490103464574 ], [ -539746.792517603957094, 1688058.268222092185169 ], [ -539870.142813740647398, 1688472.567917049862444 ], [ -540068.175216737785377, 1688790.426044106250629 ], [ -540224.173065208597109, 1689009.123538425192237 ], [ -540382.910238505690359, 1689161.262016787659377 ], [ -540503.655176059692167, 1689290.306371933314949 ], [ -540800.785181946121156, 1689566.05578950792551 ], [ -541054.50177919503767, 1689801.052131064468995 ], [ -541272.945029517635703, 1689996.654811141313985 ], [ -541720.732810413115658, 1690272.401796889491379 ], [ -542156.332013405975886, 1690470.720043216366321 ], [ -542472.496243403293192, 1690682.618603102630004 ], [ -542593.233087055734359, 1690861.916047012200579 ], [ -542673.272011926397681, 1690984.164085170021281 ], [ -542686.807454090216197, 1691103.694966100621969 ], [ -542681.338863229379058, 1691236.80915180942975 ], [ -542628.327012600144371, 1691504.394714732887223 ], [ -542625.761488819611259, 1691543.372354194521904 ] ] ] } }
]
}
