{
"type": "FeatureCollection",
"name": "placers_typed",
"crs": { "type": "name", "properties": { "name": "urn:ogc:def:crs:EPSG::3338" } },
"features": [
{ "type": "Feature", "properties": { "ardf_num": "BN099", "site": "Ophir Creek", "quad_250": "BN", "model_code": "39a", "comm_main": "Au", "production": "Yes; medium", "elev_m": 71.117538452148438, "geol_type": "alluvial-stream", "type_basis": "name:creek", "coarseness_rank": null }, "geometry": { "type": "Point", "coordinates": [ -454337.842812568531372, 1704091.456051567336544 ] } },
{ "type": "Feature", "properties": { "ardf_num": "BN101", "site": "Balm Of Gilead Gulch", "quad_250": "BN", "model_code": "39a", "comm_main": "Au", "production": "Yes; small", "elev_m": 124.19235992431641, "geol_type": "alluvial-stream", "type_basis": "name:gulch", "coarseness_rank": null }, "geometry": { "type": "Point", "coordinates": [ -455772.826768748636823, 1706330.509561469079927 ] } },
{ "type": "Feature", "properties": { "ardf_num": "BN102", "site": "Crooked Creek", "quad_250": "BN", "model_code": "39a", "comm_main": "Au", "production": "Yes; small", "elev_m": 114.63784027099609, "geol_type": "alluvial-stream", "type_basis": "name:creek", "coarseness_rank": 3.0 }, "geometry": { "type": "Point", "coordinates": [ -455517.318043300067075, 1707419.83304208656773 ] } },
{ "type": "Feature", "properties": { "ardf_num": "BN103", "site": "Albion Creek", "quad_250": "BN", "model_code": "39a", "comm_main": "Au", "production": "Yes; small", "elev_m": 132.39503479003906, "geol_type": "alluvial-stream", "type_basis": "name:creek", "coarseness_rank": null }, "geometry": { "type": "Point", "coordinates": [ -455955.284516556770541, 1707033.505058112088591 ] } },
{ "type": "Feature", "properties": { "ardf_num": "BN105", "site": "Goldbottom Creek", "quad_250": "BN", "model_code": "39a", "comm_main": "Au", "production": "Yes; small", "elev_m": 104.24366760253906, "geol_type": "alluvial-stream", "type_basis": "name:creek", "coarseness_rank": 3.0 }, "geometry": { "type": "Point", "coordinates": [ -462664.276087144215126, 1706788.335773392114788 ] } },
{ "type": "Feature", "properties": { "ardf_num": "BN106", "site": "Upper Ophir Creek", "quad_250": "BN", "model_code": "39a", "comm_main": "Au", "production": "Yes; small", "elev_m": 121.83786010742188, "geol_type": "alluvial-stream", "type_basis": "name:creek", "coarseness_rank": null }, "geometry": { "type": "Point", "coordinates": [ -454720.833219700551126, 1710570.622351010330021 ] } },
{ "type": "Feature", "properties": { "ardf_num": "BN107", "site": "Oxide Creek", "quad_250": "BN", "model_code": "39a", "comm_main": "Au", "production": "Yes; small", "elev_m": 173.19044494628906, "geol_type": "alluvial-stream", "type_basis": "name:creek", "coarseness_rank": null }, "geometry": { "type": "Point", "coordinates": [ -456300.081181832356378, 1711479.247264526318759 ] } },
{ "type": "Feature", "properties": { "ardf_num": "SO004", "site": "Koyana Creek", "quad_250": "SO", "model_code": "39a", "comm_main": "Au", "production": "Yes; small", "elev_m": 39.020427703857422, "geol_type": "alluvial-stream", "type_basis": "name:creek", "coarseness_rank": null }, "geometry": { "type": "Point", "coordinates": [ -461721.782320991333108, 1656735.608818476321176 ] } },
{ "type": "Feature", "properties": { "ardf_num": "SO005", "site": "Swede Creek", "quad_250": "SO", "model_code": "39a", "comm_main": "Au", "production": "Yes; small", "elev_m": 44.18646240234375, "geol_type": "alluvial-stream", "type_basis": "name:creek", "coarseness_rank": null }, "geometry": { "type": "Point", "coordinates": [ -463131.852944132871926, 1656694.677774634212255 ] } },
{ "type": "Feature", "properties": { "ardf_num": "SO006", "site": "Daniels Creek", "quad_250": "SO", "model_code": "39a", "comm_main": "Au", "production": "Yes; medium", "elev_m": 48.425674438476562, "geol_type": "alluvial-stream", "type_basis": "name:creek", "coarseness_rank": null }, "geometry": { "type": "Point", "coordinates": [ -465165.727874651434831, 1657513.420891985530034 ] } },
{ "type": "Feature", "properties": { "ardf_num": "SO007", "site": "Eldorado Creek", "quad_250": "SO", "model_code": "39a", "comm_main": "Au", "production": "Yes; small", "elev_m": 26.847665786743164, "geol_type": "alluvial-stream", "type_basis": "name:creek", "coarseness_rank": null }, "geometry": { "type": "Point", "coordinates": [ -465911.818375452421606, 1658785.483818406704813 ] } },
{ "type": "Feature", "properties": { "ardf_num": "SO009", "site": "Silverbow Creek (Little Anvil Creek)", "quad_250": "SO", "model_code": "39a", "comm_main": "Au", "production": "Yes; small", "elev_m": 36.611331939697266, "geol_type": "alluvial-stream", "type_basis": "name:creek", "coarseness_rank": null }, "geometry": { "type": "Point", "coordinates": [ -469869.080414022842888, 1660163.642847692826763 ] } },
{ "type": "Feature", "properties": { "ardf_num": "SO010", "site": "California Creek", "quad_250": "SO", "model_code": "39a", "comm_main": "Au", "production": "Yes; small", "elev_m": 22.564842224121094, "geol_type": "alluvial-stream", "type_basis": "name:creek", "coarseness_rank": null }, "geometry": { "type": "Point", "coordinates": [ -472252.365955066867173, 1662664.208489248296246 ] } },
{ "type": "Feature", "properties": { "ardf_num": "SO016", "site": "Mystery Creek", "quad_250": "SO", "model_code": "39a", "comm_main": "Au", "production": "Yes; small", "elev_m": 84.639236450195312, "geol_type": "alluvial-stream", "type_basis": "name:creek", "coarseness_rank": 2.0 }, "geometry": { "type": "Point", "coordinates": [ -497451.912305852456484, 1670508.700199415674433 ] } },
{ "type": "Feature", "properties": { "ardf_num": "SO017", "site": "Shovel Creek", "quad_250": "SO", "model_code": "39a", "comm_main": "Au", "production": "Yes; small", "elev_m": 27.210872650146484, "geol_type": "alluvial-stream", "type_basis": "name:creek", "coarseness_rank": null }, "geometry": { "type": "Point", "coordinates": [ -495541.73992446786724, 1670657.868883821647614 ] } },
{ "type": "Feature", "properties": { "ardf_num": "SO018", "site": "Penny Creek", "quad_250": "SO", "model_code": "39a", "comm_main": "Au", "production": "Yes; small", "elev_m": 35.437328338623047, "geol_type": "alluvial-stream", "type_basis": "name:creek", "coarseness_rank": 3.0 }, "geometry": { "type": "Point", "coordinates": [ -493400.889178239565808, 1670433.03402714128606 ] } },
{ "type": "Feature", "properties": { "ardf_num": "SO022", "site": "Big Hurrah Creek", "quad_250": "SO", "model_code": "39a", "comm_main": "Au", "production": "Yes; small", "elev_m": 61.297206878662109, "geol_type": "alluvial-stream", "type_basis": "name:creek", "coarseness_rank": 3.0 }, "geometry": { "type": "Point", "coordinates": [ -487574.945117580296937, 1669973.159909355221316 ] } },
{ "type": "Feature", "properties": { "ardf_num": "SO024", "site": "Solomon River", "quad_250": "SO", "model_code": "39a", "comm_main": "Au", "production": "Yes; small", "elev_m": 37.774906158447266, "geol_type": "alluvial-stream", "type_basis": "name:river", "coarseness_rank": null }, "geometry": { "type": "Point", "coordinates": [ -489486.428040466678794, 1673206.565073334146291 ] } },
{ "type": "Feature", "properties": { "ardf_num": "SO025", "site": "Sapphire Gulch", "quad_250": "SO", "model_code": "39a", "comm_main": "Au", "production": "Yes; small", "elev_m": 90.422943115234375, "geol_type": "alluvial-stream", "type_basis": "name:gulch", "coarseness_rank": null }, "geometry": { "type": "Point", "coordinates": [ -492602.515582353924401, 1673356.41028190148063 ] } },
{ "type": "Feature", "properties": { "ardf_num": "SO026", "site": "Bear Gulch", "quad_250": "SO", "model_code": "39a", "comm_main": "Au", "production": "Yes; small", "elev_m": 94.251205444335938, "geol_type": "alluvial-stream", "type_basis": "name:gulch", "coarseness_rank": null }, "geometry": { "type": "Point", "coordinates": [ -491937.729701170115732, 1673590.670648862142116 ] } },
{ "type": "Feature", "properties": { "ardf_num": "SO027", "site": "Meddler Gulch", "quad_250": "SO", "model_code": "39a", "comm_main": "Au", "production": "Yes; small", "elev_m": 128.80491638183594, "geol_type": "alluvial-stream", "type_basis": "name:gulch", "coarseness_rank": 2.0 }, "geometry": { "type": "Point", "coordinates": [ -492498.500809576245956, 1674017.582101035863161 ] } },
{ "type": "Feature", "properties": { "ardf_num": "SO028", "site": "Kasson Creek", "quad_250": "SO", "model_code": "39a", "comm_main": "Au", "production": "Yes; small", "elev_m": 77.997123718261719, "geol_type": "alluvial-stream", "type_basis": "name:creek", "coarseness_rank": 2.0 }, "geometry": { "type": "Point", "coordinates": [ -494492.446548603475094, 1675461.245376565027982 ] } },
{ "type": "Feature", "properties": { "ardf_num": "SO029", "site": "West Creek", "quad_250": "SO", "model_code": "39a", "comm_main": "Au", "production": "Yes; small", "elev_m": 63.628223419189453, "geol_type": "alluvial-stream", "type_basis": "name:creek", "coarseness_rank": 3.0 }, "geometry": { "type": "Point", "coordinates": [ -497016.18370125774527, 1674166.907048295484856 ] } },
{ "type": "Feature", "properties": { "ardf_num": "SO031", "site": "Adams Creek", "quad_250": "SO", "model_code": "39", "comm_main": "Au", "production": "Yes; small", "elev_m": 111.71257019042969, "geol_type": "alluvial-stream", "type_basis": "name:creek", "coarseness_rank": null }, "geometry": { "type": "Point", "coordinates": [ -496161.807223404874094, 1677419.649676907807589 ] } },
{ "type": "Feature", "properties": { "ardf_num": "SO032", "site": "Butte Creek", "quad_250": "SO", "model_code": "39a", "comm_main": "Au", "production": "Yes; small", "elev_m": 87.218681335449219, "geol_type": "alluvial-stream", "type_basis": "name:creek", "coarseness_rank": null }, "geometry": { "type": "Point", "coordinates": [ -490617.795802369422745, 1676770.896736003924161 ] } },
{ "type": "Feature", "properties": { "ardf_num": "SO033", "site": "Fox Creek", "quad_250": "SO", "model_code": "39a", "comm_main": "Au", "production": "Yes; small", "elev_m": 113.87664031982422, "geol_type": "alluvial-stream", "type_basis": "name:creek", "coarseness_rank": null }, "geometry": { "type": "Point", "coordinates": [ -488440.157125594792888, 1679591.203685552813113 ] } },
{ "type": "Feature", "properties": { "ardf_num": "SO048", "site": "Melsing Creek; Basin Creek; Benson Gulch", "quad_250": "SO", "model_code": "39a", "comm_main": "Au", "production": "Yes; small", "elev_m": 35.186176300048828, "geol_type": "alluvial-stream", "type_basis": "name:creek", "coarseness_rank": null }, "geometry": { "type": "Point", "coordinates": [ -455516.66583095950773, 1693107.461536658694968 ] } },
{ "type": "Feature", "properties": { "ardf_num": "SO049", "site": "Niukluk River", "quad_250": "SO", "model_code": "39a", "comm_main": "Au", "production": "Yes; small", "elev_m": 19.840353012084961, "geol_type": "alluvial-stream", "type_basis": "name:river", "coarseness_rank": null }, "geometry": { "type": "Point", "coordinates": [ -455624.561848517740145, 1690080.275659046834335 ] } },
{ "type": "Feature", "properties": { "ardf_num": "SO050", "site": "Niukluk River", "quad_250": "SO", "model_code": "39a", "comm_main": "Au", "production": "Yes; small", "elev_m": 27.194580078125, "geol_type": "alluvial-stream", "type_basis": "name:river", "coarseness_rank": null }, "geometry": { "type": "Point", "coordinates": [ -459200.709637692838442, 1693761.664922521216795 ] } },
{ "type": "Feature", "properties": { "ardf_num": "SO051", "site": "Richter Creek", "quad_250": "SO", "model_code": "39a", "comm_main": "Au", "production": "Undetermined", "elev_m": 49.105869293212891, "geol_type": "alluvial-stream", "type_basis": "name:creek", "coarseness_rank": null }, "geometry": { "type": "Point", "coordinates": [ -461420.852971054497175, 1695893.857551009394228 ] } },
{ "type": "Feature", "properties": { "ardf_num": "SO052", "site": "Sweetcake Creek", "quad_250": "SO", "model_code": "39a", "comm_main": "Au", "production": "Yes; small", "elev_m": 44.824947357177734, "geol_type": "alluvial-stream", "type_basis": "name:creek", "coarseness_rank": null }, "geometry": { "type": "Point", "coordinates": [ -459133.284798524924554, 1697133.287520215613768 ] } },
{ "type": "Feature", "properties": { "ardf_num": "SO053", "site": "Ophir Creek", "quad_250": "SO", "model_code": "39a", "comm_main": "Au", "production": "Yes; medium", "elev_m": 51.844406127929688, "geol_type": "alluvial-stream", "type_basis": "name:creek", "coarseness_rank": null }, "geometry": { "type": "Point", "coordinates": [ -454829.779927993076853, 1699430.596390123013407 ] } },
{ "type": "Feature", "properties": { "ardf_num": "SO054", "site": "Warm Creek", "quad_250": "SO", "model_code": "39a", "comm_main": "Au", "production": "Yes; small", "elev_m": 74.161674499511719, "geol_type": "alluvial-stream", "type_basis": "name:creek", "coarseness_rank": 3.0 }, "geometry": { "type": "Point", "coordinates": [ -463498.351288032019511, 1699923.333357063587755 ] } },
{ "type": "Feature", "properties": { "ardf_num": "SO056", "site": "Elkhorn Creek", "quad_250": "SO", "model_code": "39a", "comm_main": "Au", "production": "Yes; small", "elev_m": 58.404388427734375, "geol_type": "alluvial-stream", "type_basis": "name:creek", "coarseness_rank": 3.0 }, "geometry": { "type": "Point", "coordinates": [ -469112.545772087643854, 1698511.116713531780988 ] } },
{ "type": "Feature", "properties": { "ardf_num": "SO057", "site": "Camp Creek", "quad_250": "SO", "model_code": "39a", "comm_main": "Au", "production": "Yes; small", "elev_m": 39.863735198974609, "geol_type": "alluvial-stream", "type_basis": "name:creek", "coarseness_rank": null }, "geometry": { "type": "Point", "coordinates": [ -467786.522411917336285, 1698423.93236670200713 ] } },
{ "type": "Feature", "properties": { "ardf_num": "SO058", "site": "Goldbottom Creek", "quad_250": "SO", "model_code": "39a", "comm_main": "Au", "production": "Yes; small", "elev_m": 50.161808013916016, "geol_type": "alluvial-stream", "type_basis": "name:creek", "coarseness_rank": 2.0 }, "geometry": { "type": "Point", "coordinates": [ -466780.592846620595083, 1700978.82565544359386 ] } },
{ "type": "Feature", "properties": { "ardf_num": "SO060", "site": "Fox River; IXL Gulch", "quad_250": "SO", "model_code": "39a", "comm_main": "Au", "production": "Yes; small", "elev_m": 72.496253967285156, "geol_type": "alluvial-stream", "type_basis": "name:river", "coarseness_rank": null }, "geometry": { "type": "Point", "coordinates": [ -464007.326119152305182, 1681057.365703894058242 ] } },
{ "type": "Feature", "properties": { "ardf_num": "SO062", "site": "Birch Creek", "quad_250": "SO", "model_code": "39a", "comm_main": "Au", "production": "Yes; small", "elev_m": 139.8150634765625, "geol_type": "alluvial-stream", "type_basis": "name:creek", "coarseness_rank": null }, "geometry": { "type": "Point", "coordinates": [ -478988.756013074191287, 1688735.457244880730286 ] } },
{ "type": "Feature", "properties": { "ardf_num": "SO064", "site": "Dawson Creek", "quad_250": "SO", "model_code": "39a", "comm_main": "Au", "production": "Yes; small", "elev_m": 66.013206481933594, "geol_type": "alluvial-stream", "type_basis": "name:creek", "coarseness_rank": null }, "geometry": { "type": "Point", "coordinates": [ -479797.635049038333818, 1698112.506802587304264 ] } },
{ "type": "Feature", "properties": { "ardf_num": "SO065", "site": "No Man Creek", "quad_250": "SO", "model_code": "39a", "comm_main": "Au", "production": "Yes; small", "elev_m": 68.366073608398438, "geol_type": "alluvial-stream", "type_basis": "name:creek", "coarseness_rank": null }, "geometry": { "type": "Point", "coordinates": [ -479397.955394518212415, 1697599.481065243948251 ] } },
{ "type": "Feature", "properties": { "ardf_num": "SO066", "site": "Big Four Creek", "quad_250": "SO", "model_code": "39a", "comm_main": "Au", "production": "Yes; small", "elev_m": 64.484771728515625, "geol_type": "alluvial-stream", "type_basis": "name:creek", "coarseness_rank": null }, "geometry": { "type": "Point", "coordinates": [ -479827.478699102764949, 1696988.777677450096235 ] } },
{ "type": "Feature", "properties": { "ardf_num": "SO067", "site": "Casadepaga River", "quad_250": "SO", "model_code": "39a", "comm_main": "Au", "production": "Yes; small", "elev_m": 113.06654357910156, "geol_type": "alluvial-stream", "type_basis": "name:river", "coarseness_rank": 2.0 }, "geometry": { "type": "Point", "coordinates": [ -480844.385071624012198, 1695679.028077867347747 ] } },
{ "type": "Feature", "properties": { "ardf_num": "SO069", "site": "Dixon Creek", "quad_250": "SO", "model_code": "39a", "comm_main": "Au", "production": "Yes; small", "elev_m": 83.988609313964844, "geol_type": "alluvial-stream", "type_basis": "name:creek", "coarseness_rank": 2.0 }, "geometry": { "type": "Point", "coordinates": [ -482248.496575606637634, 1695896.511458333581686 ] } },
{ "type": "Feature", "properties": { "ardf_num": "SO072", "site": "Goose Creek", "quad_250": "SO", "model_code": "39a", "comm_main": "Au", "production": "Yes; small", "elev_m": 87.315818786621094, "geol_type": "alluvial-stream", "type_basis": "name:creek", "coarseness_rank": 1.0 }, "geometry": { "type": "Point", "coordinates": [ -485432.811224999255501, 1695150.599042606772855 ] } },
{ "type": "Feature", "properties": { "ardf_num": "SO073", "site": "Dry Creek (Gulch)", "quad_250": "SO", "model_code": "39a", "comm_main": "Au", "production": "Yes; small", "elev_m": 80.450462341308594, "geol_type": "alluvial-stream", "type_basis": "name:creek", "coarseness_rank": 3.0 }, "geometry": { "type": "Point", "coordinates": [ -482610.318514270649757, 1695726.957462974591181 ] } },
{ "type": "Feature", "properties": { "ardf_num": "SO074", "site": "Thorpe Creek", "quad_250": "SO", "model_code": "39a", "comm_main": "Au", "production": "Yes; small", "elev_m": 85.690185546875, "geol_type": "alluvial-stream", "type_basis": "name:creek", "coarseness_rank": 2.0 }, "geometry": { "type": "Point", "coordinates": [ -481614.727536623191554, 1695346.884167953161523 ] } },
{ "type": "Feature", "properties": { "ardf_num": "SO075", "site": "Casadepaga River", "quad_250": "SO", "model_code": "39a", "comm_main": "Au", "production": "Undetermined", "elev_m": 84.296524047851562, "geol_type": "alluvial-stream", "type_basis": "name:river", "coarseness_rank": null }, "geometry": { "type": "Point", "coordinates": [ -482432.059981718542986, 1695022.189581972779706 ] } },
{ "type": "Feature", "properties": { "ardf_num": "SO076", "site": "Spruce Creek", "quad_250": "SO", "model_code": "39a", "comm_main": "Au", "production": "Yes; small", "elev_m": 84.20574951171875, "geol_type": "alluvial-stream", "type_basis": "name:creek", "coarseness_rank": 2.0 }, "geometry": { "type": "Point", "coordinates": [ -482015.1385333314538, 1694618.992789895040914 ] } },
{ "type": "Feature", "properties": { "ardf_num": "SO078", "site": "Lightning Creek", "quad_250": "SO", "model_code": "39a", "comm_main": "Au", "production": "Undetermined.", "elev_m": 115.61873626708984, "geol_type": "alluvial-stream", "type_basis": "name:creek", "coarseness_rank": null }, "geometry": { "type": "Point", "coordinates": [ -482994.776631665823516, 1693868.146251727128401 ] } },
{ "type": "Feature", "properties": { "ardf_num": "SO079", "site": "Penelope Creek", "quad_250": "SO", "model_code": "39a", "comm_main": "Au", "production": "Yes; small", "elev_m": 89.938873291015625, "geol_type": "alluvial-stream", "type_basis": "name:creek", "coarseness_rank": null }, "geometry": { "type": "Point", "coordinates": [ -484349.60974480304867, 1693175.906117362435907 ] } },
{ "type": "Feature", "properties": { "ardf_num": "SO080", "site": "Casadepaga River", "quad_250": "SO", "model_code": "39a", "comm_main": "Au", "production": "Undetermined.", "elev_m": 87.663238525390625, "geol_type": "alluvial-stream", "type_basis": "name:river", "coarseness_rank": null }, "geometry": { "type": "Point", "coordinates": [ -486464.97178177308524, 1694070.294058845611289 ] } },
{ "type": "Feature", "properties": { "ardf_num": "SO081", "site": "Casadepaga River", "quad_250": "SO", "model_code": "39a", "comm_main": "Au", "production": "Yes; small", "elev_m": 82.223091125488281, "geol_type": "alluvial-stream", "type_basis": "name:river", "coarseness_rank": null }, "geometry": { "type": "Point", "coordinates": [ -487579.131200977601111, 1692777.287286379840225 ] } },
{ "type": "Feature", "properties": { "ardf_num": "SO082", "site": "Sunshine Creek", "quad_250": "SO", "model_code": "39a", "comm_main": "Au", "production": "Yes; small", "elev_m": 105.30471038818359, "geol_type": "alluvial-stream", "type_basis": "name:creek", "coarseness_rank": null }, "geometry": { "type": "Point", "coordinates": [ -489383.70130521687679, 1693512.128476360347122 ] } },
{ "type": "Feature", "properties": { "ardf_num": "SO083", "site": "Canyon Creek", "quad_250": "SO", "model_code": "39a", "comm_main": "Au", "production": "Yes; small", "elev_m": 132.41230773925781, "geol_type": "alluvial-stream", "type_basis": "name:creek", "coarseness_rank": null }, "geometry": { "type": "Point", "coordinates": [ -490074.130890613072552, 1693395.018341014627367 ] } },
{ "type": "Feature", "properties": { "ardf_num": "SO084", "site": "Boulder Creek", "quad_250": "SO", "model_code": "39a", "comm_main": "Au", "production": "Yes; small", "elev_m": 119.76976776123047, "geol_type": "alluvial-stream", "type_basis": "name:creek", "coarseness_rank": 3.0 }, "geometry": { "type": "Point", "coordinates": [ -490970.82676925137639, 1694100.903648611856624 ] } },
{ "type": "Feature", "properties": { "ardf_num": "SO085", "site": "Upper Goose Creek", "quad_250": "SO", "model_code": "39a", "comm_main": "Au", "production": "Yes; small", "elev_m": 161.03753662109375, "geol_type": "alluvial-stream", "type_basis": "name:creek", "coarseness_rank": null }, "geometry": { "type": "Point", "coordinates": [ -488815.267370092740748, 1695906.28975976887159 ] } },
{ "type": "Feature", "properties": { "ardf_num": "SO088", "site": "Allgold Creek", "quad_250": "SO", "model_code": "39a", "comm_main": "Au", "production": "None", "elev_m": 175.50141906738281, "geol_type": "alluvial-stream", "type_basis": "name:creek", "coarseness_rank": null }, "geometry": { "type": "Point", "coordinates": [ -494207.95182833931176, 1695178.192733453819528 ] } },
{ "type": "Feature", "properties": { "ardf_num": "SO089", "site": "Wilson Creek", "quad_250": "SO", "model_code": "39a", "comm_main": "Au", "production": "Yes; small", "elev_m": 194.91117858886719, "geol_type": "alluvial-stream", "type_basis": "name:creek", "coarseness_rank": null }, "geometry": { "type": "Point", "coordinates": [ -496109.266187174885999, 1690173.222121604019776 ] } },
{ "type": "Feature", "properties": { "ardf_num": "SO090", "site": "Cahill Creek", "quad_250": "SO", "model_code": "39a", "comm_main": "Au", "production": "Undetermined.", "elev_m": 140.5650634765625, "geol_type": "alluvial-stream", "type_basis": "name:creek", "coarseness_rank": null }, "geometry": { "type": "Point", "coordinates": [ -494344.84929253597511, 1689779.740503737004474 ] } },
{ "type": "Feature", "properties": { "ardf_num": "SO091", "site": "Lower Willow Creek", "quad_250": "SO", "model_code": "39a", "comm_main": "Au", "production": "Yes; small", "elev_m": 152.25384521484375, "geol_type": "alluvial-stream", "type_basis": "name:creek", "coarseness_rank": 3.0 }, "geometry": { "type": "Point", "coordinates": [ -492990.218326115456875, 1689226.2985320976004 ] } },
{ "type": "Feature", "properties": { "ardf_num": "SO092", "site": "Ridgeway Creek", "quad_250": "SO", "model_code": "39a", "comm_main": "Au", "production": "None", "elev_m": 139.90733337402344, "geol_type": "alluvial-stream", "type_basis": "name:creek", "coarseness_rank": 3.0 }, "geometry": { "type": "Point", "coordinates": [ -492655.16066125157522, 1688608.724843060597777 ] } },
{ "type": "Feature", "properties": { "ardf_num": "SO093", "site": "Casadepaga River", "quad_250": "SO", "model_code": "39a", "comm_main": "Au", "production": "Yes; small", "elev_m": 98.23565673828125, "geol_type": "alluvial-stream", "type_basis": "name:river", "coarseness_rank": null }, "geometry": { "type": "Point", "coordinates": [ -489358.656087137118448, 1687863.528321177465841 ] } },
{ "type": "Feature", "properties": { "ardf_num": "SO094", "site": "Banner Creek", "quad_250": "SO", "model_code": "39a", "comm_main": "Au", "production": "Yes; small", "elev_m": 124.49919128417969, "geol_type": "alluvial-stream", "type_basis": "name:creek", "coarseness_rank": 2.0 }, "geometry": { "type": "Point", "coordinates": [ -487943.937880218727514, 1689222.155842196429148 ] } },
{ "type": "Feature", "properties": { "ardf_num": "SO095", "site": "Upper Banner Creek", "quad_250": "SO", "model_code": "39a", "comm_main": "Au", "production": "Yes; small", "elev_m": 137.42868041992188, "geol_type": "alluvial-stream", "type_basis": "name:creek", "coarseness_rank": 2.0 }, "geometry": { "type": "Point", "coordinates": [ -487074.751860766962636, 1688634.626656090375036 ] } },
{ "type": "Feature", "properties": { "ardf_num": "SO096", "site": "Ruby Creek", "quad_250": "SO", "model_code": "39a", "comm_main": "Au", "production": "Yes; small", "elev_m": 125.55967712402344, "geol_type": "alluvial-stream", "type_basis": "name:creek", "coarseness_rank": 3.0 }, "geometry": { "type": "Point", "coordinates": [ -488311.166896105976775, 1686570.355766837252304 ] } },
{ "type": "Feature", "properties": { "ardf_num": "SO097", "site": "Nugget Gulch", "quad_250": "SO", "model_code": "39a", "comm_main": "Au", "production": "Undetermined.", "elev_m": 155.73736572265625, "geol_type": "alluvial-stream", "type_basis": "name:gulch", "coarseness_rank": null }, "geometry": { "type": "Point", "coordinates": [ -487367.402277086803224, 1683374.797385909827426 ] } },
{ "type": "Feature", "properties": { "ardf_num": "SO098", "site": "Casadepaga River", "quad_250": "SO", "model_code": "39a", "comm_main": "Au", "production": "Yes; small", "elev_m": 125.00233459472656, "geol_type": "alluvial-stream", "type_basis": "name:river", "coarseness_rank": null }, "geometry": { "type": "Point", "coordinates": [ -489835.572695627226494, 1686357.864306579111144 ] } },
{ "type": "Feature", "properties": { "ardf_num": "SO099", "site": "Moonlight Creek", "quad_250": "SO", "model_code": "39a", "comm_main": "Au", "production": "Yes; small", "elev_m": 127.21833038330078, "geol_type": "alluvial-stream", "type_basis": "name:creek", "coarseness_rank": null }, "geometry": { "type": "Point", "coordinates": [ -495044.161536887346301, 1685373.667890026699752 ] } },
{ "type": "Feature", "properties": { "ardf_num": "SO137", "site": "Solomon River", "quad_250": "SO", "model_code": "39a", "comm_main": "Au", "production": "Yes; small", "elev_m": 74.738899230957031, "geol_type": "alluvial-stream", "type_basis": "name:river", "coarseness_rank": null }, "geometry": { "type": "Point", "coordinates": [ -489599.052793444076087, 1679885.445705677848309 ] } },
{ "type": "Feature", "properties": { "ardf_num": "SO142", "site": "Dutch Creek", "quad_250": "SO", "model_code": "39a", "comm_main": "Au", "production": "Yes; small", "elev_m": 75.409988403320312, "geol_type": "alluvial-stream", "type_basis": "name:creek", "coarseness_rank": null }, "geometry": { "type": "Point", "coordinates": [ -453277.474617665575352, 1701231.939516156446189 ] } },
{ "type": "Feature", "properties": { "ardf_num": "SO165", "site": "Ryan Creek", "quad_250": "SO", "model_code": "39a", "comm_main": "Au", "production": "Yes; small", "elev_m": 9.4222640991210938, "geol_type": "alluvial-stream", "type_basis": "name:creek", "coarseness_rank": null }, "geometry": { "type": "Point", "coordinates": [ -467540.275732787267771, 1658575.867493955651298 ] } },
{ "type": "Feature", "properties": { "ardf_num": "SO168", "site": "Quartz Creek (tributary to lower Solomon River)", "quad_250": "SO", "model_code": "39a", "comm_main": "Au", "production": "Yes; small", "elev_m": 32.895885467529297, "geol_type": "alluvial-stream", "type_basis": "name:creek", "coarseness_rank": null }, "geometry": { "type": "Point", "coordinates": [ -491518.064443475857843, 1669798.503538334043697 ] } },
{ "type": "Feature", "properties": { "ardf_num": "SO169", "site": "Puzzle Creek (Gulch)", "quad_250": "SO", "model_code": "39a", "comm_main": "Au", "production": "Yes; small", "elev_m": 48.636684417724609, "geol_type": "alluvial-stream", "type_basis": "name:creek", "coarseness_rank": 3.0 }, "geometry": { "type": "Point", "coordinates": [ -497021.96511804277543, 1670779.338063092669472 ] } },
{ "type": "Feature", "properties": { "ardf_num": "SO170", "site": "Problem Creek (Gulch)", "quad_250": "SO", "model_code": "39a", "comm_main": "Au", "production": "Yes; small", "elev_m": 87.031463623046875, "geol_type": "alluvial-stream", "type_basis": "name:creek", "coarseness_rank": null }, "geometry": { "type": "Point", "coordinates": [ -497983.159977465693373, 1670818.982401161454618 ] } },
{ "type": "Feature", "properties": { "ardf_num": "SO171", "site": "Lion Creek", "quad_250": "SO", "model_code": "39a", "comm_main": "Au", "production": "Yes; small", "elev_m": 94.158348083496094, "geol_type": "alluvial-stream", "type_basis": "name:creek", "coarseness_rank": null }, "geometry": { "type": "Point", "coordinates": [ -485325.686791030224413, 1668269.545442723436281 ] } }
]
}
