{
"type": "FeatureCollection",
"name": "drainage_map",
"crs": { "type": "name", "properties": { "name": "urn:ogc:def:crs:EPSG::3338" } },
"features": [
{ "type": "Feature", "properties": { "basin_id": 37, "area_km2": 42.43 }, "geometry": { "type": "Polygon", "coordinates": [ [ [ -541125.0, 1672725.0 ], [ -541125.0, 1672700.0 ], [ -541250.0, 1672700.0 ], [ -541250.0, 1672675.0 ], [ -541300.0, 1672675.0 ], [ -541300.0, 1672650.0 ], [ -541350.0, 1672650.0 ], [ -541350.0, 1672625.0 ], [ -541400.0, 1672625.0 ], [ -541400.0, 1672600.0 ], [ -541425.0, 1672600.0 ], [ -541425.0, 1672575.0 ], [ -541525.0, 1672575.0 ], [ -541525.0, 1672550.0 ], [ -541575.0, 1672550.0 ], [ -541575.0, 1672525.0 ], [ -541650.0, 1672525.0 ], [ -541650.0, 1672500.0 ], [ -541675.0, 1672500.0 ], [ -541675.0, 1672475.0 ], [ -541700.0, 1672475.0 ], [ -541700.0, 1672450.0 ], [ -541750.0, 1672450.0 ], [ -541750.0, 1672425.0 ], [ -541775.0, 1672425.0 ], [ -541775.0, 1672400.0 ], [ -541825.0, 1672400.0 ], [ -541825.0, 1672375.0 ], [ -541900.0, 1672375.0 ], [ -541900.0, 1672350.0 ], [ -541925.0, 1672350.0 ], [ -541925.0, 1672325.0 ], [ -541950.0, 1672325.0 ], [ -541950.0, 1672300.0 ], [ -541975.0, 1672300.0 ], [ -541975.0, 1672275.0 ], [ -541950.0, 1672275.0 ], [ -541950.0, 1672250.0 ], [ -541975.0, 1672250.0 ], [ -541975.0, 1672225.0 ], [ -542000.0, 1672225.0 ], [ -542000.0, 1672200.0 ], [ -542025.0, 1672200.0 ], [ -542025.0, 1672175.0 ], [ -542050.0, 1672175.0 ], [ -542050.0, 1672150.0 ], [ -542075.0, 1672150.0 ], [ -542075.0, 1672125.0 ], [ -542100.0, 1672125.0 ], [ -542100.0, 1672100.0 ], [ -542125.0, 1672100.0 ], [ -542125.0, 1672075.0 ], [ -542150.0, 1672075.0 ], [ -542150.0, 1672050.0 ], [ -542175.0, 1672050.0 ], [ -542175.0, 1672025.0 ], [ -542200.0, 1672025.0 ], [ -542200.0, 1672000.0 ], [ -542225.0, 1672000.0 ], [ -542225.0, 1671975.0 ], [ -542250.0, 1671975.0 ], [ -542250.0, 1671950.0 ], [ -542275.0, 1671950.0 ], [ -542275.0, 1671925.0 ], [ -542300.0, 1671925.0 ], [ -542300.0, 1671900.0 ], [ -542325.0, 1671900.0 ], [ -542325.0, 1671875.0 ], [ -542350.0, 1671875.0 ], [ -542350.0, 1671850.0 ], [ -542375.0, 1671850.0 ], [ -542375.0, 1671775.0 ], [ -542400.0, 1671775.0 ], [ -542400.0, 1671750.0 ], [ -542425.0, 1671750.0 ], [ -542425.0, 1671725.0 ], [ -542450.0, 1671725.0 ], [ -542450.0, 1671700.0 ], [ -542475.0, 1671700.0 ], [ -542475.0, 1671675.0 ], [ -542500.0, 1671675.0 ], [ -542500.0, 1671625.0 ], [ -542525.0, 1671625.0 ], [ -542525.0, 1671600.0 ], [ -542575.0, 1671600.0 ], [ -542575.0, 1671575.0 ], [ -542650.0, 1671575.0 ], [ -542650.0, 1671550.0 ], [ -542675.0, 1671550.0 ], [ -542675.0, 1671525.0 ], [ -542700.0, 1671525.0 ], [ -542700.0, 1671500.0 ], [ -542725.0, 1671500.0 ], [ -542725.0, 1671475.0 ], [ -542950.0, 1671475.0 ], [ -542950.0, 1671500.0 ], [ -543100.0, 1671500.0 ], [ -543100.0, 1671525.0 ], [ -543175.0, 1671525.0 ], [ -543175.0, 1671550.0 ], [ -543300.0, 1671550.0 ], [ -543300.0, 1671500.0 ], [ -543350.0, 1671500.0 ], [ -543350.0, 1671475.0 ], [ -543375.0, 1671475.0 ], [ -543375.0, 1671450.0 ], [ -543400.0, 1671450.0 ], [ -543400.0, 1671425.0 ], [ -543425.0, 1671425.0 ], [ -543425.0, 1671350.0 ], [ -543450.0, 1671350.0 ], [ -543450.0, 1671325.0 ], [ -543475.0, 1671325.0 ], [ -543475.0, 1671300.0 ], [ -543500.0, 1671300.0 ], [ -543500.0, 1671275.0 ], [ -543525.0, 1671275.0 ], [ -543525.0, 1671250.0 ], [ -543550.0, 1671250.0 ], [ -543550.0, 1671225.0 ], [ -543575.0, 1671225.0 ], [ -543575.0, 1671200.0 ], [ -543600.0, 1671200.0 ], [ -543600.0, 1671175.0 ], [ -543625.0, 1671175.0 ], [ -543625.0, 1671150.0 ], [ -543650.0, 1671150.0 ], [ -543650.0, 1671100.0 ], [ -543675.0, 1671100.0 ], [ -543675.0, 1671075.0 ], [ -543700.0, 1671075.0 ], [ -543700.0, 1671050.0 ], [ -543725.0, 1671050.0 ], [ -543725.0, 1671025.0 ], [ -543750.0, 1671025.0 ], [ -543750.0, 1671000.0 ], [ -543775.0, 1671000.0 ], [ -543775.0, 1670975.0 ], [ -543800.0, 1670975.0 ], [ -543800.0, 1670950.0 ], [ -543825.0, 1670950.0 ], [ -543825.0, 1670925.0 ], [ -543850.0, 1670925.0 ], [ -543850.0, 1670900.0 ], [ -543875.0, 1670900.0 ], [ -543875.0, 1670875.0 ], [ -543900.0, 1670875.0 ], [ -543900.0, 1670850.0 ], [ -543925.0, 1670850.0 ], [ -543925.0, 1670825.0 ], [ -543950.0, 1670825.0 ], [ -543950.0, 1670800.0 ], [ -543975.0, 1670800.0 ], [ -543975.0, 1670775.0 ], [ -544000.0, 1670775.0 ], [ -544000.0, 1670750.0 ], [ -544050.0, 1670750.0 ], [ -544050.0, 1670725.0 ], [ -544100.0, 1670725.0 ], [ -544100.0, 1670700.0 ], [ -544125.0, 1670700.0 ], [ -544125.0, 1670675.0 ], [ -544150.0, 1670675.0 ], [ -544150.0, 1670650.0 ], [ -544175.0, 1670650.0 ], [ -544175.0, 1670625.0 ], [ -544200.0, 1670625.0 ], [ -544200.0, 1670600.0 ], [ -544225.0, 1670600.0 ], [ -544225.0, 1670575.0 ], [ -544250.0, 1670575.0 ], [ -544250.0, 1670550.0 ], [ -544275.0, 1670550.0 ], [ -544275.0, 1670525.0 ], [ -544300.0, 1670525.0 ], [ -544300.0, 1670500.0 ], [ -544325.0, 1670500.0 ], [ -544325.0, 1670475.0 ], [ -544350.0, 1670475.0 ], [ -544350.0, 1670450.0 ], [ -544375.0, 1670450.0 ], [ -544375.0, 1670425.0 ], [ -544400.0, 1670425.0 ], [ -544400.0, 1670400.0 ], [ -544425.0, 1670400.0 ], [ -544425.0, 1670375.0 ], [ -544450.0, 1670375.0 ], [ -544450.0, 1670350.0 ], [ -544475.0, 1670350.0 ], [ -544475.0, 1670325.0 ], [ -544500.0, 1670325.0 ], [ -544500.0, 1670300.0 ], [ -544525.0, 1670300.0 ], [ -544525.0, 1670275.0 ], [ -544550.0, 1670275.0 ], [ -544550.0, 1670250.0 ], [ -544575.0, 1670250.0 ], [ -544575.0, 1670225.0 ], [ -544600.0, 1670225.0 ], [ -544600.0, 1670125.0 ], [ -544625.0, 1670125.0 ], [ -544625.0, 1670050.0 ], [ -544650.0, 1670050.0 ], [ -544650.0, 1669975.0 ], [ -544675.0, 1669975.0 ], [ -544675.0, 1669950.0 ], [ -544700.0, 1669950.0 ], [ -544700.0, 1669900.0 ], [ -544725.0, 1669900.0 ], [ -544725.0, 1669875.0 ], [ -544750.0, 1669875.0 ], [ -544750.0, 1669850.0 ], [ -544775.0, 1669850.0 ], [ -544775.0, 1669825.0 ], [ -544800.0, 1669825.0 ], [ -544800.0, 1669800.0 ], [ -544825.0, 1669800.0 ], [ -544825.0, 1669775.0 ], [ -544850.0, 1669775.0 ], [ -544850.0, 1669750.0 ], [ -544875.0, 1669750.0 ], [ -544875.0, 1669725.0 ], [ -544900.0, 1669725.0 ], [ -544900.0, 1669700.0 ], [ -544950.0, 1669700.0 ], [ -544950.0, 1669675.0 ], [ -544975.0, 1669675.0 ], [ -544975.0, 1669650.0 ], [ -545075.0, 1669650.0 ], [ -545075.0, 1669400.0 ], [ -545100.0, 1669400.0 ], [ -545100.0, 1669375.0 ], [ -545125.0, 1669375.0 ], [ -545125.0, 1669350.0 ], [ -545150.0, 1669350.0 ], [ -545150.0, 1669325.0 ], [ -545175.0, 1669325.0 ], [ -545175.0, 1669300.0 ], [ -545200.0, 1669300.0 ], [ -545200.0, 1669275.0 ], [ -545225.0, 1669275.0 ], [ -545225.0, 1669250.0 ], [ -545250.0, 1669250.0 ], [ -545250.0, 1669225.0 ], [ -545275.0, 1669225.0 ], [ -545275.0, 1669200.0 ], [ -545300.0, 1669200.0 ], [ -545300.0, 1669175.0 ], [ -545325.0, 1669175.0 ], [ -545325.0, 1669150.0 ], [ -545350.0, 1669150.0 ], [ -545350.0, 1669125.0 ], [ -545375.0, 1669125.0 ], [ -545375.0, 1669100.0 ], [ -545400.0, 1669100.0 ], [ -545400.0, 1669075.0 ], [ -545425.0, 1669075.0 ], [ -545425.0, 1669050.0 ], [ -545450.0, 1669050.0 ], [ -545450.0, 1669025.0 ], [ -545475.0, 1669025.0 ], [ -545475.0, 1669000.0 ], [ -545500.0, 1669000.0 ], [ -545500.0, 1668975.0 ], [ -545525.0, 1668975.0 ], [ -545525.0, 1668950.0 ], [ -545550.0, 1668950.0 ], [ -545550.0, 1668925.0 ], [ -545575.0, 1668925.0 ], [ -545575.0, 1668900.0 ], [ -545600.0, 1668900.0 ], [ -545600.0, 1668875.0 ], [ -545625.0, 1668875.0 ], [ -545625.0, 1668850.0 ], [ -545650.0, 1668850.0 ], [ -545650.0, 1668825.0 ], [ -545675.0, 1668825.0 ], [ -545675.0, 1668800.0 ], [ -545700.0, 1668800.0 ], [ -545700.0, 1668775.0 ], [ -545725.0, 1668775.0 ], [ -545725.0, 1668750.0 ], [ -545750.0, 1668750.0 ], [ -545750.0, 1668725.0 ], [ -545775.0, 1668725.0 ], [ -545775.0, 1668700.0 ], [ -545800.0, 1668700.0 ], [ -545800.0, 1668675.0 ], [ -545825.0, 1668675.0 ], [ -545825.0, 1668575.0 ], [ -545850.0, 1668575.0 ], [ -545850.0, 1668500.0 ], [ -545875.0, 1668500.0 ], [ -545875.0, 1668475.0 ], [ -545900.0, 1668475.0 ], [ -545900.0, 1668450.0 ], [ -545925.0, 1668450.0 ], [ -545925.0, 1668425.0 ], [ -545950.0, 1668425.0 ], [ -545950.0, 1668375.0 ], [ -545975.0, 1668375.0 ], [ -545975.0, 1668350.0 ], [ -546000.0, 1668350.0 ], [ -546000.0, 1668375.0 ], [ -546025.0, 1668375.0 ], [ -546025.0, 1668400.0 ], [ -546150.0, 1668400.0 ], [ -546150.0, 1668375.0 ], [ -546175.0, 1668375.0 ], [ -546175.0, 1668350.0 ], [ -546225.0, 1668350.0 ], [ -546225.0, 1668325.0 ], [ -546275.0, 1668325.0 ], [ -546275.0, 1668300.0 ], [ -546350.0, 1668300.0 ], [ -546350.0, 1668250.0 ], [ -546400.0, 1668250.0 ], [ -546400.0, 1668225.0 ], [ -546425.0, 1668225.0 ], [ -546425.0, 1668250.0 ], [ -546450.0, 1668250.0 ], [ -546450.0, 1668300.0 ], [ -546525.0, 1668300.0 ], [ -546525.0, 1668325.0 ], [ -546550.0, 1668325.0 ], [ -546550.0, 1668350.0 ], [ -546575.0, 1668350.0 ], [ -546575.0, 1668325.0 ], [ -546600.0, 1668325.0 ], [ -546600.0, 1668350.0 ], [ -546650.0, 1668350.0 ], [ -546650.0, 1668375.0 ], [ -546775.0, 1668375.0 ], [ -546775.0, 1668350.0 ], [ -546800.0, 1668350.0 ], [ -546800.0, 1668375.0 ], [ -546825.0, 1668375.0 ], [ -546825.0, 1668450.0 ], [ -546925.0, 1668450.0 ], [ -546925.0, 1668475.0 ], [ -546950.0, 1668475.0 ], [ -546950.0, 1668500.0 ], [ -546975.0, 1668500.0 ], [ -546975.0, 1668525.0 ], [ -547000.0, 1668525.0 ], [ -547000.0, 1668550.0 ], [ -547025.0, 1668550.0 ], [ -547025.0, 1668625.0 ], [ -547075.0, 1668625.0 ], [ -547075.0, 1668675.0 ], [ -547150.0, 1668675.0 ], [ -547150.0, 1668700.0 ], [ -547200.0, 1668700.0 ], [ -547200.0, 1668725.0 ], [ -547250.0, 1668725.0 ], [ -547250.0, 1668700.0 ], [ -547400.0, 1668700.0 ], [ -547400.0, 1668725.0 ], [ -547500.0, 1668725.0 ], [ -547500.0, 1668775.0 ], [ -547475.0, 1668775.0 ], [ -547475.0, 1668800.0 ], [ -547450.0, 1668800.0 ], [ -547450.0, 1668925.0 ], [ -547475.0, 1668925.0 ], [ -547475.0, 1668950.0 ], [ -547525.0, 1668950.0 ], [ -547525.0, 1668925.0 ], [ -547550.0, 1668925.0 ], [ -547550.0, 1668950.0 ], [ -547600.0, 1668950.0 ], [ -547600.0, 1668925.0 ], [ -547650.0, 1668925.0 ], [ -547650.0, 1668875.0 ], [ -547625.0, 1668875.0 ], [ -547625.0, 1668775.0 ], [ -547650.0, 1668775.0 ], [ -547650.0, 1668725.0 ], [ -547675.0, 1668725.0 ], [ -547675.0, 1668650.0 ], [ -547700.0, 1668650.0 ], [ -547700.0, 1668600.0 ], [ -547750.0, 1668600.0 ], [ -547750.0, 1668550.0 ], [ -547775.0, 1668550.0 ], [ -547775.0, 1668525.0 ], [ -547750.0, 1668525.0 ], [ -547750.0, 1668500.0 ], [ -547725.0, 1668500.0 ], [ -547725.0, 1668475.0 ], [ -547675.0, 1668475.0 ], [ -547675.0, 1668325.0 ], [ -547725.0, 1668325.0 ], [ -547725.0, 1668275.0 ], [ -547750.0, 1668275.0 ], [ -547750.0, 1668250.0 ], [ -547775.0, 1668250.0 ], [ -547775.0, 1668225.0 ], [ -547800.0, 1668225.0 ], [ -547800.0, 1668200.0 ], [ -547850.0, 1668200.0 ], [ -547850.0, 1668175.0 ], [ -547875.0, 1668175.0 ], [ -547875.0, 1668050.0 ], [ -547950.0, 1668050.0 ], [ -547950.0, 1668025.0 ], [ -548000.0, 1668025.0 ], [ -548000.0, 1667900.0 ], [ -547975.0, 1667900.0 ], [ -547975.0, 1667850.0 ], [ -547950.0, 1667850.0 ], [ -547950.0, 1667825.0 ], [ -547925.0, 1667825.0 ], [ -547925.0, 1667800.0 ], [ -547900.0, 1667800.0 ], [ -547900.0, 1667675.0 ], [ -547875.0, 1667675.0 ], [ -547875.0, 1667625.0 ], [ -547850.0, 1667625.0 ], [ -547850.0, 1667575.0 ], [ -547825.0, 1667575.0 ], [ -547825.0, 1667475.0 ], [ -547850.0, 1667475.0 ], [ -547850.0, 1667450.0 ], [ -547825.0, 1667450.0 ], [ -547825.0, 1667400.0 ], [ -547850.0, 1667400.0 ], [ -547850.0, 1667350.0 ], [ -547950.0, 1667350.0 ], [ -547950.0, 1667325.0 ], [ -548000.0, 1667325.0 ], [ -548000.0, 1667300.0 ], [ -548025.0, 1667300.0 ], [ -548025.0, 1667275.0 ], [ -548050.0, 1667275.0 ], [ -548050.0, 1667250.0 ], [ -548075.0, 1667250.0 ], [ -548075.0, 1667225.0 ], [ -548100.0, 1667225.0 ], [ -548100.0, 1667200.0 ], [ -548125.0, 1667200.0 ], [ -548125.0, 1667225.0 ], [ -548150.0, 1667225.0 ], [ -548150.0, 1667200.0 ], [ -548175.0, 1667200.0 ], [ -548175.0, 1667250.0 ], [ -548200.0, 1667250.0 ], [ -548200.0, 1667275.0 ], [ -548225.0, 1667275.0 ], [ -548225.0, 1667250.0 ], [ -548250.0, 1667250.0 ], [ -548250.0, 1667225.0 ], [ -548275.0, 1667225.0 ], [ -548275.0, 1667200.0 ], [ -548325.0, 1667200.0 ], [ -548325.0, 1667175.0 ], [ -548375.0, 1667175.0 ], [ -548375.0, 1667200.0 ], [ -548400.0, 1667200.0 ], [ -548400.0, 1667225.0 ], [ -548450.0, 1667225.0 ], [ -548450.0, 1667250.0 ], [ -548475.0, 1667250.0 ], [ -548475.0, 1667275.0 ], [ -548550.0, 1667275.0 ], [ -548550.0, 1667250.0 ], [ -548600.0, 1667250.0 ], [ -548600.0, 1667225.0 ], [ -548625.0, 1667225.0 ], [ -548625.0, 1667200.0 ], [ -548675.0, 1667200.0 ], [ -548675.0, 1667150.0 ], [ -548700.0, 1667150.0 ], [ -548700.0, 1667125.0 ], [ -548775.0, 1667125.0 ], [ -548775.0, 1667050.0 ], [ -548800.0, 1667050.0 ], [ -548800.0, 1667025.0 ], [ -548950.0, 1667025.0 ], [ -548950.0, 1666975.0 ], [ -548975.0, 1666975.0 ], [ -548975.0, 1666950.0 ], [ -549000.0, 1666950.0 ], [ -549000.0, 1666925.0 ], [ -549025.0, 1666925.0 ], [ -549025.0, 1666875.0 ], [ -549075.0, 1666875.0 ], [ -549075.0, 1666900.0 ], [ -549100.0, 1666900.0 ], [ -549100.0, 1666925.0 ], [ -549125.0, 1666925.0 ], [ -549125.0, 1667000.0 ], [ -549200.0, 1667000.0 ], [ -549200.0, 1666975.0 ], [ -549225.0, 1666975.0 ], [ -549225.0, 1667000.0 ], [ -549250.0, 1667000.0 ], [ -549250.0, 1667025.0 ], [ -549275.0, 1667025.0 ], [ -549275.0, 1667050.0 ], [ -549350.0, 1667050.0 ], [ -549350.0, 1667025.0 ], [ -549475.0, 1667025.0 ], [ -549475.0, 1667050.0 ], [ -549500.0, 1667050.0 ], [ -549500.0, 1667075.0 ], [ -549475.0, 1667075.0 ], [ -549475.0, 1667100.0 ], [ -549500.0, 1667100.0 ], [ -549500.0, 1667125.0 ], [ -549525.0, 1667125.0 ], [ -549525.0, 1667150.0 ], [ -549625.0, 1667150.0 ], [ -549625.0, 1667175.0 ], [ -549675.0, 1667175.0 ], [ -549675.0, 1667225.0 ], [ -549700.0, 1667225.0 ], [ -549700.0, 1667275.0 ], [ -549725.0, 1667275.0 ], [ -549725.0, 1667325.0 ], [ -549950.0, 1667325.0 ], [ -549950.0, 1667350.0 ], [ -549975.0, 1667350.0 ], [ -549975.0, 1667325.0 ], [ -550000.0, 1667325.0 ], [ -550000.0, 1667300.0 ], [ -550175.0, 1667300.0 ], [ -550175.0, 1667275.0 ], [ -550250.0, 1667275.0 ], [ -550250.0, 1667225.0 ], [ -550225.0, 1667225.0 ], [ -550225.0, 1667100.0 ], [ -550200.0, 1667100.0 ], [ -550200.0, 1667025.0 ], [ -550225.0, 1667025.0 ], [ -550225.0, 1666975.0 ], [ -550275.0, 1666975.0 ], [ -550275.0, 1666925.0 ], [ -550300.0, 1666925.0 ], [ -550300.0, 1666900.0 ], [ -550350.0, 1666900.0 ], [ -550350.0, 1666825.0 ], [ -550325.0, 1666825.0 ], [ -550325.0, 1666800.0 ], [ -550300.0, 1666800.0 ], [ -550300.0, 1666775.0 ], [ -550275.0, 1666775.0 ], [ -550275.0, 1666750.0 ], [ -550300.0, 1666750.0 ], [ -550300.0, 1666525.0 ], [ -550325.0, 1666525.0 ], [ -550325.0, 1666500.0 ], [ -550350.0, 1666500.0 ], [ -550350.0, 1666350.0 ], [ -550375.0, 1666350.0 ], [ -550375.0, 1666325.0 ], [ -550400.0, 1666325.0 ], [ -550400.0, 1665900.0 ], [ -550350.0, 1665900.0 ], [ -550350.0, 1665875.0 ], [ -550325.0, 1665875.0 ], [ -550325.0, 1665825.0 ], [ -550300.0, 1665825.0 ], [ -550300.0, 1665800.0 ], [ -550275.0, 1665800.0 ], [ -550275.0, 1665775.0 ], [ -550300.0, 1665775.0 ], [ -550300.0, 1665750.0 ], [ -550325.0, 1665750.0 ], [ -550325.0, 1665700.0 ], [ -550350.0, 1665700.0 ], [ -550350.0, 1665675.0 ], [ -550375.0, 1665675.0 ], [ -550375.0, 1665650.0 ], [ -550400.0, 1665650.0 ], [ -550400.0, 1665075.0 ], [ -550350.0, 1665075.0 ], [ -550350.0, 1665050.0 ], [ -550325.0, 1665050.0 ], [ -550325.0, 1665025.0 ], [ -550225.0, 1665025.0 ], [ -550225.0, 1665000.0 ], [ -550175.0, 1665000.0 ], [ -550175.0, 1664975.0 ], [ -550075.0, 1664975.0 ], [ -550075.0, 1664950.0 ], [ -550050.0, 1664950.0 ], [ -550050.0, 1664925.0 ], [ -550000.0, 1664925.0 ], [ -550000.0, 1664875.0 ], [ -549950.0, 1664875.0 ], [ -549950.0, 1664850.0 ], [ -549925.0, 1664850.0 ], [ -549925.0, 1664825.0 ], [ -549875.0, 1664825.0 ], [ -549875.0, 1664800.0 ], [ -549825.0, 1664800.0 ], [ -549825.0, 1664775.0 ], [ -549800.0, 1664775.0 ], [ -549800.0, 1664750.0 ], [ -549750.0, 1664750.0 ], [ -549750.0, 1664725.0 ], [ -549725.0, 1664725.0 ], [ -549725.0, 1664700.0 ], [ -549700.0, 1664700.0 ], [ -549700.0, 1664675.0 ], [ -549650.0, 1664675.0 ], [ -549650.0, 1664650.0 ], [ -549600.0, 1664650.0 ], [ -549600.0, 1664600.0 ], [ -549575.0, 1664600.0 ], [ -549575.0, 1664550.0 ], [ -549550.0, 1664550.0 ], [ -549550.0, 1664525.0 ], [ -549500.0, 1664525.0 ], [ -549500.0, 1664500.0 ], [ -549475.0, 1664500.0 ], [ -549475.0, 1664475.0 ], [ -549400.0, 1664475.0 ], [ -549400.0, 1664450.0 ], [ -549375.0, 1664450.0 ], [ -549375.0, 1664425.0 ], [ -549175.0, 1664425.0 ], [ -549175.0, 1664400.0 ], [ -549025.0, 1664400.0 ], [ -549025.0, 1664350.0 ], [ -548950.0, 1664350.0 ], [ -548950.0, 1664325.0 ], [ -548875.0, 1664325.0 ], [ -548875.0, 1664275.0 ], [ -548850.0, 1664275.0 ], [ -548850.0, 1664300.0 ], [ -548800.0, 1664300.0 ], [ -548800.0, 1664275.0 ], [ -548775.0, 1664275.0 ], [ -548775.0, 1664250.0 ], [ -548700.0, 1664250.0 ], [ -548700.0, 1664225.0 ], [ -548650.0, 1664225.0 ], [ -548650.0, 1664200.0 ], [ -548600.0, 1664200.0 ], [ -548600.0, 1664175.0 ], [ -548575.0, 1664175.0 ], [ -548575.0, 1664150.0 ], [ -548550.0, 1664150.0 ], [ -548550.0, 1664125.0 ], [ -548525.0, 1664125.0 ], [ -548525.0, 1664100.0 ], [ -548500.0, 1664100.0 ], [ -548500.0, 1664050.0 ], [ -548450.0, 1664050.0 ], [ -548450.0, 1664100.0 ], [ -548400.0, 1664100.0 ], [ -548400.0, 1664075.0 ], [ -548375.0, 1664075.0 ], [ -548375.0, 1664025.0 ], [ -548350.0, 1664025.0 ], [ -548350.0, 1664000.0 ], [ -548325.0, 1664000.0 ], [ -548325.0, 1663975.0 ], [ -548225.0, 1663975.0 ], [ -548225.0, 1663950.0 ], [ -548200.0, 1663950.0 ], [ -548200.0, 1663975.0 ], [ -548175.0, 1663975.0 ], [ -548175.0, 1664025.0 ], [ -548150.0, 1664025.0 ], [ -548150.0, 1664050.0 ], [ -548050.0, 1664050.0 ], [ -548050.0, 1664075.0 ], [ -547975.0, 1664075.0 ], [ -547975.0, 1664050.0 ], [ -547950.0, 1664050.0 ], [ -547950.0, 1664000.0 ], [ -547875.0, 1664000.0 ], [ -547875.0, 1663975.0 ], [ -547775.0, 1663975.0 ], [ -547775.0, 1663950.0 ], [ -547750.0, 1663950.0 ], [ -547750.0, 1663825.0 ], [ -547775.0, 1663825.0 ], [ -547775.0, 1663800.0 ], [ -547675.0, 1663800.0 ], [ -547675.0, 1663775.0 ], [ -547650.0, 1663775.0 ], [ -547650.0, 1663750.0 ], [ -547625.0, 1663750.0 ], [ -547625.0, 1663725.0 ], [ -547600.0, 1663725.0 ], [ -547600.0, 1663700.0 ], [ -547550.0, 1663700.0 ], [ -547550.0, 1663675.0 ], [ -547475.0, 1663675.0 ], [ -547475.0, 1663650.0 ], [ -547450.0, 1663650.0 ], [ -547450.0, 1663625.0 ], [ -547375.0, 1663625.0 ], [ -547375.0, 1663650.0 ], [ -547350.0, 1663650.0 ], [ -547350.0, 1663625.0 ], [ -547300.0, 1663625.0 ], [ -547300.0, 1663600.0 ], [ -547250.0, 1663600.0 ], [ -547250.0, 1663550.0 ], [ -547275.0, 1663550.0 ], [ -547275.0, 1663475.0 ], [ -547250.0, 1663475.0 ], [ -547250.0, 1663425.0 ], [ -547275.0, 1663425.0 ], [ -547275.0, 1663350.0 ], [ -547250.0, 1663350.0 ], [ -547250.0, 1663325.0 ], [ -547275.0, 1663325.0 ], [ -547275.0, 1663250.0 ], [ -547250.0, 1663250.0 ], [ -547250.0, 1663200.0 ], [ -547225.0, 1663200.0 ], [ -547225.0, 1663175.0 ], [ -547150.0, 1663175.0 ], [ -547150.0, 1663150.0 ], [ -547100.0, 1663150.0 ], [ -547100.0, 1663100.0 ], [ -547075.0, 1663100.0 ], [ -547075.0, 1663075.0 ], [ -547050.0, 1663075.0 ], [ -547050.0, 1662975.0 ], [ -547000.0, 1662975.0 ], [ -547000.0, 1663000.0 ], [ -546550.0, 1663000.0 ], [ -546550.0, 1662975.0 ], [ -546475.0, 1662975.0 ], [ -546475.0, 1663075.0 ], [ -546500.0, 1663075.0 ], [ -546500.0, 1663100.0 ], [ -546525.0, 1663100.0 ], [ -546525.0, 1663200.0 ], [ -546475.0, 1663200.0 ], [ -546475.0, 1663225.0 ], [ -546450.0, 1663225.0 ], [ -546450.0, 1663250.0 ], [ -546375.0, 1663250.0 ], [ -546375.0, 1663225.0 ], [ -546350.0, 1663225.0 ], [ -546350.0, 1663250.0 ], [ -546300.0, 1663250.0 ], [ -546300.0, 1663275.0 ], [ -546275.0, 1663275.0 ], [ -546275.0, 1663250.0 ], [ -546250.0, 1663250.0 ], [ -546250.0, 1663225.0 ], [ -546150.0, 1663225.0 ], [ -546150.0, 1663250.0 ], [ -546125.0, 1663250.0 ], [ -546125.0, 1663300.0 ], [ -546100.0, 1663300.0 ], [ -546100.0, 1663325.0 ], [ -546075.0, 1663325.0 ], [ -546075.0, 1663350.0 ], [ -546050.0, 1663350.0 ], [ -546050.0, 1663425.0 ], [ -546025.0, 1663425.0 ], [ -546025.0, 1663475.0 ], [ -546000.0, 1663475.0 ], [ -546000.0, 1663550.0 ], [ -545975.0, 1663550.0 ], [ -545975.0, 1663625.0 ], [ -545950.0, 1663625.0 ], [ -545950.0, 1663650.0 ], [ -545925.0, 1663650.0 ], [ -545925.0, 1663675.0 ], [ -545900.0, 1663675.0 ], [ -545900.0, 1663700.0 ], [ -545875.0, 1663700.0 ], [ -545875.0, 1663725.0 ], [ -545850.0, 1663725.0 ], [ -545850.0, 1663700.0 ], [ -545800.0, 1663700.0 ], [ -545800.0, 1663725.0 ], [ -545775.0, 1663725.0 ], [ -545775.0, 1663750.0 ], [ -545650.0, 1663750.0 ], [ -545650.0, 1663775.0 ], [ -545625.0, 1663775.0 ], [ -545625.0, 1663800.0 ], [ -545600.0, 1663800.0 ], [ -545600.0, 1663775.0 ], [ -545575.0, 1663775.0 ], [ -545575.0, 1663800.0 ], [ -545550.0, 1663800.0 ], [ -545550.0, 1663775.0 ], [ -545525.0, 1663775.0 ], [ -545525.0, 1663750.0 ], [ -545475.0, 1663750.0 ], [ -545475.0, 1663800.0 ], [ -545450.0, 1663800.0 ], [ -545450.0, 1663850.0 ], [ -545400.0, 1663850.0 ], [ -545400.0, 1663875.0 ], [ -545375.0, 1663875.0 ], [ -545375.0, 1663900.0 ], [ -545350.0, 1663900.0 ], [ -545350.0, 1663925.0 ], [ -545325.0, 1663925.0 ], [ -545325.0, 1663975.0 ], [ -545275.0, 1663975.0 ], [ -545275.0, 1664000.0 ], [ -545250.0, 1664000.0 ], [ -545250.0, 1663975.0 ], [ -545200.0, 1663975.0 ], [ -545200.0, 1663950.0 ], [ -545175.0, 1663950.0 ], [ -545175.0, 1663925.0 ], [ -545150.0, 1663925.0 ], [ -545150.0, 1663900.0 ], [ -545125.0, 1663900.0 ], [ -545125.0, 1663875.0 ], [ -545100.0, 1663875.0 ], [ -545100.0, 1663900.0 ], [ -545075.0, 1663900.0 ], [ -545075.0, 1663875.0 ], [ -545050.0, 1663875.0 ], [ -545050.0, 1663850.0 ], [ -545000.0, 1663850.0 ], [ -545000.0, 1663875.0 ], [ -544975.0, 1663875.0 ], [ -544975.0, 1663850.0 ], [ -544925.0, 1663850.0 ], [ -544925.0, 1663775.0 ], [ -544850.0, 1663775.0 ], [ -544850.0, 1663800.0 ], [ -544800.0, 1663800.0 ], [ -544800.0, 1663825.0 ], [ -544775.0, 1663825.0 ], [ -544775.0, 1663800.0 ], [ -544700.0, 1663800.0 ], [ -544700.0, 1663825.0 ], [ -544625.0, 1663825.0 ], [ -544625.0, 1663850.0 ], [ -544550.0, 1663850.0 ], [ -544550.0, 1663875.0 ], [ -544525.0, 1663875.0 ], [ -544525.0, 1664000.0 ], [ -544500.0, 1664000.0 ], [ -544500.0, 1664025.0 ], [ -544475.0, 1664025.0 ], [ -544475.0, 1664050.0 ], [ -544450.0, 1664050.0 ], [ -544450.0, 1664100.0 ], [ -544425.0, 1664100.0 ], [ -544425.0, 1664125.0 ], [ -544400.0, 1664125.0 ], [ -544400.0, 1664100.0 ], [ -544350.0, 1664100.0 ], [ -544350.0, 1664075.0 ], [ -544250.0, 1664075.0 ], [ -544250.0, 1664100.0 ], [ -544225.0, 1664100.0 ], [ -544225.0, 1664125.0 ], [ -544250.0, 1664125.0 ], [ -544250.0, 1664200.0 ], [ -544225.0, 1664200.0 ], [ -544225.0, 1664250.0 ], [ -544200.0, 1664250.0 ], [ -544200.0, 1664275.0 ], [ -544175.0, 1664275.0 ], [ -544175.0, 1664250.0 ], [ -544150.0, 1664250.0 ], [ -544150.0, 1664225.0 ], [ -544125.0, 1664225.0 ], [ -544125.0, 1664200.0 ], [ -544100.0, 1664200.0 ], [ -544100.0, 1664175.0 ], [ -544075.0, 1664175.0 ], [ -544075.0, 1664200.0 ], [ -544050.0, 1664200.0 ], [ -544050.0, 1664225.0 ], [ -544025.0, 1664225.0 ], [ -544025.0, 1664250.0 ], [ -544000.0, 1664250.0 ], [ -544000.0, 1664275.0 ], [ -543950.0, 1664275.0 ], [ -543950.0, 1664300.0 ], [ -543925.0, 1664300.0 ], [ -543925.0, 1664350.0 ], [ -543900.0, 1664350.0 ], [ -543900.0, 1664425.0 ], [ -543875.0, 1664425.0 ], [ -543875.0, 1664475.0 ], [ -543850.0, 1664475.0 ], [ -543850.0, 1664500.0 ], [ -543825.0, 1664500.0 ], [ -543825.0, 1664550.0 ], [ -543800.0, 1664550.0 ], [ -543800.0, 1664700.0 ], [ -543775.0, 1664700.0 ], [ -543775.0, 1664750.0 ], [ -543750.0, 1664750.0 ], [ -543750.0, 1664900.0 ], [ -543725.0, 1664900.0 ], [ -543725.0, 1664925.0 ], [ -543775.0, 1664925.0 ], [ -543775.0, 1664975.0 ], [ -543750.0, 1664975.0 ], [ -543750.0, 1665075.0 ], [ -543725.0, 1665075.0 ], [ -543725.0, 1665150.0 ], [ -543700.0, 1665150.0 ], [ -543700.0, 1665175.0 ], [ -543675.0, 1665175.0 ], [ -543675.0, 1665250.0 ], [ -543650.0, 1665250.0 ], [ -543650.0, 1665275.0 ], [ -543625.0, 1665275.0 ], [ -543625.0, 1665325.0 ], [ -543525.0, 1665325.0 ], [ -543525.0, 1665350.0 ], [ -543500.0, 1665350.0 ], [ -543500.0, 1665375.0 ], [ -543475.0, 1665375.0 ], [ -543475.0, 1665400.0 ], [ -543450.0, 1665400.0 ], [ -543450.0, 1665425.0 ], [ -543425.0, 1665425.0 ], [ -543425.0, 1665450.0 ], [ -543400.0, 1665450.0 ], [ -543400.0, 1665475.0 ], [ -543375.0, 1665475.0 ], [ -543375.0, 1665500.0 ], [ -543350.0, 1665500.0 ], [ -543350.0, 1665525.0 ], [ -543325.0, 1665525.0 ], [ -543325.0, 1665600.0 ], [ -543300.0, 1665600.0 ], [ -543300.0, 1665625.0 ], [ -543275.0, 1665625.0 ], [ -543275.0, 1665725.0 ], [ -543200.0, 1665725.0 ], [ -543200.0, 1665900.0 ], [ -543225.0, 1665900.0 ], [ -543225.0, 1665950.0 ], [ -543200.0, 1665950.0 ], [ -543200.0, 1666000.0 ], [ -543175.0, 1666000.0 ], [ -543175.0, 1666050.0 ], [ -543200.0, 1666050.0 ], [ -543200.0, 1666075.0 ], [ -543125.0, 1666075.0 ], [ -543125.0, 1666100.0 ], [ -543100.0, 1666100.0 ], [ -543100.0, 1666125.0 ], [ -543075.0, 1666125.0 ], [ -543075.0, 1666150.0 ], [ -543050.0, 1666150.0 ], [ -543050.0, 1666175.0 ], [ -542975.0, 1666175.0 ], [ -542975.0, 1666200.0 ], [ -542875.0, 1666200.0 ], [ -542875.0, 1666175.0 ], [ -542800.0, 1666175.0 ], [ -542800.0, 1666200.0 ], [ -542750.0, 1666200.0 ], [ -542750.0, 1666225.0 ], [ -542725.0, 1666225.0 ], [ -542725.0, 1666275.0 ], [ -542700.0, 1666275.0 ], [ -542700.0, 1666300.0 ], [ -542675.0, 1666300.0 ], [ -542675.0, 1666325.0 ], [ -542650.0, 1666325.0 ], [ -542650.0, 1666375.0 ], [ -542625.0, 1666375.0 ], [ -542625.0, 1666400.0 ], [ -542575.0, 1666400.0 ], [ -542575.0, 1666425.0 ], [ -542550.0, 1666425.0 ], [ -542550.0, 1666475.0 ], [ -542500.0, 1666475.0 ], [ -542500.0, 1666500.0 ], [ -542450.0, 1666500.0 ], [ -542450.0, 1666525.0 ], [ -542425.0, 1666525.0 ], [ -542425.0, 1666550.0 ], [ -542400.0, 1666550.0 ], [ -542400.0, 1666575.0 ], [ -542375.0, 1666575.0 ], [ -542375.0, 1666600.0 ], [ -542350.0, 1666600.0 ], [ -542350.0, 1666625.0 ], [ -542325.0, 1666625.0 ], [ -542325.0, 1666650.0 ], [ -542300.0, 1666650.0 ], [ -542300.0, 1666675.0 ], [ -542275.0, 1666675.0 ], [ -542275.0, 1666700.0 ], [ -542250.0, 1666700.0 ], [ -542250.0, 1666725.0 ], [ -542225.0, 1666725.0 ], [ -542225.0, 1666750.0 ], [ -542200.0, 1666750.0 ], [ -542200.0, 1666775.0 ], [ -542175.0, 1666775.0 ], [ -542175.0, 1666800.0 ], [ -542150.0, 1666800.0 ], [ -542150.0, 1666825.0 ], [ -542125.0, 1666825.0 ], [ -542125.0, 1666850.0 ], [ -542100.0, 1666850.0 ], [ -542100.0, 1666875.0 ], [ -542075.0, 1666875.0 ], [ -542075.0, 1666900.0 ], [ -542050.0, 1666900.0 ], [ -542050.0, 1666925.0 ], [ -542025.0, 1666925.0 ], [ -542025.0, 1666950.0 ], [ -542000.0, 1666950.0 ], [ -542000.0, 1666975.0 ], [ -541975.0, 1666975.0 ], [ -541975.0, 1667025.0 ], [ -541950.0, 1667025.0 ], [ -541950.0, 1667100.0 ], [ -541975.0, 1667100.0 ], [ -541975.0, 1667150.0 ], [ -541950.0, 1667150.0 ], [ -541950.0, 1667175.0 ], [ -541925.0, 1667175.0 ], [ -541925.0, 1667200.0 ], [ -541950.0, 1667200.0 ], [ -541950.0, 1667275.0 ], [ -541925.0, 1667275.0 ], [ -541925.0, 1667300.0 ], [ -541900.0, 1667300.0 ], [ -541900.0, 1667325.0 ], [ -541875.0, 1667325.0 ], [ -541875.0, 1667350.0 ], [ -541850.0, 1667350.0 ], [ -541850.0, 1667400.0 ], [ -541825.0, 1667400.0 ], [ -541825.0, 1667475.0 ], [ -541800.0, 1667475.0 ], [ -541800.0, 1667625.0 ], [ -541775.0, 1667625.0 ], [ -541775.0, 1667650.0 ], [ -541750.0, 1667650.0 ], [ -541750.0, 1667675.0 ], [ -541725.0, 1667675.0 ], [ -541725.0, 1667700.0 ], [ -541700.0, 1667700.0 ], [ -541700.0, 1667725.0 ], [ -541675.0, 1667725.0 ], [ -541675.0, 1667750.0 ], [ -541650.0, 1667750.0 ], [ -541650.0, 1667775.0 ], [ -541625.0, 1667775.0 ], [ -541625.0, 1667800.0 ], [ -541600.0, 1667800.0 ], [ -541600.0, 1667825.0 ], [ -541575.0, 1667825.0 ], [ -541575.0, 1667850.0 ], [ -541550.0, 1667850.0 ], [ -541550.0, 1667875.0 ], [ -541525.0, 1667875.0 ], [ -541525.0, 1667900.0 ], [ -541500.0, 1667900.0 ], [ -541500.0, 1667925.0 ], [ -541525.0, 1667925.0 ], [ -541525.0, 1667950.0 ], [ -541550.0, 1667950.0 ], [ -541550.0, 1667975.0 ], [ -541575.0, 1667975.0 ], [ -541575.0, 1668075.0 ], [ -541600.0, 1668075.0 ], [ -541600.0, 1668100.0 ], [ -541650.0, 1668100.0 ], [ -541650.0, 1668125.0 ], [ -541750.0, 1668125.0 ], [ -541750.0, 1668150.0 ], [ -541800.0, 1668150.0 ], [ -541800.0, 1668175.0 ], [ -541825.0, 1668175.0 ], [ -541825.0, 1668200.0 ], [ -541875.0, 1668200.0 ], [ -541875.0, 1668225.0 ], [ -541925.0, 1668225.0 ], [ -541925.0, 1668250.0 ], [ -541950.0, 1668250.0 ], [ -541950.0, 1668275.0 ], [ -541975.0, 1668275.0 ], [ -541975.0, 1668300.0 ], [ -542000.0, 1668300.0 ], [ -542000.0, 1668325.0 ], [ -542025.0, 1668325.0 ], [ -542025.0, 1668350.0 ], [ -542050.0, 1668350.0 ], [ -542050.0, 1668375.0 ], [ -542075.0, 1668375.0 ], [ -542075.0, 1668400.0 ], [ -542100.0, 1668400.0 ], [ -542100.0, 1668425.0 ], [ -542125.0, 1668425.0 ], [ -542125.0, 1668450.0 ], [ -542150.0, 1668450.0 ], [ -542150.0, 1668475.0 ], [ -542175.0, 1668475.0 ], [ -542175.0, 1668500.0 ], [ -542200.0, 1668500.0 ], [ -542200.0, 1668525.0 ], [ -542225.0, 1668525.0 ], [ -542225.0, 1668600.0 ], [ -542200.0, 1668600.0 ], [ -542200.0, 1668650.0 ], [ -542175.0, 1668650.0 ], [ -542175.0, 1668700.0 ], [ -542150.0, 1668700.0 ], [ -542150.0, 1668725.0 ], [ -542125.0, 1668725.0 ], [ -542125.0, 1668850.0 ], [ -542100.0, 1668850.0 ], [ -542100.0, 1668975.0 ], [ -542125.0, 1668975.0 ], [ -542125.0, 1669000.0 ], [ -542150.0, 1669000.0 ], [ -542150.0, 1669025.0 ], [ -542175.0, 1669025.0 ], [ -542175.0, 1669075.0 ], [ -542150.0, 1669075.0 ], [ -542150.0, 1669100.0 ], [ -542125.0, 1669100.0 ], [ -542125.0, 1669125.0 ], [ -542100.0, 1669125.0 ], [ -542100.0, 1669150.0 ], [ -542075.0, 1669150.0 ], [ -542075.0, 1669125.0 ], [ -542050.0, 1669125.0 ], [ -542050.0, 1669150.0 ], [ -542000.0, 1669150.0 ], [ -542000.0, 1669175.0 ], [ -541975.0, 1669175.0 ], [ -541975.0, 1669200.0 ], [ -541950.0, 1669200.0 ], [ -541950.0, 1669225.0 ], [ -541925.0, 1669225.0 ], [ -541925.0, 1669325.0 ], [ -541900.0, 1669325.0 ], [ -541900.0, 1669400.0 ], [ -541875.0, 1669400.0 ], [ -541875.0, 1669525.0 ], [ -541900.0, 1669525.0 ], [ -541900.0, 1669575.0 ], [ -541875.0, 1669575.0 ], [ -541875.0, 1669600.0 ], [ -541900.0, 1669600.0 ], [ -541900.0, 1669650.0 ], [ -541875.0, 1669650.0 ], [ -541875.0, 1669700.0 ], [ -541850.0, 1669700.0 ], [ -541850.0, 1669725.0 ], [ -541825.0, 1669725.0 ], [ -541825.0, 1669775.0 ], [ -541800.0, 1669775.0 ], [ -541800.0, 1669825.0 ], [ -541775.0, 1669825.0 ], [ -541775.0, 1669850.0 ], [ -541750.0, 1669850.0 ], [ -541750.0, 1669875.0 ], [ -541725.0, 1669875.0 ], [ -541725.0, 1669900.0 ], [ -541700.0, 1669900.0 ], [ -541700.0, 1669950.0 ], [ -541675.0, 1669950.0 ], [ -541675.0, 1669975.0 ], [ -541650.0, 1669975.0 ], [ -541650.0, 1670000.0 ], [ -541625.0, 1670000.0 ], [ -541625.0, 1670050.0 ], [ -541600.0, 1670050.0 ], [ -541600.0, 1670075.0 ], [ -541575.0, 1670075.0 ], [ -541575.0, 1670100.0 ], [ -541550.0, 1670100.0 ], [ -541550.0, 1670150.0 ], [ -541525.0, 1670150.0 ], [ -541525.0, 1670175.0 ], [ -541500.0, 1670175.0 ], [ -541500.0, 1670200.0 ], [ -541475.0, 1670200.0 ], [ -541475.0, 1670225.0 ], [ -541450.0, 1670225.0 ], [ -541450.0, 1670250.0 ], [ -541425.0, 1670250.0 ], [ -541425.0, 1670275.0 ], [ -541400.0, 1670275.0 ], [ -541400.0, 1670350.0 ], [ -541375.0, 1670350.0 ], [ -541375.0, 1670375.0 ], [ -541350.0, 1670375.0 ], [ -541350.0, 1670450.0 ], [ -541325.0, 1670450.0 ], [ -541325.0, 1670575.0 ], [ -541350.0, 1670575.0 ], [ -541350.0, 1670625.0 ], [ -541325.0, 1670625.0 ], [ -541325.0, 1670650.0 ], [ -541300.0, 1670650.0 ], [ -541300.0, 1670675.0 ], [ -541325.0, 1670675.0 ], [ -541325.0, 1670775.0 ], [ -541350.0, 1670775.0 ], [ -541350.0, 1670800.0 ], [ -541375.0, 1670800.0 ], [ -541375.0, 1670825.0 ], [ -541400.0, 1670825.0 ], [ -541400.0, 1670850.0 ], [ -541425.0, 1670850.0 ], [ -541425.0, 1670875.0 ], [ -541450.0, 1670875.0 ], [ -541450.0, 1670900.0 ], [ -541475.0, 1670900.0 ], [ -541475.0, 1671025.0 ], [ -541500.0, 1671025.0 ], [ -541500.0, 1671050.0 ], [ -541425.0, 1671050.0 ], [ -541425.0, 1671075.0 ], [ -541275.0, 1671075.0 ], [ -541275.0, 1671100.0 ], [ -541175.0, 1671100.0 ], [ -541175.0, 1671125.0 ], [ -541125.0, 1671125.0 ], [ -541125.0, 1671150.0 ], [ -541100.0, 1671150.0 ], [ -541100.0, 1671175.0 ], [ -541075.0, 1671175.0 ], [ -541075.0, 1671150.0 ], [ -541050.0, 1671150.0 ], [ -541050.0, 1671175.0 ], [ -541025.0, 1671175.0 ], [ -541025.0, 1671200.0 ], [ -541000.0, 1671200.0 ], [ -541000.0, 1671175.0 ], [ -540950.0, 1671175.0 ], [ -540950.0, 1671200.0 ], [ -540925.0, 1671200.0 ], [ -540925.0, 1671225.0 ], [ -540875.0, 1671225.0 ], [ -540875.0, 1671250.0 ], [ -540750.0, 1671250.0 ], [ -540750.0, 1671275.0 ], [ -540725.0, 1671275.0 ], [ -540725.0, 1671300.0 ], [ -540700.0, 1671300.0 ], [ -540700.0, 1671325.0 ], [ -540675.0, 1671325.0 ], [ -540675.0, 1671350.0 ], [ -540650.0, 1671350.0 ], [ -540650.0, 1671375.0 ], [ -540625.0, 1671375.0 ], [ -540625.0, 1671400.0 ], [ -540600.0, 1671400.0 ], [ -540600.0, 1671425.0 ], [ -540575.0, 1671425.0 ], [ -540575.0, 1671450.0 ], [ -540550.0, 1671450.0 ], [ -540550.0, 1671475.0 ], [ -540525.0, 1671475.0 ], [ -540525.0, 1671500.0 ], [ -540500.0, 1671500.0 ], [ -540500.0, 1671525.0 ], [ -540475.0, 1671525.0 ], [ -540475.0, 1671550.0 ], [ -540450.0, 1671550.0 ], [ -540450.0, 1671575.0 ], [ -540425.0, 1671575.0 ], [ -540425.0, 1671600.0 ], [ -540400.0, 1671600.0 ], [ -540400.0, 1671625.0 ], [ -540375.0, 1671625.0 ], [ -540375.0, 1671650.0 ], [ -540350.0, 1671650.0 ], [ -540350.0, 1671675.0 ], [ -540325.0, 1671675.0 ], [ -540325.0, 1671700.0 ], [ -540300.0, 1671700.0 ], [ -540300.0, 1671725.0 ], [ -540275.0, 1671725.0 ], [ -540275.0, 1671750.0 ], [ -540250.0, 1671750.0 ], [ -540250.0, 1671775.0 ], [ -540225.0, 1671775.0 ], [ -540225.0, 1671800.0 ], [ -540200.0, 1671800.0 ], [ -540200.0, 1671825.0 ], [ -540175.0, 1671825.0 ], [ -540175.0, 1671850.0 ], [ -540150.0, 1671850.0 ], [ -540150.0, 1671875.0 ], [ -540125.0, 1671875.0 ], [ -540125.0, 1671900.0 ], [ -540100.0, 1671900.0 ], [ -540100.0, 1671925.0 ], [ -540075.0, 1671925.0 ], [ -540075.0, 1671950.0 ], [ -540050.0, 1671950.0 ], [ -540050.0, 1671975.0 ], [ -540025.0, 1671975.0 ], [ -540025.0, 1672000.0 ], [ -540000.0, 1672000.0 ], [ -540000.0, 1672025.0 ], [ -539975.0, 1672025.0 ], [ -539975.0, 1672050.0 ], [ -539950.0, 1672050.0 ], [ -539950.0, 1672075.0 ], [ -539925.0, 1672075.0 ], [ -539925.0, 1672125.0 ], [ -539950.0, 1672125.0 ], [ -539950.0, 1672150.0 ], [ -539975.0, 1672150.0 ], [ -539975.0, 1672175.0 ], [ -540000.0, 1672175.0 ], [ -540000.0, 1672200.0 ], [ -540025.0, 1672200.0 ], [ -540025.0, 1672225.0 ], [ -540050.0, 1672225.0 ], [ -540050.0, 1672250.0 ], [ -540075.0, 1672250.0 ], [ -540075.0, 1672275.0 ], [ -540100.0, 1672275.0 ], [ -540100.0, 1672300.0 ], [ -540125.0, 1672300.0 ], [ -540125.0, 1672325.0 ], [ -540150.0, 1672325.0 ], [ -540150.0, 1672350.0 ], [ -540175.0, 1672350.0 ], [ -540175.0, 1672375.0 ], [ -540200.0, 1672375.0 ], [ -540200.0, 1672400.0 ], [ -540225.0, 1672400.0 ], [ -540225.0, 1672425.0 ], [ -540250.0, 1672425.0 ], [ -540250.0, 1672450.0 ], [ -540325.0, 1672450.0 ], [ -540325.0, 1672475.0 ], [ -540400.0, 1672475.0 ], [ -540400.0, 1672500.0 ], [ -540550.0, 1672500.0 ], [ -540550.0, 1672525.0 ], [ -540575.0, 1672525.0 ], [ -540575.0, 1672550.0 ], [ -540625.0, 1672550.0 ], [ -540625.0, 1672575.0 ], [ -540700.0, 1672575.0 ], [ -540700.0, 1672550.0 ], [ -540725.0, 1672550.0 ], [ -540725.0, 1672575.0 ], [ -540750.0, 1672575.0 ], [ -540750.0, 1672600.0 ], [ -540800.0, 1672600.0 ], [ -540800.0, 1672625.0 ], [ -540825.0, 1672625.0 ], [ -540825.0, 1672650.0 ], [ -540850.0, 1672650.0 ], [ -540850.0, 1672675.0 ], [ -540875.0, 1672675.0 ], [ -540875.0, 1672700.0 ], [ -540925.0, 1672700.0 ], [ -540925.0, 1672675.0 ], [ -540950.0, 1672675.0 ], [ -540950.0, 1672700.0 ], [ -540975.0, 1672700.0 ], [ -540975.0, 1672675.0 ], [ -541000.0, 1672675.0 ], [ -541000.0, 1672700.0 ], [ -541050.0, 1672700.0 ], [ -541050.0, 1672725.0 ], [ -541125.0, 1672725.0 ] ] ] } }
]
}
