{
"type": "FeatureCollection",
"name": "schist_carbonate_contact_nome_3338",
"crs": { "type": "name", "properties": { "name": "urn:ogc:def:crs:EPSG::3338" } },
"features": [
{ "type": "Feature", "properties": { "kind": "schist_carbonate_contact" }, "geometry": { "type": "MultiLineString", "coordinates": [ [ [ -579375.008229525992647, 1699633.837034303927794 ], [ -579370.900415944284759, 1699812.815367290750146 ], [ -579388.587386272381991, 1699958.133364297449589 ], [ -579474.151814317796379, 1700148.233888768590987 ], [ -579616.740502291242592, 1700398.062585868407041 ], [ -579829.965156901394948, 1700827.130737451836467 ], [ -579801.514243112993427, 1700998.278249838622287 ], [ -579756.759321938385256, 1701116.464931702939793 ], [ -579699.780688035534695, 1701207.494972580345348 ], [ -579648.236757374252193, 1701316.178064465057105 ], [ -579623.834840180585161, 1701412.622186209773645 ], [ -579604.867751853889786, 1701526.719332485459745 ], [ -579636.105474414071068, 1701590.536197483306751 ], [ -579699.936061933287419, 1701710.019162739394233 ], [ -579748.832856643479317, 1701818.645058362279087 ], [ -579786.860703173093498, 1701891.96442920085974 ], [ -579758.395034957677126, 1702012.857082232600078 ], [ -579679.708657910465263, 1702133.777507938910276 ], [ -579613.231511257356033, 1702231.602148583624512 ], [ -579596.974542981479317, 1702329.398580594919622 ], [ -579597.005948671605438, 1702429.901994460728019 ], [ -579628.260708744288422, 1702543.969187422189862 ], [ -579700.253703518537804, 1702715.056061301147565 ], [ -579795.326152751920745, 1702898.353676759405062 ] ], [ [ -564893.700460427324288, 1676035.145160153973848 ], [ -564810.267104209749959, 1675933.285746301524341 ], [ -564728.198574488516897, 1675747.871485831681639 ], [ -564698.361813140450977, 1675600.473422445124015 ], [ -564711.949877562467009, 1675343.003667322453111 ], [ -564755.396815236774273, 1674956.446043381933123 ], [ -564760.167036722879857, 1674701.695329688489437 ], [ -564754.076219035196118, 1674537.300180080579594 ], [ -564724.913768715457991, 1674461.229033285984769 ], [ -564655.321422343491577, 1674401.890157356625423 ] ], [ [ -558684.421828558319248, 1672708.692760011414066 ], [ -557243.78275857004337, 1674130.067550032865256 ], [ -556324.098814279539511, 1675094.364239434944466 ] ], [ [ -555909.329435323830694, 1675529.235657613258809 ], [ -555724.877772041945718, 1675722.623293568147346 ], [ -554900.907540627755225, 1676832.147441052133217 ], [ -554357.374261403689161, 1677389.568227767711505 ], [ -553821.798318857327104, 1677948.301904143067077 ], [ -553310.100208548363298, 1678510.992898572934791 ], [ -552999.103931718622334, 1678803.64572207047604 ], [ -552453.940944360569119, 1679344.118828146252781 ], [ -552253.756299316650257, 1679655.674228409538046 ], [ -551379.39249834313523, 1681185.457100786268711 ], [ -550374.765048851142637, 1682592.944095524027944 ], [ -550002.930725843412802, 1683398.969725746894255 ], [ -550080.732511873822659, 1683578.666330764768645 ], [ -550075.25828067259863, 1683762.060646536760032 ], [ -550019.531898533925414, 1684096.247090860968456 ], [ -550005.877984633669257, 1684429.07080638082698 ], [ -549994.955167920328677, 1684695.328749113949016 ], [ -550039.660014777211472, 1685029.50379054620862 ], [ -550042.329886961495504, 1685214.251946068834513 ], [ -550070.810757750179619, 1685294.397814528318122 ], [ -550110.153049715911038, 1685359.600110263563693 ], [ -550195.633021398913115, 1685449.251092674676329 ], [ -550336.7525915451115, 1685556.556784107349813 ], [ -550385.597169417771511, 1685614.965625503798947 ], [ -550393.715974995517172, 1685716.847596762469038 ], [ -550377.383520390489139, 1685915.179257925134152 ], [ -550366.476011166349053, 1686131.16936595318839 ], [ -550399.012111286632717, 1686287.384964854922146 ], [ -550432.907539037405513, 1686435.449429223081097 ], [ -550470.880280262324959, 1686559.062026020139456 ], [ -550459.985182308941148, 1686724.788403452606872 ], [ -550497.958511298871599, 1686848.401092321611941 ], [ -550561.707872123108245, 1687018.19644912914373 ], [ -550609.172142047085799, 1687185.275172299006954 ], [ -550619.99926786031574, 1687321.114827485056594 ], [ -550603.669152914313599, 1687519.441646693274379 ], [ -550580.544452834641561, 1687758.519446977879852 ], [ -550599.493727357592434, 1687996.235067650442943 ], [ -550641.512688749586232, 1688246.173280211864039 ], [ -550682.194833155837841, 1688403.741099873557687 ], [ -550771.73529341595713, 1688569.455171826761216 ], [ -550838.18526261986699, 1688823.463298130314797 ], [ -550912.778689588769339, 1689078.828519799513742 ], [ -550938.51475608558394, 1689326.046594618819654 ], [ -550922.187973700347356, 1689524.367382821626961 ], [ -550905.861030275467783, 1689722.68784048827365 ], [ -550881.507428331999108, 1689868.755545102758333 ] ], [ [ -535780.814212846569717, 1666413.207293637096882 ], [ -535875.453537610126659, 1666411.819201878504828 ], [ -536078.979003932443447, 1666395.526506769936532 ], [ -536192.965493110823445, 1666364.281994036631659 ], [ -536353.096836952376179, 1666307.223802305757999 ], [ -536486.056220735074021, 1666312.665458390023559 ], [ -536662.438100147410296, 1666308.598083179909736 ], [ -536750.643359092064202, 1666281.427446361631155 ], [ -536894.494684751145542, 1666221.648370793787763 ], [ -537218.895874144975096, 1665982.519356741337106 ], [ -537474.036338770063594, 1665857.520866760285571 ], [ -537672.112853987375274, 1665873.829961258219555 ], [ -537826.768003798788413, 1665899.648787083802745 ], [ -538049.235806100070477, 1665970.306656702188775 ], [ -538245.896147344377823, 1666095.313385256798938 ], [ -538441.195434131775983, 1666228.471910423366353 ], [ -538555.098084492841735, 1666348.042026217095554 ], [ -538632.385004723560996, 1666436.360449233558029 ], [ -538727.3138773314422, 1666519.2441470278427 ], [ -538812.768182134721428, 1666558.647655868669972 ], [ -539016.290978297940455, 1666542.342825026018545 ], [ -539364.995649444521405, 1666508.372890813741833 ], [ -539523.736110330908559, 1666509.730328494682908 ], [ -539603.772761234664358, 1666531.469272039365023 ], [ -539689.227991082472727, 1666570.871937418589368 ], [ -539769.239325382979587, 1666642.884254327975214 ], [ -539902.094850694062188, 1666849.410780645208433 ], [ -540011.892431852524169, 1667043.708340615499765 ], [ -540136.609565569437109, 1667248.874850997235626 ], [ -540266.772675549378619, 1667421.431416849140078 ], [ -540348.121868811664172, 1667535.563107283087447 ], [ -540402.329412788501941, 1667661.923397186677903 ], [ -540407.697047124966048, 1667780.132584867067635 ], [ -540399.506325142923743, 1667879.319134201155975 ], [ -540391.291330384672619, 1668028.778475684812292 ], [ -540403.463572239503264, 1668106.225413654698059 ], [ -540441.39255709014833, 1668229.86793657252565 ], [ -540518.661187886027619, 1668368.455094061326236 ], [ -540647.467496405472048, 1668549.161379404366016 ], [ -540829.198443238507025, 1668713.561008970718831 ], [ -540983.861050108447671, 1668739.372505482053384 ], [ -541133.129193812143058, 1668697.248194979736581 ], [ -541358.403363985009491, 1668600.772352612577379 ], [ -541635.262391598662362, 1668445.869248155038804 ], [ -541984.019875875790603, 1668311.341849623480812 ], [ -542140.041808713926002, 1668328.998008719645441 ], [ -542358.439800006803125, 1668424.098180413246155 ], [ -542542.91134844138287, 1668521.913575527723879 ], [ -542747.698158340295777, 1668648.249843208352104 ], [ -542940.312630901229568, 1668697.140764053910971 ], [ -543082.75671352352947, 1668695.765062687452883 ], [ -543248.234076002496295, 1668756.887014013016596 ], [ -543339.100216928403825, 1668813.941500405082479 ], [ -543409.539413196500391, 1669043.553531444864348 ], [ -543444.725648683961481, 1669233.767832687823102 ], [ -543475.831808695336804, 1669448.438231234438717 ], [ -543481.16108600795269, 1669667.187501118984073 ], [ -543417.251766151050106, 1670000.074093441246077 ], [ -543413.082707564579323, 1670225.616545121418312 ], [ -543459.067581341834739, 1670308.087300867075101 ], [ -543588.747870302177034, 1670200.354762763250619 ], [ -544198.197390317567624, 1669455.712957092560828 ], [ -544634.299309966852888, 1668875.023585221497342 ] ], [ [ -540201.182795306434855, 1685135.047658932860941 ], [ -540033.038170586107299, 1684788.64647840987891 ], [ -539898.766051687067375, 1684590.316468674689531 ], [ -539814.70586608001031, 1684391.987094419077039 ], [ -539727.924954270245507, 1684209.957335004815832 ], [ -539645.202232629293576, 1684053.735696558607742 ], [ -539531.232168475864455, 1683984.451700155623257 ], [ -539381.971449151868001, 1683926.033810735447332 ], [ -539172.975420095026493, 1683924.666092055849731 ], [ -538996.527293803170323, 1683978.995330723235384 ], [ -538815.975560760241933, 1684108.036256402498111 ], [ -538636.743179278331809, 1684329.447976789437234 ], [ -538469.75379221024923, 1684477.505771729629487 ], [ -538300.064114717300981, 1684591.602508238749579 ], [ -538134.476492519723251, 1684630.985843899194151 ], [ -538021.872801316087134, 1684637.015902716433629 ] ], [ [ -538917.920889617525972, 1673540.276781702646986 ], [ -539265.915335764992051, 1673291.487482317723334 ], [ -539886.187322148005478, 1672934.17378877918236 ], [ -540494.275995862204581, 1672499.408180866856128 ], [ -541217.707204010570422, 1672025.229605201864615 ], [ -542200.376643908559345, 1671301.024772902019322 ], [ -542967.169474120019004, 1670716.723437689244747 ], [ -543381.331705158110708, 1670372.666201726999134 ], [ -543228.509836002136581, 1670379.168624367332086 ], [ -542919.191521037719212, 1670377.84430349082686 ], [ -542592.256180861731991, 1670331.683779020793736 ], [ -542277.542044318281114, 1670262.422557076439261 ], [ -541905.816990895196795, 1670183.638324061175808 ], [ -541665.665316829108633, 1670168.701449846383184 ], [ -541493.357584615936503, 1670148.326910570031032 ], [ -541391.614852245198563, 1670106.210626444779336 ], [ -541245.112321010441519, 1670031.486876450013369 ], [ -541072.852223589667119, 1669910.568314177682623 ], [ -540971.134054491878487, 1669818.179993982193992 ], [ -540892.476501859142445, 1669738.018980549415573 ], [ -540815.179556788527407, 1669649.705765975406393 ], [ -540729.718813751125708, 1669610.305733712157235 ], [ -540622.534796309657395, 1669600.796828855760396 ], [ -540359.300051280413754, 1669623.898701295256615 ], [ -539836.887960225576535, 1669695.91461527091451 ], [ -539494.970500539871864, 1669689.122343020513654 ], [ -539185.640259518404491, 1669637.491727426880971 ], [ -538835.608169104671106, 1669579.065696350065991 ], [ -538482.854260363383219, 1669536.941903315717354 ], [ -538326.827997336164117, 1669519.2765214049723 ], [ -538104.3449390840251, 1669448.620307827135548 ], [ -537979.424391530221328, 1669411.350476818159223 ] ], [ [ -526572.301983137382194, 1707006.119326430372894 ], [ -527002.397015994880348, 1706946.618886196287349 ], [ -527483.584243452874944, 1706896.800449301721528 ], [ -527923.965948216151446, 1706857.521343376720324 ], [ -527956.329663146520033, 1706845.56855669640936 ], [ -528054.145569835556671, 1706753.419293209211901 ], [ -528445.407823782414198, 1706384.817233663517982 ], [ -528771.939629912376404, 1706040.117657161783427 ], [ -528992.929344160133041, 1705755.90091968444176 ], [ -529219.500137645401992, 1705594.119071502238512 ], [ -529312.387967010377906, 1705505.482309620827436 ], [ -529470.02050594764296, 1705340.866943211993203 ], [ -529658.615319951553829, 1705146.704566733213142 ], [ -529996.360772398998961, 1704890.654977851780131 ], [ -530262.311020771972835, 1704752.801425722893327 ], [ -530681.64096357813105, 1704527.730043647112325 ], [ -531030.604361469042487, 1704360.339489720528945 ], [ -531565.297642639605328, 1704119.806544644292444 ], [ -531817.180438877549022, 1703962.239837534027174 ], [ -531990.27691362099722, 1703808.876530069857836 ], [ -532291.427765191183425, 1703564.061472920002416 ], [ -532706.56889617734123, 1703208.085572269745171 ] ], [ [ -526466.958098358009011, 1676666.97922679129988 ], [ -526674.837805502000265, 1676555.330932947574183 ], [ -526845.837408709572628, 1676533.634590474888682 ], [ -527008.694195333169773, 1676510.577141668880358 ], [ -527102.366931166732684, 1676450.823852325323969 ], [ -527224.581742962822318, 1676320.433276146650314 ], [ -527310.145409207209013, 1676209.053396618925035 ], [ -527372.61507312732283, 1676135.706989583326504 ], [ -527411.990904682665132, 1676100.393949773395434 ], [ -527511.079819644102827, 1676058.301469154655933 ], [ -527644.095481311669573, 1676013.499126431765035 ], [ -527815.060237423866056, 1676042.065175398485735 ], [ -527977.852151823230088, 1676119.536125670885667 ], [ -528029.392346107168123, 1676161.661417740397155 ], [ -528121.575234325835481, 1676311.119012896437198 ], [ -528175.745337789878249, 1676487.738491530762985 ], [ -528331.697126760031097, 1676656.22801921190694 ], [ -528524.301113912719302, 1676805.704754429869354 ], [ -528655.893230681307614, 1676869.582096553407609 ], [ -528782.067567845457233, 1676915.797092744382098 ], [ -528920.469816446537152, 1676938.919626506278291 ], [ -529043.951511159655638, 1676951.170793073484674 ], [ -529271.908424591645598, 1676989.253867260180414 ], [ -529374.991168415057473, 1677073.501918430905789 ], [ -529384.464061762089841, 1677116.976120099658147 ], [ -529404.620649401447736, 1677447.098548047943041 ], [ -529388.157250752672553, 1677745.96682251105085 ], [ -529336.43446040188428, 1678005.430406679399312 ], [ -529238.556628431193531, 1678290.695794763043523 ], [ -529204.419302154798061, 1678645.254740151809528 ], [ -529209.74776812910568, 1678813.707849235273898 ], [ -529185.233695322880521, 1678960.419255514396355 ], [ -529149.854246865026653, 1679122.071034241700545 ], [ -529129.42594531737268, 1679244.329944093246013 ], [ -529138.870187484659255, 1679338.066508443327621 ], [ -529228.338964171241969, 1679503.818270347779617 ], [ -529418.261585758882575, 1679619.325788107002154 ], [ -529562.087917129974812, 1679660.108439588453621 ], [ -529838.90423982264474, 1679706.349862526636571 ], [ -529944.71731827093754, 1679774.293351017870009 ], [ -530112.911498436820693, 1679919.681010975968093 ], [ -530202.272790071787313, 1680013.466291989665478 ], [ -530220.719609429244883, 1680000.420767571311444 ], [ -531371.926210948033258, 1679271.122592718806118 ], [ -532318.097600937820971, 1678717.007212531054392 ], [ -533241.218218496185727, 1678100.377068856032565 ], [ -533968.850369415711612, 1677601.893684739479795 ], [ -534200.957558546564542, 1677419.987281083129346 ], [ -534416.01951769227162, 1677605.455147572327405 ], [ -534581.464650326641276, 1677817.402998963370919 ], [ -534786.231283164350316, 1678094.562635138863698 ], [ -534849.950207236804999, 1678214.11822101008147 ], [ -534868.87828200426884, 1678351.32954990118742 ], [ -534878.303634579991922, 1678495.332651308039203 ], [ -534895.871282243984751, 1678640.694239648291841 ], [ -534921.605642224778421, 1678737.150349822128192 ], [ -534959.539988966309465, 1678860.777682417770848 ], [ -534989.35846885794308, 1678932.781228638952598 ], [ -535032.737854737089947, 1679023.804945916635916 ], [ -535050.331392119056545, 1679118.901303606806323 ], [ -535039.416955913649872, 1679234.372262954944745 ], [ -535010.832769549568184, 1679405.539363917196169 ], [ -534892.614502651500516, 1679712.545656913658604 ], [ -534866.090846386156045, 1679871.373184822266921 ], [ -534427.531125898822211, 1680217.056866684230044 ], [ -534318.353677690029144, 1680312.52759121847339 ], [ -534345.328390242648311, 1680484.099347190931439 ], [ -534362.87215222325176, 1680679.720789746847004 ], [ -534324.759460131521337, 1680907.938062525819987 ], [ -534269.001785270404071, 1681141.586259611649439 ], [ -534234.99839898722712, 1681295.087545940419659 ], [ -534191.541734596132301, 1681354.854236439103261 ], [ -534116.853802185854875, 1681451.29500488541089 ], [ -534080.177247240208089, 1681520.571197572397068 ], [ -534081.413094036048278, 1681763.733530150726438 ], [ -534056.862038881517947, 1682010.966818589484319 ], [ -534081.163405916071497, 1682266.35611975681968 ], [ -533965.566456292523071, 1682758.093125459039584 ], [ -533867.738436312880367, 1682993.087742667412385 ], [ -533749.567495822324418, 1683199.551445100456476 ], [ -533521.463735612574965, 1683412.790831170976162 ], [ -533205.056822414044291, 1683803.966836661100388 ], [ -532917.133041738183238, 1684225.028074210043997 ], [ -532728.324975866242312, 1684553.729896486504003 ], [ -532661.751212580362335, 1684701.783787690103054 ], [ -532581.614206984289922, 1684830.817320588044822 ], [ -532482.495030164485797, 1684923.171269425656646 ], [ -532382.014374347985722, 1685023.675083603709936 ], [ -532254.408897970221005, 1685086.140260864514858 ], [ -532160.733950206195004, 1685145.893216493306682 ], [ -532042.581948275561444, 1685302.086137292440981 ], [ -531924.428918249905109, 1685458.278300744714215 ], [ -531776.403228315175511, 1685642.990868606604636 ], [ -531628.351822498254478, 1685877.962019711267203 ], [ -531487.1314409020124, 1686021.922372149303555 ], [ -531360.859667097567581, 1686126.492761286906898 ], [ -531166.749808956985362, 1686186.224858976900578 ], [ -530820.628448354545981, 1686254.077341293450445 ], [ -530640.106058235513046, 1686282.56795552931726 ], [ -530530.715238537057303, 1686311.840447808150202 ] ], [ [ -530312.239178263931535, 1696803.897509965347126 ], [ -530166.109182952321135, 1696962.939291610615328 ], [ -529988.19692248525098, 1697176.127125310711563 ], [ -529784.513218695065007, 1697343.130762880900875 ], [ -529628.396750948857516, 1697375.689568521687761 ], [ -529385.419065664871596, 1697376.990247287321836 ], [ -529207.61446939536836, 1697338.920034376671538 ], [ -529028.449307969887741, 1697308.997648961609229 ], [ -528832.973597224336118, 1697326.605130228213966 ], [ -528558.735997906653211, 1697414.815042578615248 ], [ -528251.87685338279698, 1697598.08401750959456 ], [ -527926.051604532403871, 1697694.42618285655044 ], [ -527669.460206361836754, 1697777.203270771540701 ], [ -527245.905360196367837, 1697857.217618383234367 ], [ -526901.043645109282807, 1698017.379545186879113 ], [ -526643.064755176194012, 1698158.549909467343241 ], [ -526418.974226167891175, 1698397.512214310932904 ], [ -526268.250282498192973, 1698497.968070069560781 ], [ -526042.892750702332705, 1698544.077388409292325 ], [ -525700.843666550004855, 1698486.935100938426331 ], [ -525449.740697093540803, 1698436.60916645731777 ], [ -525179.700921308249235, 1698249.10824708128348 ], [ -525016.846996039617807, 1698171.6469320661854 ], [ -524815.946484287967905, 1698171.584588000318035 ], [ -524479.296515257563442, 1698182.343386438908055 ], [ -524226.784125662816223, 1698240.661569103831425 ], [ -523964.764973610115703, 1698305.765366811770946 ], [ -523774.679237006814219, 1698391.263165037846193 ], [ -523623.92638772726059, 1698541.962133752414957 ], [ -523424.256399506644811, 1698784.993388560367748 ], [ -523281.543604350008536, 1699138.046638064086437 ], [ -523090.042471060995013, 1699332.186348115326837 ], [ -522830.689840573526453, 1699481.48498252267018 ], [ -522640.626294273766689, 1699516.728466363856569 ], [ -522470.908850486564916, 1699580.497869487153366 ], [ -522290.32457762316335, 1699659.202012759866193 ], [ -522096.148027350136545, 1699769.135827522724867 ], [ -521792.038659932732116, 1699835.570864633424208 ], [ -521409.236491927411407, 1699821.849333675811067 ], [ -520940.907574605022091, 1699818.957775567891076 ], [ -520541.762444100808352, 1699903.005205709254369 ], [ -520215.94102314353222, 1699949.05243368097581 ], [ -519990.600816915859468, 1699944.890107985353097 ], [ -519742.2181633526925, 1699878.246715244371444 ], [ -519563.074214833730366, 1699798.050291513092816 ], [ -519430.100331471301615, 1699692.068430891958997 ], [ -519280.923357620078605, 1699593.472756965318695 ] ], [ [ -524501.767988427192904, 1683053.967131292913109 ], [ -523819.85273552237777, 1683396.29759867512621 ], [ -522922.165474117384292, 1683747.206885534338653 ], [ -523052.047177284897771, 1683959.215691934805363 ], [ -523259.528576730750501, 1684220.086149083683267 ], [ -523408.717611664440483, 1684379.060546514112502 ], [ -523433.112442464393098, 1684433.401942703872919 ], [ -523456.049397416063584, 1684646.671319840475917 ], [ -523504.744979276263621, 1684906.131719433469698 ], [ -523595.4834376447252, 1685214.504445685073733 ], [ -523798.823231854243204, 1685600.335648126667365 ], [ -523896.46970214182511, 1685717.182201811112463 ], [ -524078.265518927015364, 1685831.336725296452641 ], [ -524205.758082572545391, 1685969.925038090674207 ], [ -524288.452577789896168, 1686126.157449295977131 ], [ -524318.267498288769275, 1686198.157892578048632 ], [ -524329.042735658935271, 1686333.993526558624581 ], [ -524300.40714644244872, 1686555.39222238981165 ], [ -524190.315844663884491, 1686813.440335851395503 ], [ -524118.187031693232711, 1687144.848021340556443 ], [ -524145.161674628790934, 1687434.176660672295839 ], [ -524128.700273308670148, 1687732.998887622030452 ], [ -524025.364433265582193, 1688050.81022580829449 ], [ -523912.581883299106266, 1688274.894555890467018 ], [ -523850.105366594449151, 1688348.223217715974897 ], [ -523750.972248220525216, 1688440.556306753773242 ], [ -523658.619433458545245, 1688542.399292635498568 ], [ -523581.189515091362409, 1688655.11295593297109 ], [ -523545.836111898242962, 1688766.480535595444962 ], [ -523525.40574307431234, 1688888.719519019825384 ], [ -523525.258558760106098, 1689140.001172610558569 ], [ -523586.169543390686158, 1689426.615358340088278 ], [ -523634.910285176010802, 1689635.803804878611118 ], [ -523743.433945316064637, 1689737.707615013234317 ], [ -523845.205836513545364, 1689779.845503001706675 ], [ -524025.68277291598497, 1689851.889115317957476 ], [ -524518.342782512889244, 1689909.085349631495774 ], [ -524983.850908904569224, 1689978.494169829180464 ], [ -525373.322153119021095, 1690102.20850679744035 ], [ -525589.041221311548725, 1690263.902827351586893 ], [ -525879.382818908547051, 1690479.946945265168324 ], [ -526062.50569153088145, 1690686.452208510134369 ], [ -526135.73920724587515, 1690799.206917984876782 ], [ -526187.293790049036033, 1690841.327023876365274 ], [ -526272.782220180262811, 1690880.740031832596287 ], [ -526360.994051849469543, 1690903.85408843238838 ], [ -526442.424322450067848, 1690917.458609059685841 ], [ -526542.863854457275011, 1690917.485369771020487 ], [ -526613.45499494438991, 1690895.772530780173838 ], [ -526711.198390054516494, 1690861.842991405865178 ], [ -526855.10372863500379, 1690802.117934516165406 ], [ -526933.837694596732035, 1690781.765086113475263 ], [ -527080.439345544669777, 1690755.996957283932716 ], [ -527296.244320044410415, 1690766.919043347472325 ], [ -527524.250855031074025, 1690805.008648242102936 ], [ -527719.685220038867556, 1690837.656238849274814 ], [ -527991.104949781438336, 1690916.502586354967207 ], [ -528129.487214209977537, 1691040.137376156169921 ], [ -528233.936038731597364, 1691166.480397527338937 ], [ -528388.530781055567786, 1691443.600294735049829 ], [ -528441.373987686121836, 1691628.334351440891623 ], [ -528439.963264360208996, 1691736.993111384566873 ], [ -528418.181901135365479, 1691867.378596606198698 ], [ -528365.189040052704513, 1691984.174082875950262 ], [ -528242.94135369930882, 1692164.788796433014795 ], [ -528157.374937062850222, 1692276.142556657548994 ], [ -528022.948780891951174, 1692379.334455931326374 ], [ -527940.129476932343096, 1692424.134745026007295 ], [ -527838.300686482922174, 1692482.512890680227429 ], [ -527751.397259452729486, 1692551.760232662782073 ], [ -527672.637818211922422, 1692622.367476610001177 ], [ -527618.306667830562219, 1692697.05553565477021 ], [ -527591.104393074056134, 1692809.780606160638854 ], [ -527650.755175379454158, 1692953.766562128206715 ], [ -527760.603450628113933, 1693148.018936856649816 ], [ -527840.602042766287923, 1693320.531876522349194 ], [ -527874.414066850906238, 1693569.091993248090148 ], [ -527791.545156493084505, 1693714.398325686343014 ], [ -527710.061526912031695, 1693801.301719455979764 ], [ -527598.726923933951184, 1693866.466415931936353 ], [ -527461.625135615118779, 1693885.445432777749375 ], [ -527332.690134547883645, 1693855.531536488328129 ], [ -527202.419944482622668, 1693783.512474659830332 ], [ -527042.27364659041632, 1693740.007044878555462 ], [ -526876.656656268169172, 1693779.350394014967605 ], [ -526761.211274957517162, 1693919.212190998718143 ], [ -526702.77080453292001, 1694068.597241764189675 ], [ -526625.369497428648174, 1694131.052419398445636 ], [ -526413.588622021256015, 1694196.186870489269495 ], [ -526188.242507816990837, 1694242.300996297504753 ], [ -526095.915317402919754, 1694293.886107439640909 ], [ -525976.409415877307765, 1694407.938765167491511 ], [ -525908.487149417633191, 1694513.857857497176155 ], [ -525873.088049683836289, 1694725.722729436587542 ], [ -525840.616033134865575, 1694868.077433847589418 ], [ -526823.872410839307122, 1694771.387123500462621 ], [ -527668.130916335619986, 1694828.656678583472967 ], [ -528816.400159677374177, 1694970.196754697710276 ], [ -529708.324099511373788, 1695153.349211003864184 ] ], [ [ -528661.900083691580221, 1669446.747857781592757 ], [ -528612.320159799070098, 1669694.128253196598962 ], [ -528510.277067212155089, 1670104.419707215158269 ], [ -528427.30749684094917, 1670400.587098925141618 ], [ -528322.708621054305695, 1670575.830913686892018 ], [ -528185.547162592061795, 1670745.633019505767152 ], [ -527916.706333467387594, 1671002.360064417356625 ], [ -527723.888137237052433, 1671204.755707913311198 ], [ -527598.986339436261915, 1671301.191718850517645 ], [ -527427.965641028480604, 1671373.162884555058554 ], [ -527373.672345074941404, 1671397.606491932412609 ], [ -527262.360287202289328, 1671462.796474890550599 ], [ -527163.241690462222323, 1671555.160995888290927 ], [ -527016.607460223487578, 1671681.479841495631263 ], [ -526937.822479311143979, 1671802.378373506478965 ], [ -526920.14441774378065, 1671858.077224991749972 ], [ -526859.927675547078252, 1671940.885736423078924 ] ], [ [ -528314.168354868888855, 1704157.405111910309643 ], [ -528203.535989390569739, 1704274.483803833601996 ], [ -528051.526243863045238, 1704444.377627276582643 ], [ -527965.662441564141773, 1704555.884885742561892 ], [ -527916.055230762460269, 1704593.165282775880769 ], [ -527829.859402050031349, 1704654.711895382264629 ], [ -527765.112598882173188, 1704730.689460166264325 ], [ -527722.882955361390486, 1704788.729613614734262 ], [ -527650.7529325830983, 1704856.964528535027057 ], [ -527516.001394274877384, 1704962.475352512672544 ], [ -527383.707162236445583, 1705079.245096002006903 ], [ -527327.75299085304141, 1705154.520438130479306 ], [ -527303.12542040576227, 1705172.104655276518315 ], [ -527260.558432039688341, 1705193.202062737662345 ], [ -527233.462695828988217, 1705225.562532685231417 ], [ -527197.215826083440334, 1705273.75253635761328 ], [ -527176.808576246257871, 1705292.041536349104717 ], [ -527107.861327664111741, 1705315.242381029296666 ], [ -527051.222685666987672, 1705342.668188391951844 ], [ -526994.589451670763083, 1705357.076562895439565 ], [ -526956.605722973821685, 1705350.732535133138299 ], [ -526887.321716305217706, 1705336.990985727403313 ], [ -526835.261477491585538, 1705349.993306841468439 ], [ -526734.671605728683062, 1705341.871481650043279 ], [ -526643.227846405934542, 1705330.937639080919325 ], [ -526553.199944007676095, 1705298.542713560396805 ], [ -526487.525513116735965, 1705260.557616373058408 ] ], [ [ -526897.264628687291406, 1672441.466972179710865 ], [ -526874.770752316922881, 1672730.284230996388942 ], [ -526860.807674286072142, 1673314.471327586565167 ], [ -526803.58730051771272, 1673656.819121260428801 ], [ -526757.29948440217413, 1673883.689592925598845 ], [ -526685.293064565048553, 1674014.095841883681715 ], [ -526595.642728498671204, 1674149.930856515886262 ], [ -526512.803632130497135, 1674245.011419889051467 ], [ -526394.676072943140753, 1674350.951641642022878 ], [ -526313.13222763419617, 1674538.412528578191996 ], [ -526166.392680080374703, 1674815.522426063660532 ], [ -526083.55337925744243, 1674910.600820266408846 ], [ -525926.080939396517351, 1675001.585233399644494 ], [ -525808.800377887557261, 1675070.260322480928153 ] ], [ [ -517498.938014188606758, 1709078.17132675810717 ], [ -517647.975303980172612, 1709054.704706728691235 ], [ -518020.854401778313331, 1709004.212148413993418 ], [ -518313.5279044265626, 1708966.346837148535997 ], [ -518462.699762313452084, 1708904.494790604803711 ], [ -518756.129474355489947, 1708758.271921323146671 ], [ -519107.940765707113314, 1708626.144259669119492 ], [ -519440.033141475578304, 1708534.111686032731086 ], [ -519671.498240644403268, 1708499.027777463663369 ], [ -519810.097823006508406, 1708474.458612847141922 ], [ -520014.840383516275324, 1708417.55065649561584 ], [ -520226.624970583594404, 1708344.461003488162532 ], [ -520465.836420153151266, 1708288.972233216976747 ], [ -520873.882798722770531, 1708235.660200134618208 ], [ -521255.19444286916405, 1708186.556672167498618 ], [ -521495.085671108099632, 1708178.909618032164872 ], [ -521723.714062252955046, 1708186.737219673581421 ], [ -521974.855791148438584, 1708189.646782684139907 ], [ -522214.746847621339839, 1708181.997094203252345 ], [ -522497.559883312031161, 1708151.142932850169018 ], [ -522765.606808160780929, 1708104.802433782722801 ], [ -523020.29742270411225, 1708034.532353489194065 ], [ -523171.577950294769835, 1707960.002690831199288 ], [ -523499.461728468711954, 1707815.172576114535332 ], [ -523896.999729757430032, 1707642.922923903912306 ], [ -524245.206394221342634, 1707497.644936767173931 ] ], [ [ -524122.698147336544935, 1705735.035740601131693 ], [ -524087.408566465019248, 1705750.203309712931514 ], [ -524006.133814909902867, 1705808.226536125177518 ], [ -523949.828894917562138, 1705872.590978530002758 ], [ -523847.058598818606697, 1706020.321186588145792 ], [ -523763.291716238949448, 1706145.18907324410975 ], [ -523695.354217344312929, 1706266.191993606509641 ], [ -523647.489603672467638, 1706331.965760580496863 ], [ -523600.694584885844961, 1706365.372437872225419 ], [ -523548.638414309301879, 1706365.354406501865014 ], [ -523458.257139695400838, 1706335.066404353128746 ], [ -523352.763369589461945, 1706278.386408631922677 ], [ -523236.701064389315434, 1706258.995475938310847 ], [ -523092.15364591544494, 1706228.33593619428575 ], [ -523030.616357249266002, 1706194.187529966933653 ], [ -522939.906409330200404, 1706113.940116358920932 ], [ -522846.381055735808332, 1706037.561502997763455 ], [ -522795.394991794251837, 1706005.17566484445706 ], [ -522749.322997729876079, 1705995.30806509940885 ], [ -522655.756135925417766, 1706010.050765895284712 ], [ -522579.770507012261078, 1706036.409789743600413 ], [ -522532.980956954124849, 1706056.798420165898278 ], [ -522499.904880923044402, 1706085.987472757697105 ], [ -522454.496023159008473, 1706163.019586798036471 ], [ -522380.906648866715841, 1706330.810524890432134 ], [ -522330.517637238255702, 1706528.513998014153913 ], [ -522288.27099976898171, 1706612.582804527366534 ], [ -522229.495124773355201, 1706691.720125141087919 ], [ -522199.228454111202154, 1706730.05703072110191 ], [ -522184.420564110856503, 1706805.692046407144517 ], [ -522166.761412653839216, 1706963.299085332546383 ], [ -522150.548819557880051, 1707034.359976327046752 ], [ -522131.879405766085256, 1707094.161467567551881 ], [ -522101.959213693044148, 1707143.404438558034599 ], [ -522035.088549818843603, 1707232.036469800863415 ], [ -521966.831135726941284, 1707277.043104746611789 ], [ -521874.66708760894835, 1707296.3582222412806 ], [ -521768.801558312727138, 1707280.838361196219921 ], [ -521592.932464963116217, 1707281.826878341147676 ], [ -521493.397826795408037, 1707267.364420547150075 ], [ -521398.0896735303686, 1707240.590047580190003 ], [ -521314.050508182495832, 1707185.322866736911237 ], [ -521183.233078229241073, 1707124.408390244236216 ], [ -521118.526939668343402, 1707096.238073194166645 ], [ -521035.521620836982038, 1707086.706705248681828 ], [ -520953.914955656800885, 1707094.766447217203677 ], [ -520865.977534286270384, 1707101.768317319685593 ], [ -520797.814513933670241, 1707119.54895527032204 ], [ -520616.218381215643603, 1707071.966334315016866 ], [ -520399.71837751113344, 1706989.725875512696803 ], [ -520196.129042691958603, 1706880.331715202657506 ], [ -519871.801471857295837, 1706591.641583836870268 ], [ -519584.835140729963314, 1706254.757670814637095 ], [ -519573.472782950091641, 1706249.168759090825915 ], [ -519560.421214140020311, 1706200.423777975607663 ], [ -519555.075661018898245, 1706032.037731538526714 ], [ -519561.934897156781517, 1705890.815452623879537 ], [ -519579.565951622789726, 1705785.329594485461712 ] ], [ [ -521650.142934522067662, 1684246.318087321706116 ], [ -521995.362779757066164, 1684096.647820099256933 ], [ -522542.97963786724722, 1683891.338984348578379 ], [ -522594.853929014294408, 1683690.115939145209268 ], [ -522691.360716906783637, 1683463.298273293534294 ], [ -522813.655435589316767, 1683232.412327103316784 ], [ -522885.800927081028931, 1682900.9893243459519 ], [ -523005.599897622247227, 1682334.576269153971225 ], [ -523041.057497570291162, 1682072.415953169809654 ], [ -523053.485274532984477, 1681747.760830391431227 ], [ -523037.400239389564376, 1681443.471498854923993 ], [ -522983.265184702409897, 1681216.599333094898611 ], [ -522888.388452371349558, 1681033.183589989552274 ], [ -522766.362178849813063, 1680861.984806461259723 ], [ -522481.636942175624426, 1680462.51899630529806 ], [ -522316.133651495911181, 1680262.920664981473237 ] ], [ [ -520350.298401851614472, 1692021.471134412335232 ], [ -520641.373268396768253, 1691895.485243969596922 ], [ -520764.912366380158346, 1691857.500260945875198 ], [ -520889.844405398936942, 1691761.112670802278444 ], [ -521040.657798470871057, 1691509.896128406049684 ], [ -521076.075768157490529, 1691298.026304304832593 ], [ -521061.302437460399233, 1691035.882452993653715 ], [ -521073.683887304854579, 1690761.523685049498454 ], [ -521128.112358256708831, 1690536.075481340987608 ], [ -521138.118561893468723, 1690517.187134861480445 ] ], [ [ -517894.831583101477008, 1706709.889127305243164 ], [ -517927.765416818438098, 1706706.160652041900903 ], [ -517969.983725332363974, 1706687.181275362148881 ], [ -518050.892077972239349, 1706670.329772525466979 ], [ -518109.639327836455777, 1706656.2829609089531 ], [ -518201.79758229496656, 1706649.990475640166551 ], [ -518260.911165101861116, 1706607.798540188930929 ], [ -518336.546911517449189, 1706583.55615062545985 ], [ -518410.784820711880457, 1706541.722348528914154 ], [ -518531.79384641314391, 1706518.554764062166214 ], [ -518570.483726059319451, 1706520.682285706046969 ], [ -518627.100491900346242, 1706545.333684593439102 ], [ -518678.072222090908326, 1706603.756897472776473 ], [ -518700.559209714061581, 1706650.909659977303818 ], [ -518691.745430497219786, 1706690.661041914252564 ], [ -518668.839068887697067, 1706775.790366004686803 ], [ -518650.506013672158588, 1706859.514155455864966 ], [ -518645.872941898007412, 1706978.073338163085282 ], [ -518628.245543650642503, 1707057.575501478742808 ], [ -518609.586166309716646, 1707091.341496659442782 ], [ -518569.118709168862551, 1707125.80160706769675 ], [ -518509.652245698031038, 1707170.104317077668384 ], [ -518428.364308340242133, 1707241.134997946210206 ], [ -518342.496148687088862, 1707326.588054343825206 ], [ -518229.174447391240392, 1707446.505999732762575 ], [ -518176.737414679664653, 1707500.661682166624814 ], [ -518153.164980473637115, 1707511.909339939476922 ], [ -518090.556079255358782, 1707510.122766045853496 ], [ -518019.166543675528374, 1707483.002023156965151 ], [ -517988.224913838552311, 1707460.47239777026698 ], [ -517956.584624162875116, 1707429.147422964684665 ], [ -517946.04653091635555, 1707401.349615203449503 ], [ -517935.89521404565312, 1707306.356395401991904 ], [ -517946.507161941495724, 1707190.967004767851904 ], [ -517923.681059676455334, 1707119.890954911941662 ], [ -517879.399522582534701, 1707047.398094004951417 ], [ -517845.452268506865948, 1707005.282082367921248 ] ], [ [ -538110.488531710463576, 1692245.831886693136767 ], [ -538088.743390723597258, 1692325.967565529514104 ], [ -538026.227771274629049, 1692550.074913588352501 ], [ -537897.223604729981162, 1692721.203459407668561 ], [ -537804.908878178219311, 1692772.808453634846956 ], [ -537737.041915202513337, 1692778.235138546675444 ], [ -537685.480059459456243, 1692736.124704793328419 ], [ -537661.104774465668015, 1692581.281737199285999 ], [ -537676.140314122778364, 1692290.615815493976697 ], [ -537737.315213003079407, 1692024.402120655402541 ], [ -537820.144313085824251, 1691929.330946143483743 ], [ -537875.804607192403637, 1691896.737387129571289 ], [ -537957.23661254090257, 1691910.327191282995045 ], [ -538060.377830720273778, 1691944.292883132118732 ], [ -538091.57199386798311, 1692008.134035491850227 ], [ -538110.488531710463576, 1692245.831886693136767 ] ], [ [ -533796.035012753447518, 1694624.919214929454029 ], [ -533778.347251441446133, 1694730.85577906249091 ], [ -533786.430729171144776, 1694882.975099097006023 ], [ -533759.199138018186204, 1695096.20744240609929 ], [ -533638.346225963556208, 1695218.424336487660185 ], [ -533508.02828405587934, 1695246.924523243447766 ], [ -533294.913287101313472, 1695269.977503185626119 ], [ -533108.970952210715041, 1695230.5568889582064 ], [ -533056.047293539973907, 1695196.593056277371943 ], [ -532992.27950684807729, 1695127.314511015079916 ], [ -532954.323615727596916, 1695003.711853398010135 ], [ -532992.381891378667206, 1694876.048989914124832 ], [ -533175.683809418114834, 1694730.753951279679313 ], [ -533310.083099909243174, 1694677.807476065820083 ], [ -533477.096520932740532, 1694529.792288607917726 ], [ -533566.695590876974165, 1694494.494474450591952 ], [ -533665.778331689885817, 1694502.659273642348126 ], [ -533736.349351832643151, 1694531.193477964494377 ], [ -533796.035012753447518, 1694624.919214929454029 ] ] ] } }
]
}
